"Longitude (x)","Latitude (y)","Station Name","Climate ID","Date/Time (LST)","Year","Month","Day","Time (LST)","Temp (°C)","Temp Flag","Dew Point Temp (°C)","Dew Point Temp Flag","Rel Hum (%)","Rel Hum Flag","Precip. Amount (mm)","Precip. Amount Flag","Wind Dir (10s deg)","Wind Dir Flag","Wind Spd (km/h)","Wind Spd Flag","Visibility (km)","Visibility Flag","Stn Press (kPa)","Stn Press Flag","Hmdx","Hmdx Flag","Wind Chill","Wind Chill Flag","Weather"
"-119.40","49.94","KELOWNA UBCO","1123996","2020-01-01 00:00","2020","01","01","00:00","2.2","","0.2","","86","","","M","","","","","","","94.35","","","","","","NA"
"-119.40","49.94","KELOWNA UBCO","1123996","2020-01-01 01:00","2020","01","01","01:00","1.8","","-0.3","","86","","","M","","","","","","","94.32","","","","","","NA"
"-119.40","49.94","KELOWNA UBCO","1123996","2020-01-01 02:00","2020","01","01","02:00","2.4","","0.2","","86","","","M","","","","","","","94.33","","","","","","NA"
"-119.40","49.94","KELOWNA UBCO","1123996","2020-01-01 03:00","2020","01","01","03:00","1.9","","0.0","","87","","","M","","","","","","","94.33","","","","","","NA"
"-119.40","49.94","KELOWNA UBCO","1123996","2020-01-01 04:00","2020","01","01","04:00","2.7","","0.5","","85","","","M","","","","","","","94.32","","","","","","NA"
"-119.40","49.94","KELOWNA UBCO","1123996","2020-01-01 05:00","2020","01","01","05:00","2.7","","0.4","","85","","","M","","","","","","","94.31","","","","","","NA"
"-119.40","49.94","KELOWNA UBCO","1123996","2020-01-01 06:00","2020","01","01","06:00","3.1","","0.8","","84","","","M","","","","","","","94.35","","","","","","NA"
"-119.40","49.94","KELOWNA UBCO","1123996","2020-01-01 07:00","2020","01","01","07:00","3.4","","0.7","","82","","","M","","","","","","","94.38","","","","","","NA"
"-119.40","49.94","KELOWNA UBCO","1123996","2020-01-01 08:00","2020","01","01","08:00","3.0","","0.3","","82","","","M","","","","","","","94.47","","","","","","NA"
"-119.40","49.94","KELOWNA UBCO","1123996","2020-01-01 09:00","2020","01","01","09:00","1.9","","-0.3","","85","","","M","","","","","","","94.55","","","","","","NA"
"-119.40","49.94","KELOWNA UBCO","1123996","2020-01-01 10:00","2020","01","01","10:00","2.9","","1.2","","88","","","M","","","","","","","94.65","","","","","","NA"
"-119.40","49.94","KELOWNA UBCO","1123996","2020-01-01 11:00","2020","01","01","11:00","2.6","","0.2","","84","","","M","","","","","","","94.71","","","","","","NA"
"-119.40","49.94","KELOWNA UBCO","1123996","2020-01-01 12:00","2020","01","01","12:00","3.6","","1.0","","83","","","M","","","","","","","94.76","","","","","","NA"
"-119.40","49.94","KELOWNA UBCO","1123996","2020-01-01 13:00","2020","01","01","13:00","5.3","","0.9","","74","","","M","","","","","","","94.80","","","","","","NA"
"-119.40","49.94","KELOWNA UBCO","1123996","2020-01-01 14:00","2020","01","01","14:00","7.2","","0.2","","61","","","M","","","","","","","94.85","","","","","","NA"
"-119.40","49.94","KELOWNA UBCO","1123996","2020-01-01 15:00","2020","01","01","15:00","7.9","","0.0","","58","","","M","","","","","","","94.91","","","","","","NA"
"-119.40","49.94","KELOWNA UBCO","1123996","2020-01-01 16:00","2020","01","01","16:00","6.9","","-0.3","","60","","","M","","","","","","","95.00","","","","","","NA"
"-119.40","49.94","KELOWNA UBCO","1123996","2020-01-01 17:00","2020","01","01","17:00","7.0","","-0.8","","58","","","M","","","","","","","95.01","","","","","","NA"
"-119.40","49.94","KELOWNA UBCO","1123996","2020-01-01 18:00","2020","01","01","18:00","7.4","","-1.5","","53","","","M","","","","","","","94.98","","","","","","NA"
"-119.40","49.94","KELOWNA UBCO","1123996","2020-01-01 19:00","2020","01","01","19:00","6.4","","-1.6","","56","","","M","","","","","","","95.04","","","","","","NA"
"-119.40","49.94","KELOWNA UBCO","1123996","2020-01-01 20:00","2020","01","01","20:00","3.7","","-1.4","","69","","","M","","","","","","","94.94","","","","","","NA"
"-119.40","49.94","KELOWNA UBCO","1123996","2020-01-01 21:00","2020","01","01","21:00","2.5","","-0.9","","78","","","M","","","","","","","94.99","","","","","","NA"
"-119.40","49.94","KELOWNA UBCO","1123996","2020-01-01 22:00","2020","01","01","22:00","3.8","","-0.6","","73","","","M","","","","","","","95.06","","","","","","NA"
"-119.40","49.94","KELOWNA UBCO","1123996","2020-01-01 23:00","2020","01","01","23:00","6.8","","-2.6","","51","","","M","","","","","","","95.16","","","","","","NA"
"-119.40","49.94","KELOWNA UBCO","1123996","2020-01-02 00:00","2020","01","02","00:00","6.4","","-3.9","","47","","","M","","","","","","","95.22","","","","","","NA"
"-119.40","49.94","KELOWNA UBCO","1123996","2020-01-02 01:00","2020","01","02","01:00","1.9","","-0.9","","81","","","M","","","","","","","95.51","","","","","","NA"
"-119.40","49.94","KELOWNA UBCO","1123996","2020-01-02 02:00","2020","01","02","02:00","1.8","","-2.8","","71","","","M","","","","","","","95.65","","","","","","NA"
"-119.40","49.94","KELOWNA UBCO","1123996","2020-01-02 03:00","2020","01","02","03:00","2.4","","-2.1","","72","","","M","","","","","","","95.77","","","","","","NA"
"-119.40","49.94","KELOWNA UBCO","1123996","2020-01-02 04:00","2020","01","02","04:00","1.8","","-1.7","","77","","","M","","","","","","","95.87","","","","","","NA"
"-119.40","49.94","KELOWNA UBCO","1123996","2020-01-02 05:00","2020","01","02","05:00","1.4","","-1.3","","82","","","M","","","","","","","95.93","","","","","","NA"
"-119.40","49.94","KELOWNA UBCO","1123996","2020-01-02 06:00","2020","01","02","06:00","1.7","","-2.4","","74","","","M","","","","","","","96.04","","","","","","NA"
"-119.40","49.94","KELOWNA UBCO","1123996","2020-01-02 07:00","2020","01","02","07:00","0.8","","-1.9","","82","","","M","","","","","","","96.14","","","","","","NA"
"-119.40","49.94","KELOWNA UBCO","1123996","2020-01-02 08:00","2020","01","02","08:00","0.3","","-1.4","","88","","","M","","","","","","","96.15","","","","","","NA"
"-119.40","49.94","KELOWNA UBCO","1123996","2020-01-02 09:00","2020","01","02","09:00","0.2","","-1.8","","86","","","M","","","","","","","96.19","","","","","","NA"
"-119.40","49.94","KELOWNA UBCO","1123996","2020-01-02 10:00","2020","01","02","10:00","0.6","","-2.5","","80","","","M","","","","","","","96.27","","","","","","NA"
"-119.40","49.94","KELOWNA UBCO","1123996","2020-01-02 11:00","2020","01","02","11:00","1.1","","-2.5","","77","","","M","","","","","","","96.25","","","","","","NA"
"-119.40","49.94","KELOWNA UBCO","1123996","2020-01-02 12:00","2020","01","02","12:00","2.4","","-3.4","","66","","","M","","","","","","","96.23","","","","","","NA"
"-119.40","49.94","KELOWNA UBCO","1123996","2020-01-02 13:00","2020","01","02","13:00","3.3","","-5.3","","53","","","M","","","","","","","96.18","","","","","","NA"
"-119.40","49.94","KELOWNA UBCO","1123996","2020-01-02 14:00","2020","01","02","14:00","3.0","","-4.2","","59","","","M","","","","","","","96.22","","","","","","NA"
"-119.40","49.94","KELOWNA UBCO","1123996","2020-01-02 15:00","2020","01","02","15:00","2.3","","-3.4","","66","","","M","","","","","","","96.21","","","","","","NA"
"-119.40","49.94","KELOWNA UBCO","1123996","2020-01-02 16:00","2020","01","02","16:00","1.5","","-4.1","","66","","","M","","","","","","","96.24","","","","","","NA"
"-119.40","49.94","KELOWNA UBCO","1123996","2020-01-02 17:00","2020","01","02","17:00","1.2","","-4.0","","68","","","M","","","","","","","96.21","","","","","","NA"
"-119.40","49.94","KELOWNA UBCO","1123996","2020-01-02 18:00","2020","01","02","18:00","0.9","","-3.0","","75","","","M","","","","","","","96.20","","","","","","NA"
"-119.40","49.94","KELOWNA UBCO","1123996","2020-01-02 19:00","2020","01","02","19:00","0.2","","-3.2","","78","","","M","","","","","","","96.16","","","","","","NA"
"-119.40","49.94","KELOWNA UBCO","1123996","2020-01-02 20:00","2020","01","02","20:00","-0.6","","-2.1","","90","","","M","","","","","","","96.14","","","","","","NA"
"-119.40","49.94","KELOWNA UBCO","1123996","2020-01-02 21:00","2020","01","02","21:00","-0.8","","-2.0","","92","","","M","","","","","","","96.08","","","","","","NA"
"-119.40","49.94","KELOWNA UBCO","1123996","2020-01-02 22:00","2020","01","02","22:00","-0.6","","-1.7","","92","","","M","","","","","","","96.01","","","","","","NA"
"-119.40","49.94","KELOWNA UBCO","1123996","2020-01-02 23:00","2020","01","02","23:00","-0.5","","-1.6","","92","","","M","","","","","","","95.96","","","","","","NA"
"-119.40","49.94","KELOWNA UBCO","1123996","2020-01-03 00:00","2020","01","03","00:00","-0.5","","-1.7","","91","","","M","","","","","","","95.90","","","","","","NA"
"-119.40","49.94","KELOWNA UBCO","1123996","2020-01-03 01:00","2020","01","03","01:00","-0.4","","-1.6","","92","","","M","","","","","","","95.86","","","","","","NA"
"-119.40","49.94","KELOWNA UBCO","1123996","2020-01-03 02:00","2020","01","03","02:00","-0.6","","-1.6","","92","","","M","","","","","","","95.84","","","","","","NA"
"-119.40","49.94","KELOWNA UBCO","1123996","2020-01-03 03:00","2020","01","03","03:00","-0.6","","-1.6","","92","","","M","","","","","","","95.82","","","","","","NA"
"-119.40","49.94","KELOWNA UBCO","1123996","2020-01-03 04:00","2020","01","03","04:00","-0.8","","-1.8","","93","","","M","","","","","","","95.75","","","","","","NA"
"-119.40","49.94","KELOWNA UBCO","1123996","2020-01-03 05:00","2020","01","03","05:00","-0.5","","-1.5","","93","","","M","","","","","","","95.74","","","","","","NA"
"-119.40","49.94","KELOWNA UBCO","1123996","2020-01-03 06:00","2020","01","03","06:00","-0.4","","-1.4","","93","","","M","","","","","","","95.70","","","","","","NA"
"-119.40","49.94","KELOWNA UBCO","1123996","2020-01-03 07:00","2020","01","03","07:00","-0.2","","-1.2","","93","","","M","","","","","","","95.71","","","","","","NA"
"-119.40","49.94","KELOWNA UBCO","1123996","2020-01-03 08:00","2020","01","03","08:00","0.0","","-1.0","","93","","","M","","","","","","","95.79","","","","","","NA"
"-119.40","49.94","KELOWNA UBCO","1123996","2020-01-03 09:00","2020","01","03","09:00","0.1","","-0.9","","93","","","M","","","","","","","95.88","","","","","","NA"
"-119.40","49.94","KELOWNA UBCO","1123996","2020-01-03 10:00","2020","01","03","10:00","0.6","","-0.8","","90","","","M","","","","","","","95.78","","","","","","NA"
"-119.40","49.94","KELOWNA UBCO","1123996","2020-01-03 11:00","2020","01","03","11:00","1.1","","-1.1","","85","","","M","","","","","","","95.74","","","","","","NA"
"-119.40","49.94","KELOWNA UBCO","1123996","2020-01-03 12:00","2020","01","03","12:00","0.7","","-1.1","","88","","","M","","","","","","","95.78","","","","","","NA"
"-119.40","49.94","KELOWNA UBCO","1123996","2020-01-03 13:00","2020","01","03","13:00","2.5","","0.5","","86","","","M","","","","","","","95.73","","","","","","NA"
"-119.40","49.94","KELOWNA UBCO","1123996","2020-01-03 14:00","2020","01","03","14:00","3.6","","0.0","","77","","","M","","","","","","","95.70","","","","","","NA"
"-119.40","49.94","KELOWNA UBCO","1123996","2020-01-03 15:00","2020","01","03","15:00","3.6","","0.5","","80","","","M","","","","","","","95.64","","","","","","NA"
"-119.40","49.94","KELOWNA UBCO","1123996","2020-01-03 16:00","2020","01","03","16:00","0.5","","-1.2","","88","","","M","","","","","","","95.63","","","","","","NA"
"-119.40","49.94","KELOWNA UBCO","1123996","2020-01-03 17:00","2020","01","03","17:00","0.2","","-1.0","","92","","","M","","","","","","","95.56","","","","","","NA"
"-119.40","49.94","KELOWNA UBCO","1123996","2020-01-03 18:00","2020","01","03","18:00","-1.1","","-2.2","","92","","","M","","","","","","","95.45","","","","","","NA"
"-119.40","49.94","KELOWNA UBCO","1123996","2020-01-03 19:00","2020","01","03","19:00","-0.7","","-1.6","","93","","","M","","","","","","","95.34","","","","","","NA"
"-119.40","49.94","KELOWNA UBCO","1123996","2020-01-03 20:00","2020","01","03","20:00","-0.6","","-1.5","","94","","","M","","","","","","","95.26","","","","","","NA"
"-119.40","49.94","KELOWNA UBCO","1123996","2020-01-03 21:00","2020","01","03","21:00","-0.2","","-1.1","","94","","","M","","","","","","","95.15","","","","","","NA"
"-119.40","49.94","KELOWNA UBCO","1123996","2020-01-03 22:00","2020","01","03","22:00","1.5","","0.4","","93","","","M","","","","","","","95.00","","","","","","NA"
"-119.40","49.94","KELOWNA UBCO","1123996","2020-01-03 23:00","2020","01","03","23:00","2.0","","-1.2","","79","","","M","","","","","","","94.94","","","","","","NA"
"-119.40","49.94","KELOWNA UBCO","1123996","2020-01-04 00:00","2020","01","04","00:00","5.0","","-0.3","","69","","","M","","","","","","","94.82","","","","","","NA"
"-119.40","49.94","KELOWNA UBCO","1123996","2020-01-04 01:00","2020","01","04","01:00","3.0","","-1.2","","74","","","M","","","","","","","94.80","","","","","","NA"
"-119.40","49.94","KELOWNA UBCO","1123996","2020-01-04 02:00","2020","01","04","02:00","5.9","","-2.2","","56","","","M","","","","","","","94.83","","","","","","NA"
"-119.40","49.94","KELOWNA UBCO","1123996","2020-01-04 03:00","2020","01","04","03:00","6.8","","-2.4","","52","","","M","","","","","","","94.88","","","","","","NA"
"-119.40","49.94","KELOWNA UBCO","1123996","2020-01-04 04:00","2020","01","04","04:00","6.3","","-1.2","","58","","","M","","","","","","","94.92","","","","","","NA"
"-119.40","49.94","KELOWNA UBCO","1123996","2020-01-04 05:00","2020","01","04","05:00","5.2","","0.4","","71","","","M","","","","","","","95.10","","","","","","NA"
"-119.40","49.94","KELOWNA UBCO","1123996","2020-01-04 06:00","2020","01","04","06:00","6.6","","-3.5","","48","","","M","","","","","","","95.27","","","","","","NA"
"-119.40","49.94","KELOWNA UBCO","1123996","2020-01-04 07:00","2020","01","04","07:00","6.5","","-6.5","","39","","","M","","","","","","","95.44","","","","","","NA"
"-119.40","49.94","KELOWNA UBCO","1123996","2020-01-04 08:00","2020","01","04","08:00","4.5","","-7.0","","43","","","M","","","","","","","95.70","","","","","","NA"
"-119.40","49.94","KELOWNA UBCO","1123996","2020-01-04 09:00","2020","01","04","09:00","4.7","","-7.2","","42","","","M","","","","","","","95.90","","","","","","NA"
"-119.40","49.94","KELOWNA UBCO","1123996","2020-01-04 10:00","2020","01","04","10:00","4.9","","-6.7","","43","","","M","","","","","","","96.13","","","","","","NA"
"-119.40","49.94","KELOWNA UBCO","1123996","2020-01-04 11:00","2020","01","04","11:00","5.1","","-6.4","","43","","","M","","","","","","","96.26","","","","","","NA"
"-119.40","49.94","KELOWNA UBCO","1123996","2020-01-04 12:00","2020","01","04","12:00","5.2","","-6.4","","43","","","M","","","","","","","96.31","","","","","","NA"
"-119.40","49.94","KELOWNA UBCO","1123996","2020-01-04 13:00","2020","01","04","13:00","6.0","","-6.6","","40","","","M","","","","","","","96.41","","","","","","NA"
"-119.40","49.94","KELOWNA UBCO","1123996","2020-01-04 14:00","2020","01","04","14:00","6.6","","-7.5","","36","","","M","","","","","","","96.52","","","","","","NA"
"-119.40","49.94","KELOWNA UBCO","1123996","2020-01-04 15:00","2020","01","04","15:00","6.3","","-7.9","","35","","","M","","","","","","","96.61","","","","","","NA"
"-119.40","49.94","KELOWNA UBCO","1123996","2020-01-04 16:00","2020","01","04","16:00","5.3","","-6.9","","41","","","M","","","","","","","96.71","","","","","","NA"
"-119.40","49.94","KELOWNA UBCO","1123996","2020-01-04 17:00","2020","01","04","17:00","4.8","","-6.1","","45","","","M","","","","","","","96.77","","","","","","NA"
"-119.40","49.94","KELOWNA UBCO","1123996","2020-01-04 18:00","2020","01","04","18:00","3.9","","-6.0","","48","","","M","","","","","","","96.79","","","","","","NA"
"-119.40","49.94","KELOWNA UBCO","1123996","2020-01-04 19:00","2020","01","04","19:00","2.0","","-5.1","","59","","","M","","","","","","","96.79","","","","","","NA"
"-119.40","49.94","KELOWNA UBCO","1123996","2020-01-04 20:00","2020","01","04","20:00","2.7","","-5.4","","55","","","M","","","","","","","96.84","","","","","","NA"
"-119.40","49.94","KELOWNA UBCO","1123996","2020-01-04 21:00","2020","01","04","21:00","2.4","","-5.8","","55","","","M","","","","","","","96.88","","","","","","NA"
"-119.40","49.94","KELOWNA UBCO","1123996","2020-01-04 22:00","2020","01","04","22:00","0.4","","-5.2","","66","","","M","","","","","","","96.93","","","","","","NA"
"-119.40","49.94","KELOWNA UBCO","1123996","2020-01-04 23:00","2020","01","04","23:00","2.2","","-4.7","","60","","","M","","","","","","","96.96","","","","","","NA"
"-119.40","49.94","KELOWNA UBCO","1123996","2020-01-05 00:00","2020","01","05","00:00","1.8","","-4.7","","62","","","M","","","","","","","96.92","","","","","","NA"
"-119.40","49.94","KELOWNA UBCO","1123996","2020-01-05 01:00","2020","01","05","01:00","2.7","","-5.1","","56","","","M","","","","","","","96.90","","","","","","NA"
"-119.40","49.94","KELOWNA UBCO","1123996","2020-01-05 02:00","2020","01","05","02:00","2.2","","-5.1","","58","","","M","","","","","","","96.91","","","","","","NA"
"-119.40","49.94","KELOWNA UBCO","1123996","2020-01-05 03:00","2020","01","05","03:00","1.7","","-4.9","","62","","","M","","","","","","","96.86","","","","","","NA"
"-119.40","49.94","KELOWNA UBCO","1123996","2020-01-05 04:00","2020","01","05","04:00","2.7","","-4.4","","59","","","M","","","","","","","96.81","","","","","","NA"
"-119.40","49.94","KELOWNA UBCO","1123996","2020-01-05 05:00","2020","01","05","05:00","2.5","","-4.2","","61","","","M","","","","","","","96.75","","","","","","NA"
"-119.40","49.94","KELOWNA UBCO","1123996","2020-01-05 06:00","2020","01","05","06:00","2.6","","-4.5","","60","","","M","","","","","","","96.72","","","","","","NA"
"-119.40","49.94","KELOWNA UBCO","1123996","2020-01-05 07:00","2020","01","05","07:00","3.2","","-4.7","","56","","","M","","","","","","","96.70","","","","","","NA"
"-119.40","49.94","KELOWNA UBCO","1123996","2020-01-05 08:00","2020","01","05","08:00","2.8","","-4.8","","58","","","M","","","","","","","96.66","","","","","","NA"
"-119.40","49.94","KELOWNA UBCO","1123996","2020-01-05 09:00","2020","01","05","09:00","2.7","","-4.5","","59","","","M","","","","","","","96.62","","","","","","NA"
"-119.40","49.94","KELOWNA UBCO","1123996","2020-01-05 10:00","2020","01","05","10:00","2.7","","-4.4","","59","","","M","","","","","","","96.54","","","","","","NA"
"-119.40","49.94","KELOWNA UBCO","1123996","2020-01-05 11:00","2020","01","05","11:00","3.8","","-3.6","","59","","","M","","","","","","","96.45","","","","","","NA"
"-119.40","49.94","KELOWNA UBCO","1123996","2020-01-05 12:00","2020","01","05","12:00","3.7","","-2.9","","62","","","M","","","","","","","96.30","","","","","","NA"
"-119.40","49.94","KELOWNA UBCO","1123996","2020-01-05 13:00","2020","01","05","13:00","3.8","","-2.7","","62","","","M","","","","","","","96.16","","","","","","NA"
"-119.40","49.94","KELOWNA UBCO","1123996","2020-01-05 14:00","2020","01","05","14:00","3.5","","-1.8","","69","","","M","","","","","","","96.11","","","","","","NA"
"-119.40","49.94","KELOWNA UBCO","1123996","2020-01-05 15:00","2020","01","05","15:00","4.1","","-2.2","","64","","","M","","","","","","","96.08","","","","","","NA"
"-119.40","49.94","KELOWNA UBCO","1123996","2020-01-05 16:00","2020","01","05","16:00","4.4","","-2.4","","61","","","M","","","","","","","96.09","","","","","","NA"
"-119.40","49.94","KELOWNA UBCO","1123996","2020-01-05 17:00","2020","01","05","17:00","2.9","","-2.2","","69","","","M","","","","","","","96.16","","","","","","NA"
"-119.40","49.94","KELOWNA UBCO","1123996","2020-01-05 18:00","2020","01","05","18:00","4.2","","-3.6","","57","","","M","","","","","","","96.26","","","","","","NA"
"-119.40","49.94","KELOWNA UBCO","1123996","2020-01-05 19:00","2020","01","05","19:00","4.3","","-5.8","","48","","","M","","","","","","","96.39","","","","","","NA"
"-119.40","49.94","KELOWNA UBCO","1123996","2020-01-05 20:00","2020","01","05","20:00","4.0","","-7.5","","43","","","M","","","","","","","96.53","","","","","","NA"
"-119.40","49.94","KELOWNA UBCO","1123996","2020-01-05 21:00","2020","01","05","21:00","3.9","","-8.7","","39","","","M","","","","","","","96.66","","","","","","NA"
"-119.40","49.94","KELOWNA UBCO","1123996","2020-01-05 22:00","2020","01","05","22:00","4.0","","-10.2","","35","","","M","","","","","","","96.74","","","","","","NA"
"-119.40","49.94","KELOWNA UBCO","1123996","2020-01-05 23:00","2020","01","05","23:00","3.0","","-10.6","","36","","","M","","","","","","","96.74","","","","","","NA"
"-119.40","49.94","KELOWNA UBCO","1123996","2020-01-06 00:00","2020","01","06","00:00","2.9","","-9.3","","40","","","M","","","","","","","96.78","","","","","","NA"
"-119.40","49.94","KELOWNA UBCO","1123996","2020-01-06 01:00","2020","01","06","01:00","2.6","","-7.4","","48","","","M","","","","","","","96.78","","","","","","NA"
"-119.40","49.94","KELOWNA UBCO","1123996","2020-01-06 02:00","2020","01","06","02:00","2.4","","-6.9","","51","","","M","","","","","","","96.82","","","","","","NA"
"-119.40","49.94","KELOWNA UBCO","1123996","2020-01-06 03:00","2020","01","06","03:00","1.0","","-2.8","","76","","","M","","","","","","","96.91","","","","","","NA"
"-119.40","49.94","KELOWNA UBCO","1123996","2020-01-06 04:00","2020","01","06","04:00","-0.1","","-1.9","","88","","","M","","","","","","","96.86","","","","","","NA"
"-119.40","49.94","KELOWNA UBCO","1123996","2020-01-06 05:00","2020","01","06","05:00","-0.3","","-1.7","","90","","","M","","","","","","","96.77","","","","","","NA"
"-119.40","49.94","KELOWNA UBCO","1123996","2020-01-06 06:00","2020","01","06","06:00","-0.6","","-1.7","","92","","","M","","","","","","","96.73","","","","","","NA"
"-119.40","49.94","KELOWNA UBCO","1123996","2020-01-06 07:00","2020","01","06","07:00","-0.4","","-1.4","","93","","","M","","","","","","","96.68","","","","","","NA"
"-119.40","49.94","KELOWNA UBCO","1123996","2020-01-06 08:00","2020","01","06","08:00","-0.4","","-1.4","","93","","","M","","","","","","","96.65","","","","","","NA"
"-119.40","49.94","KELOWNA UBCO","1123996","2020-01-06 09:00","2020","01","06","09:00","-0.3","","-1.3","","93","","","M","","","","","","","96.60","","","","","","NA"
"-119.40","49.94","KELOWNA UBCO","1123996","2020-01-06 10:00","2020","01","06","10:00","-0.2","","-1.3","","92","","","M","","","","","","","96.55","","","","","","NA"
"-119.40","49.94","KELOWNA UBCO","1123996","2020-01-06 11:00","2020","01","06","11:00","-0.1","","-1.4","","91","","","M","","","","","","","96.49","","","","","","NA"
"-119.40","49.94","KELOWNA UBCO","1123996","2020-01-06 12:00","2020","01","06","12:00","-0.1","","-1.5","","90","","","M","","","","","","","96.43","","","","","","NA"
"-119.40","49.94","KELOWNA UBCO","1123996","2020-01-06 13:00","2020","01","06","13:00","0.1","","-1.4","","90","","","M","","","","","","","96.36","","","","","","NA"
"-119.40","49.94","KELOWNA UBCO","1123996","2020-01-06 14:00","2020","01","06","14:00","-0.1","","-1.6","","90","","","M","","","","","","","96.35","","","","","","NA"
"-119.40","49.94","KELOWNA UBCO","1123996","2020-01-06 15:00","2020","01","06","15:00","0.0","","-1.3","","91","","","M","","","","","","","96.33","","","","","","NA"
"-119.40","49.94","KELOWNA UBCO","1123996","2020-01-06 16:00","2020","01","06","16:00","-0.2","","-1.3","","92","","","M","","","","","","","96.35","","","","","","NA"
"-119.40","49.94","KELOWNA UBCO","1123996","2020-01-06 17:00","2020","01","06","17:00","-0.3","","-1.3","","93","","","M","","","","","","","96.37","","","","","","NA"
"-119.40","49.94","KELOWNA UBCO","1123996","2020-01-06 18:00","2020","01","06","18:00","-0.4","","-1.4","","93","","","M","","","","","","","96.36","","","","","","NA"
"-119.40","49.94","KELOWNA UBCO","1123996","2020-01-06 19:00","2020","01","06","19:00","-0.7","","-1.7","","93","","","M","","","","","","","96.41","","","","","","NA"
"-119.40","49.94","KELOWNA UBCO","1123996","2020-01-06 20:00","2020","01","06","20:00","-0.7","","-1.7","","93","","","M","","","","","","","96.43","","","","","","NA"
"-119.40","49.94","KELOWNA UBCO","1123996","2020-01-06 21:00","2020","01","06","21:00","-0.5","","-1.4","","93","","","M","","","","","","","96.41","","","","","","NA"
"-119.40","49.94","KELOWNA UBCO","1123996","2020-01-06 22:00","2020","01","06","22:00","-0.4","","-1.3","","93","","","M","","","","","","","96.43","","","","","","NA"
"-119.40","49.94","KELOWNA UBCO","1123996","2020-01-06 23:00","2020","01","06","23:00","-0.4","","-1.4","","93","","","M","","","","","","","96.44","","","","","","NA"
"-119.40","49.94","KELOWNA UBCO","1123996","2020-01-07 00:00","2020","01","07","00:00","-0.5","","-1.5","","93","","","M","","","","","","","96.34","","","","","","NA"
"-119.40","49.94","KELOWNA UBCO","1123996","2020-01-07 01:00","2020","01","07","01:00","-0.3","","-1.3","","93","","","M","","","","","","","96.34","","","","","","NA"
"-119.40","49.94","KELOWNA UBCO","1123996","2020-01-07 02:00","2020","01","07","02:00","-0.6","","-1.7","","92","","","M","","","","","","","96.26","","","","","","NA"
"-119.40","49.94","KELOWNA UBCO","1123996","2020-01-07 03:00","2020","01","07","03:00","-0.5","","-1.5","","93","","","M","","","","","","","96.23","","","","","","NA"
"-119.40","49.94","KELOWNA UBCO","1123996","2020-01-07 04:00","2020","01","07","04:00","-0.6","","-1.7","","93","","","M","","","","","","","96.16","","","","","","NA"
"-119.40","49.94","KELOWNA UBCO","1123996","2020-01-07 05:00","2020","01","07","05:00","-0.6","","-1.6","","93","","","M","","","","","","","96.06","","","","","","NA"
"-119.40","49.94","KELOWNA UBCO","1123996","2020-01-07 06:00","2020","01","07","06:00","-0.7","","-1.7","","93","","","M","","","","","","","96.01","","","","","","NA"
"-119.40","49.94","KELOWNA UBCO","1123996","2020-01-07 07:00","2020","01","07","07:00","-0.8","","-1.7","","93","","","M","","","","","","","95.93","","","","","","NA"
"-119.40","49.94","KELOWNA UBCO","1123996","2020-01-07 08:00","2020","01","07","08:00","-0.7","","-1.7","","93","","","M","","","","","","","95.88","","","","","","NA"
"-119.40","49.94","KELOWNA UBCO","1123996","2020-01-07 09:00","2020","01","07","09:00","-0.7","","-1.7","","93","","","M","","","","","","","95.87","","","","","","NA"
"-119.40","49.94","KELOWNA UBCO","1123996","2020-01-07 10:00","2020","01","07","10:00","-0.3","","-1.7","","90","","","M","","","","","","","95.76","","","","","","NA"
"-119.40","49.94","KELOWNA UBCO","1123996","2020-01-07 11:00","2020","01","07","11:00","0.1","","-1.5","","89","","","M","","","","","","","95.65","","","","","","NA"
"-119.40","49.94","KELOWNA UBCO","1123996","2020-01-07 12:00","2020","01","07","12:00","0.3","","-1.5","","88","","","M","","","","","","","95.49","","","","","","NA"
"-119.40","49.94","KELOWNA UBCO","1123996","2020-01-07 13:00","2020","01","07","13:00","0.6","","-1.5","","85","","","M","","","","","","","95.37","","","","","","NA"
"-119.40","49.94","KELOWNA UBCO","1123996","2020-01-07 14:00","2020","01","07","14:00","0.8","","-1.2","","87","","","M","","","","","","","95.28","","","","","","NA"
"-119.40","49.94","KELOWNA UBCO","1123996","2020-01-07 15:00","2020","01","07","15:00","1.0","","-0.9","","88","","","M","","","","","","","95.20","","","","","","NA"
"-119.40","49.94","KELOWNA UBCO","1123996","2020-01-07 16:00","2020","01","07","16:00","0.5","","-1.1","","89","","","M","","","","","","","95.15","","","","","","NA"
"-119.40","49.94","KELOWNA UBCO","1123996","2020-01-07 17:00","2020","01","07","17:00","0.2","","-1.1","","91","","","M","","","","","","","95.07","","","","","","NA"
"-119.40","49.94","KELOWNA UBCO","1123996","2020-01-07 18:00","2020","01","07","18:00","0.1","","-1.2","","91","","","M","","","","","","","94.95","","","","","","NA"
"-119.40","49.94","KELOWNA UBCO","1123996","2020-01-07 19:00","2020","01","07","19:00","0.1","","-1.2","","91","","","M","","","","","","","94.86","","","","","","NA"
"-119.40","49.94","KELOWNA UBCO","1123996","2020-01-07 20:00","2020","01","07","20:00","-0.1","","-1.3","","92","","","M","","","","","","","94.78","","","","","","NA"
"-119.40","49.94","KELOWNA UBCO","1123996","2020-01-07 21:00","2020","01","07","21:00","0.3","","-0.8","","93","","","M","","","","","","","94.72","","","","","","NA"
"-119.40","49.94","KELOWNA UBCO","1123996","2020-01-07 22:00","2020","01","07","22:00","0.2","","-0.9","","92","","","M","","","","","","","94.67","","","","","","NA"
"-119.40","49.94","KELOWNA UBCO","1123996","2020-01-07 23:00","2020","01","07","23:00","0.2","","-0.9","","92","","","M","","","","","","","94.61","","","","","","NA"
"-119.40","49.94","KELOWNA UBCO","1123996","2020-01-08 00:00","2020","01","08","00:00","0.8","","-0.2","","92","","","M","","","","","","","94.58","","","","","","NA"
"-119.40","49.94","KELOWNA UBCO","1123996","2020-01-08 01:00","2020","01","08","01:00","2.6","","1.5","","93","","","M","","","","","","","94.54","","","","","","NA"
"-119.40","49.94","KELOWNA UBCO","1123996","2020-01-08 02:00","2020","01","08","02:00","2.7","","0.5","","85","","","M","","","","","","","94.55","","","","","","NA"
"-119.40","49.94","KELOWNA UBCO","1123996","2020-01-08 03:00","2020","01","08","03:00","0.7","","-1.2","","87","","","M","","","","","","","94.57","","","","","","NA"
"-119.40","49.94","KELOWNA UBCO","1123996","2020-01-08 04:00","2020","01","08","04:00","3.5","","1.7","","88","","","M","","","","","","","94.62","","","","","","NA"
"-119.40","49.94","KELOWNA UBCO","1123996","2020-01-08 05:00","2020","01","08","05:00","2.8","","1.0","","88","","","M","","","","","","","94.63","","","","","","NA"
"-119.40","49.94","KELOWNA UBCO","1123996","2020-01-08 06:00","2020","01","08","06:00","2.9","","0.9","","87","","","M","","","","","","","94.66","","","","","","NA"
"-119.40","49.94","KELOWNA UBCO","1123996","2020-01-08 07:00","2020","01","08","07:00","4.8","","-2.6","","59","","","M","","","","","","","94.74","","","","","","NA"
"-119.40","49.94","KELOWNA UBCO","1123996","2020-01-08 08:00","2020","01","08","08:00","3.3","","-3.6","","61","","","M","","","","","","","94.88","","","","","","NA"
"-119.40","49.94","KELOWNA UBCO","1123996","2020-01-08 09:00","2020","01","08","09:00","2.7","","-5.9","","53","","","M","","","","","","","95.03","","","","","","NA"
"-119.40","49.94","KELOWNA UBCO","1123996","2020-01-08 10:00","2020","01","08","10:00","2.7","","-8.5","","43","","","M","","","","","","","95.12","","","","","","NA"
"-119.40","49.94","KELOWNA UBCO","1123996","2020-01-08 11:00","2020","01","08","11:00","2.7","","-8.4","","44","","","M","","","","","","","95.18","","","","","","NA"
"-119.40","49.94","KELOWNA UBCO","1123996","2020-01-08 12:00","2020","01","08","12:00","2.7","","-8.2","","44","","","M","","","","","","","95.27","","","","","","NA"
"-119.40","49.94","KELOWNA UBCO","1123996","2020-01-08 13:00","2020","01","08","13:00","2.4","","-10.5","","38","","","M","","","","","","","95.33","","","","","","NA"
"-119.40","49.94","KELOWNA UBCO","1123996","2020-01-08 14:00","2020","01","08","14:00","1.2","","-3.9","","69","","","M","","","","","","","95.39","","","","","","NA"
"-119.40","49.94","KELOWNA UBCO","1123996","2020-01-08 15:00","2020","01","08","15:00","0.8","","-4.7","","67","","","M","","","","","","","95.44","","","","","","NA"
"-119.40","49.94","KELOWNA UBCO","1123996","2020-01-08 16:00","2020","01","08","16:00","1.1","","-7.3","","53","","","M","","","","","","","95.50","","","","","","NA"
"-119.40","49.94","KELOWNA UBCO","1123996","2020-01-08 17:00","2020","01","08","17:00","0.7","","-9.3","","47","","","M","","","","","","","95.56","","","","","","NA"
"-119.40","49.94","KELOWNA UBCO","1123996","2020-01-08 18:00","2020","01","08","18:00","0.4","","-10.4","","44","","","M","","","","","","","95.60","","","","","","NA"
"-119.40","49.94","KELOWNA UBCO","1123996","2020-01-08 19:00","2020","01","08","19:00","-0.6","","-9.9","","49","","","M","","","","","","","95.67","","","","","","NA"
"-119.40","49.94","KELOWNA UBCO","1123996","2020-01-08 20:00","2020","01","08","20:00","-3.6","","-9.5","","64","","","M","","","","","","","95.72","","","","","","NA"
"-119.40","49.94","KELOWNA UBCO","1123996","2020-01-08 21:00","2020","01","08","21:00","-4.7","","-9.4","","70","","","M","","","","","","","95.77","","","","","","NA"
"-119.40","49.94","KELOWNA UBCO","1123996","2020-01-08 22:00","2020","01","08","22:00","-4.9","","-8.4","","76","","","M","","","","","","","95.82","","","","","","NA"
"-119.40","49.94","KELOWNA UBCO","1123996","2020-01-08 23:00","2020","01","08","23:00","-9.1","","-11.8","","81","","","M","","","","","","","95.86","","","","","","NA"
"-119.40","49.94","KELOWNA UBCO","1123996","2020-01-09 00:00","2020","01","09","00:00","-7.1","","-10.5","","77","","","M","","","","","","","95.87","","","","","","NA"
"-119.40","49.94","KELOWNA UBCO","1123996","2020-01-09 01:00","2020","01","09","01:00","-9.1","","-11.0","","86","","","M","","","","","","","95.95","","","","","","NA"
"-119.40","49.94","KELOWNA UBCO","1123996","2020-01-09 02:00","2020","01","09","02:00","-11.0","","-14.0","","79","","","M","","","","","","","96.02","","","","","","NA"
"-119.40","49.94","KELOWNA UBCO","1123996","2020-01-09 03:00","2020","01","09","03:00","-10.0","","-11.5","","89","","","M","","","","","","","96.03","","","","","","NA"
"-119.40","49.94","KELOWNA UBCO","1123996","2020-01-09 04:00","2020","01","09","04:00","-7.9","","-10.2","","83","","","M","","","","","","","96.02","","","","","","NA"
"-119.40","49.94","KELOWNA UBCO","1123996","2020-01-09 05:00","2020","01","09","05:00","-7.2","","-11.0","","75","","","M","","","","","","","96.15","","","","","","NA"
"-119.40","49.94","KELOWNA UBCO","1123996","2020-01-09 06:00","2020","01","09","06:00","-6.5","","-10.4","","74","","","M","","","","","","","96.21","","","","","","NA"
"-119.40","49.94","KELOWNA UBCO","1123996","2020-01-09 07:00","2020","01","09","07:00","-6.5","","-10.4","","74","","","M","","","","","","","96.27","","","","","","NA"
"-119.40","49.94","KELOWNA UBCO","1123996","2020-01-09 08:00","2020","01","09","08:00","-6.9","","-9.8","","80","","","M","","","","","","","96.35","","","","","","NA"
"-119.40","49.94","KELOWNA UBCO","1123996","2020-01-09 09:00","2020","01","09","09:00","-6.5","","-9.7","","78","","","M","","","","","","","96.42","","","","","","NA"
"-119.40","49.94","KELOWNA UBCO","1123996","2020-01-09 10:00","2020","01","09","10:00","-5.7","","-10.1","","72","","","M","","","","","","","96.46","","","","","","NA"
"-119.40","49.94","KELOWNA UBCO","1123996","2020-01-09 11:00","2020","01","09","11:00","-4.1","","-10.3","","62","","","M","","","","","","","96.47","","","","","","NA"
"-119.40","49.94","KELOWNA UBCO","1123996","2020-01-09 12:00","2020","01","09","12:00","-3.4","","-9.5","","63","","","M","","","","","","","96.44","","","","","","NA"
"-119.40","49.94","KELOWNA UBCO","1123996","2020-01-09 13:00","2020","01","09","13:00","-2.2","","-9.9","","56","","","M","","","","","","","96.44","","","","","","NA"
"-119.40","49.94","KELOWNA UBCO","1123996","2020-01-09 14:00","2020","01","09","14:00","-1.5","","-9.3","","55","","","M","","","","","","","96.47","","","","","","NA"
"-119.40","49.94","KELOWNA UBCO","1123996","2020-01-09 15:00","2020","01","09","15:00","-2.5","","-8.5","","64","","","M","","","","","","","96.50","","","","","","NA"
"-119.40","49.94","KELOWNA UBCO","1123996","2020-01-09 16:00","2020","01","09","16:00","-2.6","","-7.8","","67","","","M","","","","","","","96.54","","","","","","NA"
"-119.40","49.94","KELOWNA UBCO","1123996","2020-01-09 17:00","2020","01","09","17:00","-3.2","","-7.8","","71","","","M","","","","","","","96.57","","","","","","NA"
"-119.40","49.94","KELOWNA UBCO","1123996","2020-01-09 18:00","2020","01","09","18:00","-3.7","","-7.0","","78","","","M","","","","","","","96.59","","","","","","NA"
"-119.40","49.94","KELOWNA UBCO","1123996","2020-01-09 19:00","2020","01","09","19:00","-4.8","","-7.9","","79","","","M","","","","","","","96.61","","","","","","NA"
"-119.40","49.94","KELOWNA UBCO","1123996","2020-01-09 20:00","2020","01","09","20:00","-6.3","","-8.2","","87","","","M","","","","","","","96.63","","","","","","NA"
"-119.40","49.94","KELOWNA UBCO","1123996","2020-01-09 21:00","2020","01","09","21:00","-7.6","","-9.4","","87","","","M","","","","","","","96.66","","","","","","NA"
"-119.40","49.94","KELOWNA UBCO","1123996","2020-01-09 22:00","2020","01","09","22:00","-8.4","","-9.9","","89","","","M","","","","","","","96.63","","","","","","NA"
"-119.40","49.94","KELOWNA UBCO","1123996","2020-01-09 23:00","2020","01","09","23:00","-8.5","","-9.9","","89","","","M","","","","","","","96.60","","","","","","NA"
"-119.40","49.94","KELOWNA UBCO","1123996","2020-01-10 00:00","2020","01","10","00:00","-8.2","","-10.0","","87","","","M","","","","","","","96.59","","","","","","NA"
"-119.40","49.94","KELOWNA UBCO","1123996","2020-01-10 01:00","2020","01","10","01:00","-7.4","","-9.4","","86","","","M","","","","","","","96.54","","","","","","NA"
"-119.40","49.94","KELOWNA UBCO","1123996","2020-01-10 02:00","2020","01","10","02:00","-6.6","","-8.7","","85","","","M","","","","","","","96.50","","","","","","NA"
"-119.40","49.94","KELOWNA UBCO","1123996","2020-01-10 03:00","2020","01","10","03:00","-7.3","","-9.3","","86","","","M","","","","","","","96.44","","","","","","NA"
"-119.40","49.94","KELOWNA UBCO","1123996","2020-01-10 04:00","2020","01","10","04:00","-5.9","","-8.2","","84","","","M","","","","","","","96.40","","","","","","NA"
"-119.40","49.94","KELOWNA UBCO","1123996","2020-01-10 05:00","2020","01","10","05:00","-6.1","","-8.4","","84","","","M","","","","","","","96.32","","","","","","NA"
"-119.40","49.94","KELOWNA UBCO","1123996","2020-01-10 06:00","2020","01","10","06:00","-5.7","","-7.7","","86","","","M","","","","","","","96.27","","","","","","NA"
"-119.40","49.94","KELOWNA UBCO","1123996","2020-01-10 07:00","2020","01","10","07:00","-5.2","","-6.5","","90","","","M","","","","","","","96.15","","","","","","NA"
"-119.40","49.94","KELOWNA UBCO","1123996","2020-01-10 08:00","2020","01","10","08:00","-5.1","","-6.4","","90","","","M","","","","","","","96.00","","","","","","NA"
"-119.40","49.94","KELOWNA UBCO","1123996","2020-01-10 09:00","2020","01","10","09:00","-4.3","","-5.7","","90","","","M","","","","","","","95.92","","","","","","NA"
"-119.40","49.94","KELOWNA UBCO","1123996","2020-01-10 10:00","2020","01","10","10:00","-4.4","","-6.0","","89","","","M","","","","","","","95.80","","","","","","NA"
"-119.40","49.94","KELOWNA UBCO","1123996","2020-01-10 11:00","2020","01","10","11:00","-2.9","","-5.1","","85","","","M","","","","","","","95.68","","","","","","NA"
"-119.40","49.94","KELOWNA UBCO","1123996","2020-01-10 12:00","2020","01","10","12:00","-2.7","","-5.0","","84","","","M","","","","","","","95.55","","","","","","NA"
"-119.40","49.94","KELOWNA UBCO","1123996","2020-01-10 13:00","2020","01","10","13:00","-2.3","","-4.9","","82","","","M","","","","","","","95.40","","","","","","NA"
"-119.40","49.94","KELOWNA UBCO","1123996","2020-01-10 14:00","2020","01","10","14:00","-2.0","","-4.3","","84","","","M","","","","","","","95.35","","","","","","NA"
"-119.40","49.94","KELOWNA UBCO","1123996","2020-01-10 15:00","2020","01","10","15:00","-2.3","","-4.4","","86","","","M","","","","","","","95.29","","","","","","NA"
"-119.40","49.94","KELOWNA UBCO","1123996","2020-01-10 16:00","2020","01","10","16:00","-2.8","","-4.6","","88","","","M","","","","","","","95.23","","","","","","NA"
"-119.40","49.94","KELOWNA UBCO","1123996","2020-01-10 17:00","2020","01","10","17:00","-2.8","","-4.4","","89","","","M","","","","","","","95.19","","","","","","NA"
"-119.40","49.94","KELOWNA UBCO","1123996","2020-01-10 18:00","2020","01","10","18:00","-2.4","","-4.1","","88","","","M","","","","","","","95.16","","","","","","NA"
"-119.40","49.94","KELOWNA UBCO","1123996","2020-01-10 19:00","2020","01","10","19:00","-2.9","","-4.5","","89","","","M","","","","","","","95.12","","","","","","NA"
"-119.40","49.94","KELOWNA UBCO","1123996","2020-01-10 20:00","2020","01","10","20:00","-2.7","","-4.1","","90","","","M","","","","","","","95.14","","","","","","NA"
"-119.40","49.94","KELOWNA UBCO","1123996","2020-01-10 21:00","2020","01","10","21:00","-3.0","","-4.6","","88","","","M","","","","","","","95.13","","","","","","NA"
"-119.40","49.94","KELOWNA UBCO","1123996","2020-01-10 22:00","2020","01","10","22:00","-2.4","","-4.1","","88","","","M","","","","","","","95.11","","","","","","NA"
"-119.40","49.94","KELOWNA UBCO","1123996","2020-01-10 23:00","2020","01","10","23:00","-2.9","","-4.3","","90","","","M","","","","","","","95.11","","","","","","NA"
"-119.40","49.94","KELOWNA UBCO","1123996","2020-01-11 00:00","2020","01","11","00:00","-2.1","","-4.1","","86","","","M","","","","","","","95.06","","","","","","NA"
"-119.40","49.94","KELOWNA UBCO","1123996","2020-01-11 01:00","2020","01","11","01:00","-2.4","","-3.9","","90","","","M","","","","","","","95.02","","","","","","NA"
"-119.40","49.94","KELOWNA UBCO","1123996","2020-01-11 02:00","2020","01","11","02:00","-2.2","","-3.7","","90","","","M","","","","","","","95.00","","","","","","NA"
"-119.40","49.94","KELOWNA UBCO","1123996","2020-01-11 03:00","2020","01","11","03:00","-2.2","","-3.7","","89","","","M","","","","","","","95.02","","","","","","NA"
"-119.40","49.94","KELOWNA UBCO","1123996","2020-01-11 04:00","2020","01","11","04:00","-2.2","","-3.7","","89","","","M","","","","","","","95.02","","","","","","NA"
"-119.40","49.94","KELOWNA UBCO","1123996","2020-01-11 05:00","2020","01","11","05:00","-2.1","","-3.7","","89","","","M","","","","","","","95.01","","","","","","NA"
"-119.40","49.94","KELOWNA UBCO","1123996","2020-01-11 06:00","2020","01","11","06:00","-2.2","","-3.9","","89","","","M","","","","","","","95.03","","","","","","NA"
"-119.40","49.94","KELOWNA UBCO","1123996","2020-01-11 07:00","2020","01","11","07:00","-2.5","","-4.0","","89","","","M","","","","","","","95.05","","","","","","NA"
"-119.40","49.94","KELOWNA UBCO","1123996","2020-01-11 08:00","2020","01","11","08:00","-2.7","","-4.0","","90","","","M","","","","","","","95.08","","","","","","NA"
"-119.40","49.94","KELOWNA UBCO","1123996","2020-01-11 09:00","2020","01","11","09:00","-3.4","","-4.7","","91","","","M","","","","","","","95.14","","","","","","NA"
"-119.40","49.94","KELOWNA UBCO","1123996","2020-01-11 10:00","2020","01","11","10:00","-2.7","","-4.2","","89","","","M","","","","","","","95.19","","","","","","NA"
"-119.40","49.94","KELOWNA UBCO","1123996","2020-01-11 11:00","2020","01","11","11:00","-1.7","","-4.4","","82","","","M","","","","","","","95.17","","","","","","NA"
"-119.40","49.94","KELOWNA UBCO","1123996","2020-01-11 12:00","2020","01","11","12:00","-1.3","","-4.0","","82","","","M","","","","","","","95.13","","","","","","NA"
"-119.40","49.94","KELOWNA UBCO","1123996","2020-01-11 13:00","2020","01","11","13:00","-1.0","","-3.6","","82","","","M","","","","","","","95.09","","","","","","NA"
"-119.40","49.94","KELOWNA UBCO","1123996","2020-01-11 14:00","2020","01","11","14:00","-0.7","","-3.5","","81","","","M","","","","","","","95.08","","","","","","NA"
"-119.40","49.94","KELOWNA UBCO","1123996","2020-01-11 15:00","2020","01","11","15:00","-0.6","","-3.2","","83","","","M","","","","","","","95.08","","","","","","NA"
"-119.40","49.94","KELOWNA UBCO","1123996","2020-01-11 16:00","2020","01","11","16:00","-0.7","","-2.9","","85","","","M","","","","","","","95.12","","","","","","NA"
"-119.40","49.94","KELOWNA UBCO","1123996","2020-01-11 17:00","2020","01","11","17:00","0.1","","-2.6","","82","","","M","","","","","","","95.17","","","","","","NA"
"-119.40","49.94","KELOWNA UBCO","1123996","2020-01-11 18:00","2020","01","11","18:00","2.8","","-4.3","","59","","","M","","","","","","","95.18","","","","","","NA"
"-119.40","49.94","KELOWNA UBCO","1123996","2020-01-11 19:00","2020","01","11","19:00","1.1","","-4.2","","68","","","M","","","","","","","95.20","","","","","","NA"
"-119.40","49.94","KELOWNA UBCO","1123996","2020-01-11 20:00","2020","01","11","20:00","-0.2","","-3.6","","78","","","M","","","","","","","95.26","","","","","","NA"
"-119.40","49.94","KELOWNA UBCO","1123996","2020-01-11 21:00","2020","01","11","21:00","0.3","","-3.0","","79","","","M","","","","","","","95.29","","","","","","NA"
"-119.40","49.94","KELOWNA UBCO","1123996","2020-01-11 22:00","2020","01","11","22:00","-0.9","","-2.9","","87","","","M","","","","","","","95.31","","","","","","NA"
"-119.40","49.94","KELOWNA UBCO","1123996","2020-01-11 23:00","2020","01","11","23:00","-0.9","","-2.9","","86","","","M","","","","","","","95.32","","","","","","NA"
"-119.40","49.94","KELOWNA UBCO","1123996","2020-01-12 00:00","2020","01","12","00:00","-0.7","","-2.5","","88","","","M","","","","","","","95.28","","","","","","NA"
"-119.40","49.94","KELOWNA UBCO","1123996","2020-01-12 01:00","2020","01","12","01:00","-1.5","","-4.2","","82","","","M","","","","","","","95.22","","","","","","NA"
"-119.40","49.94","KELOWNA UBCO","1123996","2020-01-12 02:00","2020","01","12","02:00","-1.2","","-3.2","","87","","","M","","","","","","","95.19","","","","","","NA"
"-119.40","49.94","KELOWNA UBCO","1123996","2020-01-12 03:00","2020","01","12","03:00","-2.3","","-3.8","","90","","","M","","","","","","","95.17","","","","","","NA"
"-119.40","49.94","KELOWNA UBCO","1123996","2020-01-12 04:00","2020","01","12","04:00","-2.3","","-3.7","","90","","","M","","","","","","","95.08","","","","","","NA"
"-119.40","49.94","KELOWNA UBCO","1123996","2020-01-12 05:00","2020","01","12","05:00","-2.5","","-3.9","","90","","","M","","","","","","","94.97","","","","","","NA"
"-119.40","49.94","KELOWNA UBCO","1123996","2020-01-12 06:00","2020","01","12","06:00","-2.0","","-3.5","","90","","","M","","","","","","","94.88","","","","","","NA"
"-119.40","49.94","KELOWNA UBCO","1123996","2020-01-12 07:00","2020","01","12","07:00","-1.9","","-3.2","","91","","","M","","","","","","","94.79","","","","","","NA"
"-119.40","49.94","KELOWNA UBCO","1123996","2020-01-12 08:00","2020","01","12","08:00","-2.0","","-3.2","","92","","","M","","","","","","","94.68","","","","","","NA"
"-119.40","49.94","KELOWNA UBCO","1123996","2020-01-12 09:00","2020","01","12","09:00","-1.7","","-2.9","","92","","","M","","","","","","","94.64","","","","","","NA"
"-119.40","49.94","KELOWNA UBCO","1123996","2020-01-12 10:00","2020","01","12","10:00","-1.5","","-2.9","","90","","","M","","","","","","","94.58","","","","","","NA"
"-119.40","49.94","KELOWNA UBCO","1123996","2020-01-12 11:00","2020","01","12","11:00","-1.1","","-2.5","","90","","","M","","","","","","","94.49","","","","","","NA"
"-119.40","49.94","KELOWNA UBCO","1123996","2020-01-12 12:00","2020","01","12","12:00","-0.8","","-2.6","","88","","","M","","","","","","","94.40","","","","","","NA"
"-119.40","49.94","KELOWNA UBCO","1123996","2020-01-12 13:00","2020","01","12","13:00","-0.6","","-2.8","","85","","","M","","","","","","","94.32","","","","","","NA"
"-119.40","49.94","KELOWNA UBCO","1123996","2020-01-12 14:00","2020","01","12","14:00","-0.8","","-2.7","","87","","","M","","","","","","","94.27","","","","","","NA"
"-119.40","49.94","KELOWNA UBCO","1123996","2020-01-12 15:00","2020","01","12","15:00","-3.2","","-4.9","","88","","","M","","","","","","","94.32","","","","","","NA"
"-119.40","49.94","KELOWNA UBCO","1123996","2020-01-12 16:00","2020","01","12","16:00","-5.1","","-7.3","","84","","","M","","","","","","","94.46","","","","","","NA"
"-119.40","49.94","KELOWNA UBCO","1123996","2020-01-12 17:00","2020","01","12","17:00","-8.4","","-11.0","","81","","","M","","","","","","","94.72","","","","","","NA"
"-119.40","49.94","KELOWNA UBCO","1123996","2020-01-12 18:00","2020","01","12","18:00","-10.3","","-13.6","","77","","","M","","","","","","","94.96","","","","","","NA"
"-119.40","49.94","KELOWNA UBCO","1123996","2020-01-12 19:00","2020","01","12","19:00","-11.5","","-16.1","","68","","","M","","","","","","","95.21","","","","","","NA"
"-119.40","49.94","KELOWNA UBCO","1123996","2020-01-12 20:00","2020","01","12","20:00","-12.1","","-17.8","","63","","","M","","","","","","","95.40","","","","","","NA"
"-119.40","49.94","KELOWNA UBCO","1123996","2020-01-12 21:00","2020","01","12","21:00","-13.3","","-16.7","","76","","","M","","","","","","","95.58","","","","","","NA"
"-119.40","49.94","KELOWNA UBCO","1123996","2020-01-12 22:00","2020","01","12","22:00","-14.1","","-17.3","","76","","","M","","","","","","","95.73","","","","","","NA"
"-119.40","49.94","KELOWNA UBCO","1123996","2020-01-12 23:00","2020","01","12","23:00","-14.8","","-19.7","","67","","","M","","","","","","","95.86","","","","","","NA"
"-119.40","49.94","KELOWNA UBCO","1123996","2020-01-13 00:00","2020","01","13","00:00","-15.5","","-22.2","","56","","","M","","","","","","","95.96","","","","","","NA"
"-119.40","49.94","KELOWNA UBCO","1123996","2020-01-13 01:00","2020","01","13","01:00","-16.4","","-23.1","","56","","","M","","","","","","","96.03","","","","","","NA"
"-119.40","49.94","KELOWNA UBCO","1123996","2020-01-13 02:00","2020","01","13","02:00","-16.7","","-23.6","","55","","","M","","","","","","","96.16","","","","","","NA"
"-119.40","49.94","KELOWNA UBCO","1123996","2020-01-13 03:00","2020","01","13","03:00","-17.3","","-23.8","","57","","","M","","","","","","","96.24","","","","","","NA"
"-119.40","49.94","KELOWNA UBCO","1123996","2020-01-13 04:00","2020","01","13","04:00","-17.4","","-23.9","","57","","","M","","","","","","","96.30","","","","","","NA"
"-119.40","49.94","KELOWNA UBCO","1123996","2020-01-13 05:00","2020","01","13","05:00","-17.6","","-24.6","","54","","","M","","","","","","","96.36","","","","","","NA"
"-119.40","49.94","KELOWNA UBCO","1123996","2020-01-13 06:00","2020","01","13","06:00","-18.1","","-24.7","","56","","","M","","","","","","","96.44","","","","","","NA"
"-119.40","49.94","KELOWNA UBCO","1123996","2020-01-13 07:00","2020","01","13","07:00","-18.2","","-25.2","","54","","","M","","","","","","","96.49","","","","","","NA"
"-119.40","49.94","KELOWNA UBCO","1123996","2020-01-13 08:00","2020","01","13","08:00","-17.6","","-25.7","","49","","","M","","","","","","","96.51","","","","","","NA"
"-119.40","49.94","KELOWNA UBCO","1123996","2020-01-13 09:00","2020","01","13","09:00","-17.6","","-26.0","","48","","","M","","","","","","","96.58","","","","","","NA"
"-119.40","49.94","KELOWNA UBCO","1123996","2020-01-13 10:00","2020","01","13","10:00","-17.5","","-25.1","","51","","","M","","","","","","","96.60","","","","","","NA"
"-119.40","49.94","KELOWNA UBCO","1123996","2020-01-13 11:00","2020","01","13","11:00","-17.0","","-24.9","","51","","","M","","","","","","","96.64","","","","","","NA"
"-119.40","49.94","KELOWNA UBCO","1123996","2020-01-13 12:00","2020","01","13","12:00","-16.8","","-24.8","","50","","","M","","","","","","","96.62","","","","","","NA"
"-119.40","49.94","KELOWNA UBCO","1123996","2020-01-13 13:00","2020","01","13","13:00","-16.4","","-24.6","","49","","","M","","","","","","","96.59","","","","","","NA"
"-119.40","49.94","KELOWNA UBCO","1123996","2020-01-13 14:00","2020","01","13","14:00","-16.3","","-24.0","","52","","","M","","","","","","","96.57","","","","","","NA"
"-119.40","49.94","KELOWNA UBCO","1123996","2020-01-13 15:00","2020","01","13","15:00","-16.4","","-23.9","","52","","","M","","","","","","","96.56","","","","","","NA"
"-119.40","49.94","KELOWNA UBCO","1123996","2020-01-13 16:00","2020","01","13","16:00","-16.6","","-24.0","","53","","","M","","","","","","","96.53","","","","","","NA"
"-119.40","49.94","KELOWNA UBCO","1123996","2020-01-13 17:00","2020","01","13","17:00","-16.8","","-23.8","","55","","","M","","","","","","","96.52","","","","","","NA"
"-119.40","49.94","KELOWNA UBCO","1123996","2020-01-13 18:00","2020","01","13","18:00","-17.0","","-24.1","","54","","","M","","","","","","","96.49","","","","","","NA"
"-119.40","49.94","KELOWNA UBCO","1123996","2020-01-13 19:00","2020","01","13","19:00","-17.1","","-24.4","","53","","","M","","","","","","","96.46","","","","","","NA"
"-119.40","49.94","KELOWNA UBCO","1123996","2020-01-13 20:00","2020","01","13","20:00","-17.2","","-24.1","","55","","","M","","","","","","","96.43","","","","","","NA"
"-119.40","49.94","KELOWNA UBCO","1123996","2020-01-13 21:00","2020","01","13","21:00","-17.3","","-23.7","","58","","","M","","","","","","","96.42","","","","","","NA"
"-119.40","49.94","KELOWNA UBCO","1123996","2020-01-13 22:00","2020","01","13","22:00","-17.5","","-23.7","","58","","","M","","","","","","","96.40","","","","","","NA"
"-119.40","49.94","KELOWNA UBCO","1123996","2020-01-13 23:00","2020","01","13","23:00","-17.5","","-23.8","","58","","","M","","","","","","","96.38","","","","","","NA"
"-119.40","49.94","KELOWNA UBCO","1123996","2020-01-14 00:00","2020","01","14","00:00","-17.3","","-24.3","","55","","","M","","","","","","","96.36","","","","","","NA"
"-119.40","49.94","KELOWNA UBCO","1123996","2020-01-14 01:00","2020","01","14","01:00","-17.4","","-23.9","","57","","","M","","","","","","","96.35","","","","","","NA"
"-119.40","49.94","KELOWNA UBCO","1123996","2020-01-14 02:00","2020","01","14","02:00","-17.5","","-23.7","","58","","","M","","","","","","","96.35","","","","","","NA"
"-119.40","49.94","KELOWNA UBCO","1123996","2020-01-14 03:00","2020","01","14","03:00","-17.6","","-23.8","","58","","","M","","","","","","","96.34","","","","","","NA"
"-119.40","49.94","KELOWNA UBCO","1123996","2020-01-14 04:00","2020","01","14","04:00","-17.6","","-23.9","","58","","","M","","","","","","","96.33","","","","","","NA"
"-119.40","49.94","KELOWNA UBCO","1123996","2020-01-14 05:00","2020","01","14","05:00","-17.6","","-23.7","","59","","","M","","","","","","","96.33","","","","","","NA"
"-119.40","49.94","KELOWNA UBCO","1123996","2020-01-14 06:00","2020","01","14","06:00","-17.6","","-24.2","","56","","","M","","","","","","","96.34","","","","","","NA"
"-119.40","49.94","KELOWNA UBCO","1123996","2020-01-14 07:00","2020","01","14","07:00","-17.6","","-24.1","","57","","","M","","","","","","","96.36","","","","","","NA"
"-119.40","49.94","KELOWNA UBCO","1123996","2020-01-14 08:00","2020","01","14","08:00","-17.7","","-23.9","","58","","","M","","","","","","","96.38","","","","","","NA"
"-119.40","49.94","KELOWNA UBCO","1123996","2020-01-14 09:00","2020","01","14","09:00","-17.5","","-24.3","","55","","","M","","","","","","","96.43","","","","","","NA"
"-119.40","49.94","KELOWNA UBCO","1123996","2020-01-14 10:00","2020","01","14","10:00","-17.1","","-24.2","","54","","","M","","","","","","","96.49","","","","","","NA"
"-119.40","49.94","KELOWNA UBCO","1123996","2020-01-14 11:00","2020","01","14","11:00","-17.0","","-24.7","","52","","","M","","","","","","","96.44","","","","","","NA"
"-119.40","49.94","KELOWNA UBCO","1123996","2020-01-14 12:00","2020","01","14","12:00","-16.4","","-24.8","","48","","","M","","","","","","","96.46","","","","","","NA"
"-119.40","49.94","KELOWNA UBCO","1123996","2020-01-14 13:00","2020","01","14","13:00","-16.7","","-24.2","","53","","","M","","","","","","","96.43","","","","","","NA"
"-119.40","49.94","KELOWNA UBCO","1123996","2020-01-14 14:00","2020","01","14","14:00","-16.7","","-23.2","","57","","","M","","","","","","","96.44","","","","","","NA"
"-119.40","49.94","KELOWNA UBCO","1123996","2020-01-14 15:00","2020","01","14","15:00","-16.8","","-23.2","","58","","","M","","","","","","","96.48","","","","","","NA"
"-119.40","49.94","KELOWNA UBCO","1123996","2020-01-14 16:00","2020","01","14","16:00","-17.1","","-24.1","","55","","","M","","","","","","","96.50","","","","","","NA"
"-119.40","49.94","KELOWNA UBCO","1123996","2020-01-14 17:00","2020","01","14","17:00","-17.0","","-23.2","","59","","","M","","","","","","","96.55","","","","","","NA"
"-119.40","49.94","KELOWNA UBCO","1123996","2020-01-14 18:00","2020","01","14","18:00","-17.4","","-22.6","","64","","","M","","","","","","","96.58","","","","","","NA"
"-119.40","49.94","KELOWNA UBCO","1123996","2020-01-14 19:00","2020","01","14","19:00","-17.9","","-23.2","","64","","","M","","","","","","","96.61","","","","","","NA"
"-119.40","49.94","KELOWNA UBCO","1123996","2020-01-14 20:00","2020","01","14","20:00","-18.4","","-23.9","","62","","","M","","","","","","","96.68","","","","","","NA"
"-119.40","49.94","KELOWNA UBCO","1123996","2020-01-14 21:00","2020","01","14","21:00","-17.8","","-23.1","","63","","","M","","","","","","","96.73","","","","","","NA"
"-119.40","49.94","KELOWNA UBCO","1123996","2020-01-14 22:00","2020","01","14","22:00","-17.7","","-23.0","","63","","","M","","","","","","","96.77","","","","","","NA"
"-119.40","49.94","KELOWNA UBCO","1123996","2020-01-14 23:00","2020","01","14","23:00","-17.5","","-22.4","","66","","","M","","","","","","","96.82","","","","","","NA"
"-119.40","49.94","KELOWNA UBCO","1123996","2020-01-15 00:00","2020","01","15","00:00","-17.6","","-22.1","","68","","","M","","","","","","","96.78","","","","","","NA"
"-119.40","49.94","KELOWNA UBCO","1123996","2020-01-15 01:00","2020","01","15","01:00","-17.8","","-21.8","","71","","","M","","","","","","","96.80","","","","","","NA"
"-119.40","49.94","KELOWNA UBCO","1123996","2020-01-15 02:00","2020","01","15","02:00","-17.8","","-21.5","","73","","","M","","","","","","","96.76","","","","","","NA"
"-119.40","49.94","KELOWNA UBCO","1123996","2020-01-15 03:00","2020","01","15","03:00","-18.0","","-21.4","","75","","","M","","","","","","","96.80","","","","","","NA"
"-119.40","49.94","KELOWNA UBCO","1123996","2020-01-15 04:00","2020","01","15","04:00","-18.0","","-21.4","","75","","","M","","","","","","","96.78","","","","","","NA"
"-119.40","49.94","KELOWNA UBCO","1123996","2020-01-15 05:00","2020","01","15","05:00","-18.0","","-21.3","","75","","","M","","","","","","","96.75","","","","","","NA"
"-119.40","49.94","KELOWNA UBCO","1123996","2020-01-15 06:00","2020","01","15","06:00","-17.9","","-21.4","","74","","","M","","","","","","","96.78","","","","","","NA"
"-119.40","49.94","KELOWNA UBCO","1123996","2020-01-15 07:00","2020","01","15","07:00","-17.9","","-21.7","","72","","","M","","","","","","","96.78","","","","","","NA"
"-119.40","49.94","KELOWNA UBCO","1123996","2020-01-15 08:00","2020","01","15","08:00","-17.8","","-21.5","","73","","","M","","","","","","","96.80","","","","","","NA"
"-119.40","49.94","KELOWNA UBCO","1123996","2020-01-15 09:00","2020","01","15","09:00","-17.6","","-21.3","","73","","","M","","","","","","","96.82","","","","","","NA"
"-119.40","49.94","KELOWNA UBCO","1123996","2020-01-15 10:00","2020","01","15","10:00","-16.5","","-21.2","","67","","","M","","","","","","","96.84","","","","","","NA"
"-119.40","49.94","KELOWNA UBCO","1123996","2020-01-15 11:00","2020","01","15","11:00","-16.0","","-21.7","","62","","","M","","","","","","","96.78","","","","","","NA"
"-119.40","49.94","KELOWNA UBCO","1123996","2020-01-15 12:00","2020","01","15","12:00","-16.0","","-21.3","","64","","","M","","","","","","","96.66","","","","","","NA"
"-119.40","49.94","KELOWNA UBCO","1123996","2020-01-15 13:00","2020","01","15","13:00","-15.7","","-21.8","","60","","","M","","","","","","","96.55","","","","","","NA"
"-119.40","49.94","KELOWNA UBCO","1123996","2020-01-15 14:00","2020","01","15","14:00","-15.9","","-20.4","","68","","","M","","","","","","","96.43","","","","","","NA"
"-119.40","49.94","KELOWNA UBCO","1123996","2020-01-15 15:00","2020","01","15","15:00","-15.9","","-20.1","","70","","","M","","","","","","","96.33","","","","","","NA"
"-119.40","49.94","KELOWNA UBCO","1123996","2020-01-15 16:00","2020","01","15","16:00","-15.9","","-20.3","","69","","","M","","","","","","","96.19","","","","","","NA"
"-119.40","49.94","KELOWNA UBCO","1123996","2020-01-15 17:00","2020","01","15","17:00","-16.0","","-20.0","","71","","","M","","","","","","","96.07","","","","","","NA"
"-119.40","49.94","KELOWNA UBCO","1123996","2020-01-15 18:00","2020","01","15","18:00","-15.9","","-20.4","","68","","","M","","","","","","","95.97","","","","","","NA"
"-119.40","49.94","KELOWNA UBCO","1123996","2020-01-15 19:00","2020","01","15","19:00","-16.0","","-19.2","","76","","","M","","","","","","","95.84","","","","","","NA"
"-119.40","49.94","KELOWNA UBCO","1123996","2020-01-15 20:00","2020","01","15","20:00","-16.2","","-19.2","","77","","","M","","","","","","","95.70","","","","","","NA"
"-119.40","49.94","KELOWNA UBCO","1123996","2020-01-15 21:00","2020","01","15","21:00","-16.0","","-18.9","","79","","","M","","","","","","","95.64","","","","","","NA"
"-119.40","49.94","KELOWNA UBCO","1123996","2020-01-15 22:00","2020","01","15","22:00","-16.0","","-18.9","","78","","","M","","","","","","","95.64","","","","","","NA"
"-119.40","49.94","KELOWNA UBCO","1123996","2020-01-15 23:00","2020","01","15","23:00","-15.8","","-18.6","","79","","","M","","","","","","","95.57","","","","","","NA"
"-119.40","49.94","KELOWNA UBCO","1123996","2020-01-16 00:00","2020","01","16","00:00","-15.2","","-18.1","","78","","","M","","","","","","","95.55","","","","","","NA"
"-119.40","49.94","KELOWNA UBCO","1123996","2020-01-16 01:00","2020","01","16","01:00","-14.7","","-17.2","","81","","","M","","","","","","","95.52","","","","","","NA"
"-119.40","49.94","KELOWNA UBCO","1123996","2020-01-16 02:00","2020","01","16","02:00","-14.7","","-17.2","","81","","","M","","","","","","","95.47","","","","","","NA"
"-119.40","49.94","KELOWNA UBCO","1123996","2020-01-16 03:00","2020","01","16","03:00","-14.4","","-16.9","","81","","","M","","","","","","","95.47","","","","","","NA"
"-119.40","49.94","KELOWNA UBCO","1123996","2020-01-16 04:00","2020","01","16","04:00","-14.3","","-16.7","","82","","","M","","","","","","","95.35","","","","","","NA"
"-119.40","49.94","KELOWNA UBCO","1123996","2020-01-16 05:00","2020","01","16","05:00","-13.8","","-16.3","","82","","","M","","","","","","","95.36","","","","","","NA"
"-119.40","49.94","KELOWNA UBCO","1123996","2020-01-16 06:00","2020","01","16","06:00","-13.2","","-15.5","","83","","","M","","","","","","","95.34","","","","","","NA"
"-119.40","49.94","KELOWNA UBCO","1123996","2020-01-16 07:00","2020","01","16","07:00","-13.0","","-15.3","","83","","","M","","","","","","","95.37","","","","","","NA"
"-119.40","49.94","KELOWNA UBCO","1123996","2020-01-16 08:00","2020","01","16","08:00","-12.6","","-15.0","","82","","","M","","","","","","","95.37","","","","","","NA"
"-119.40","49.94","KELOWNA UBCO","1123996","2020-01-16 09:00","2020","01","16","09:00","-11.9","","-14.3","","82","","","M","","","","","","","95.34","","","","","","NA"
"-119.40","49.94","KELOWNA UBCO","1123996","2020-01-16 10:00","2020","01","16","10:00","-11.5","","-14.4","","79","","","M","","","","","","","95.39","","","","","","NA"
"-119.40","49.94","KELOWNA UBCO","1123996","2020-01-16 11:00","2020","01","16","11:00","-10.7","","-14.2","","75","","","M","","","","","","","95.34","","","","","","NA"
"-119.40","49.94","KELOWNA UBCO","1123996","2020-01-16 12:00","2020","01","16","12:00","-10.1","","-13.9","","74","","","M","","","","","","","95.31","","","","","","NA"
"-119.40","49.94","KELOWNA UBCO","1123996","2020-01-16 13:00","2020","01","16","13:00","-10.1","","-13.1","","79","","","M","","","","","","","95.28","","","","","","NA"
"-119.40","49.94","KELOWNA UBCO","1123996","2020-01-16 14:00","2020","01","16","14:00","-9.6","","-12.1","","82","","","M","","","","","","","95.20","","","","","","NA"
"-119.40","49.94","KELOWNA UBCO","1123996","2020-01-16 15:00","2020","01","16","15:00","-9.0","","-11.4","","83","","","M","","","","","","","95.25","","","","","","NA"
"-119.40","49.94","KELOWNA UBCO","1123996","2020-01-16 16:00","2020","01","16","16:00","-8.9","","-11.2","","84","","","M","","","","","","","95.25","","","","","","NA"
"-119.40","49.94","KELOWNA UBCO","1123996","2020-01-16 17:00","2020","01","16","17:00","-9.0","","-11.0","","85","","","M","","","","","","","95.28","","","","","","NA"
"-119.40","49.94","KELOWNA UBCO","1123996","2020-01-16 18:00","2020","01","16","18:00","-9.9","","-11.9","","85","","","M","","","","","","","95.29","","","","","","NA"
"-119.40","49.94","KELOWNA UBCO","1123996","2020-01-16 19:00","2020","01","16","19:00","-9.8","","-11.6","","87","","","M","","","","","","","95.34","","","","","","NA"
"-119.40","49.94","KELOWNA UBCO","1123996","2020-01-16 20:00","2020","01","16","20:00","-9.4","","-11.1","","87","","","M","","","","","","","95.41","","","","","","NA"
"-119.40","49.94","KELOWNA UBCO","1123996","2020-01-16 21:00","2020","01","16","21:00","-8.5","","-10.3","","87","","","M","","","","","","","95.45","","","","","","NA"
"-119.40","49.94","KELOWNA UBCO","1123996","2020-01-16 22:00","2020","01","16","22:00","-9.1","","-11.2","","85","","","M","","","","","","","95.50","","","","","","NA"
"-119.40","49.94","KELOWNA UBCO","1123996","2020-01-16 23:00","2020","01","16","23:00","-8.6","","-10.4","","86","","","M","","","","","","","95.56","","","","","","NA"
"-119.40","49.94","KELOWNA UBCO","1123996","2020-01-17 00:00","2020","01","17","00:00","-8.1","","-9.9","","87","","","M","","","","","","","95.64","","","","","","NA"
"-119.40","49.94","KELOWNA UBCO","1123996","2020-01-17 01:00","2020","01","17","01:00","-8.0","","-9.9","","87","","","M","","","","","","","95.74","","","","","","NA"
"-119.40","49.94","KELOWNA UBCO","1123996","2020-01-17 02:00","2020","01","17","02:00","-7.9","","-9.4","","89","","","M","","","","","","","95.85","","","","","","NA"
"-119.40","49.94","KELOWNA UBCO","1123996","2020-01-17 03:00","2020","01","17","03:00","-8.1","","-9.5","","90","","","M","","","","","","","95.98","","","","","","NA"
"-119.40","49.94","KELOWNA UBCO","1123996","2020-01-17 04:00","2020","01","17","04:00","-8.4","","-9.8","","89","","","M","","","","","","","96.06","","","","","","NA"
"-119.40","49.94","KELOWNA UBCO","1123996","2020-01-17 05:00","2020","01","17","05:00","-8.2","","-9.5","","90","","","M","","","","","","","96.19","","","","","","NA"
"-119.40","49.94","KELOWNA UBCO","1123996","2020-01-17 06:00","2020","01","17","06:00","-8.0","","-9.5","","89","","","M","","","","","","","96.31","","","","","","NA"
"-119.40","49.94","KELOWNA UBCO","1123996","2020-01-17 07:00","2020","01","17","07:00","-7.8","","-9.3","","89","","","M","","","","","","","96.44","","","","","","NA"
"-119.40","49.94","KELOWNA UBCO","1123996","2020-01-17 08:00","2020","01","17","08:00","-7.6","","-9.3","","87","","","M","","","","","","","96.53","","","","","","NA"
"-119.40","49.94","KELOWNA UBCO","1123996","2020-01-17 09:00","2020","01","17","09:00","-7.6","","-9.7","","85","","","M","","","","","","","96.65","","","","","","NA"
"-119.40","49.94","KELOWNA UBCO","1123996","2020-01-17 10:00","2020","01","17","10:00","-7.2","","-9.7","","83","","","M","","","","","","","96.79","","","","","","NA"
"-119.40","49.94","KELOWNA UBCO","1123996","2020-01-17 11:00","2020","01","17","11:00","-7.3","","-9.6","","83","","","M","","","","","","","96.88","","","","","","NA"
"-119.40","49.94","KELOWNA UBCO","1123996","2020-01-17 12:00","2020","01","17","12:00","-6.5","","-9.3","","81","","","M","","","","","","","96.90","","","","","","NA"
"-119.40","49.94","KELOWNA UBCO","1123996","2020-01-17 13:00","2020","01","17","13:00","-6.4","","-9.3","","80","","","M","","","","","","","96.93","","","","","","NA"
"-119.40","49.94","KELOWNA UBCO","1123996","2020-01-17 14:00","2020","01","17","14:00","-6.6","","-9.3","","81","","","M","","","","","","","96.97","","","","","","NA"
"-119.40","49.94","KELOWNA UBCO","1123996","2020-01-17 15:00","2020","01","17","15:00","-6.9","","-9.8","","80","","","M","","","","","","","97.04","","","","","","NA"
"-119.40","49.94","KELOWNA UBCO","1123996","2020-01-17 16:00","2020","01","17","16:00","-7.0","","-9.6","","82","","","M","","","","","","","97.10","","","","","","NA"
"-119.40","49.94","KELOWNA UBCO","1123996","2020-01-17 17:00","2020","01","17","17:00","-7.3","","-9.9","","82","","","M","","","","","","","97.15","","","","","","NA"
"-119.40","49.94","KELOWNA UBCO","1123996","2020-01-17 18:00","2020","01","17","18:00","-7.4","","-9.9","","82","","","M","","","","","","","97.19","","","","","","NA"
"-119.40","49.94","KELOWNA UBCO","1123996","2020-01-17 19:00","2020","01","17","19:00","-7.2","","-9.6","","83","","","M","","","","","","","97.18","","","","","","NA"
"-119.40","49.94","KELOWNA UBCO","1123996","2020-01-17 20:00","2020","01","17","20:00","-7.2","","-9.7","","82","","","M","","","","","","","97.19","","","","","","NA"
"-119.40","49.94","KELOWNA UBCO","1123996","2020-01-17 21:00","2020","01","17","21:00","-7.2","","-9.7","","83","","","M","","","","","","","97.21","","","","","","NA"
"-119.40","49.94","KELOWNA UBCO","1123996","2020-01-17 22:00","2020","01","17","22:00","-7.3","","-9.8","","82","","","M","","","","","","","97.21","","","","","","NA"
"-119.40","49.94","KELOWNA UBCO","1123996","2020-01-17 23:00","2020","01","17","23:00","-7.2","","-9.9","","81","","","M","","","","","","","97.26","","","","","","NA"
"-119.40","49.94","KELOWNA UBCO","1123996","2020-01-18 00:00","2020","01","18","00:00","-7.5","","-10.0","","83","","","M","","","","","","","97.27","","","","","","NA"
"-119.40","49.94","KELOWNA UBCO","1123996","2020-01-18 01:00","2020","01","18","01:00","-7.6","","-10.0","","83","","","M","","","","","","","97.25","","","","","","NA"
"-119.40","49.94","KELOWNA UBCO","1123996","2020-01-18 02:00","2020","01","18","02:00","-7.8","","-10.1","","83","","","M","","","","","","","97.22","","","","","","NA"
"-119.40","49.94","KELOWNA UBCO","1123996","2020-01-18 03:00","2020","01","18","03:00","-7.8","","-10.0","","84","","","M","","","","","","","97.18","","","","","","NA"
"-119.40","49.94","KELOWNA UBCO","1123996","2020-01-18 04:00","2020","01","18","04:00","-8.2","","-10.4","","84","","","M","","","","","","","97.13","","","","","","NA"
"-119.40","49.94","KELOWNA UBCO","1123996","2020-01-18 05:00","2020","01","18","05:00","-8.0","","-10.1","","85","","","M","","","","","","","97.11","","","","","","NA"
"-119.40","49.94","KELOWNA UBCO","1123996","2020-01-18 06:00","2020","01","18","06:00","-7.9","","-10.1","","84","","","M","","","","","","","97.05","","","","","","NA"
"-119.40","49.94","KELOWNA UBCO","1123996","2020-01-18 07:00","2020","01","18","07:00","-7.7","","-10.0","","84","","","M","","","","","","","97.01","","","","","","NA"
"-119.40","49.94","KELOWNA UBCO","1123996","2020-01-18 08:00","2020","01","18","08:00","-7.8","","-9.8","","86","","","M","","","","","","","97.02","","","","","","NA"
"-119.40","49.94","KELOWNA UBCO","1123996","2020-01-18 09:00","2020","01","18","09:00","-7.5","","-9.7","","84","","","M","","","","","","","97.03","","","","","","NA"
"-119.40","49.94","KELOWNA UBCO","1123996","2020-01-18 10:00","2020","01","18","10:00","-7.0","","-9.9","","79","","","M","","","","","","","97.06","","","","","","NA"
"-119.40","49.94","KELOWNA UBCO","1123996","2020-01-18 11:00","2020","01","18","11:00","-6.3","","-9.7","","76","","","M","","","","","","","97.06","","","","","","NA"
"-119.40","49.94","KELOWNA UBCO","1123996","2020-01-18 12:00","2020","01","18","12:00","-5.4","","-9.3","","74","","","M","","","","","","","97.04","","","","","","NA"
"-119.40","49.94","KELOWNA UBCO","1123996","2020-01-18 13:00","2020","01","18","13:00","-4.9","","-8.8","","74","","","M","","","","","","","97.07","","","","","","NA"
"-119.40","49.94","KELOWNA UBCO","1123996","2020-01-18 14:00","2020","01","18","14:00","-4.5","","-8.8","","72","","","M","","","","","","","97.06","","","","","","NA"
"-119.40","49.94","KELOWNA UBCO","1123996","2020-01-18 15:00","2020","01","18","15:00","-4.8","","-8.1","","78","","","M","","","","","","","97.13","","","","","","NA"
"-119.40","49.94","KELOWNA UBCO","1123996","2020-01-18 16:00","2020","01","18","16:00","-4.6","","-7.8","","78","","","M","","","","","","","97.19","","","","","","NA"
"-119.40","49.94","KELOWNA UBCO","1123996","2020-01-18 17:00","2020","01","18","17:00","-4.9","","-7.7","","81","","","M","","","","","","","97.24","","","","","","NA"
"-119.40","49.94","KELOWNA UBCO","1123996","2020-01-18 18:00","2020","01","18","18:00","-5.5","","-7.8","","84","","","M","","","","","","","97.29","","","","","","NA"
"-119.40","49.94","KELOWNA UBCO","1123996","2020-01-18 19:00","2020","01","18","19:00","-4.9","","-7.0","","85","","","M","","","","","","","97.32","","","","","","NA"
"-119.40","49.94","KELOWNA UBCO","1123996","2020-01-18 20:00","2020","01","18","20:00","-4.6","","-6.6","","86","","","M","","","","","","","97.38","","","","","","NA"
"-119.40","49.94","KELOWNA UBCO","1123996","2020-01-18 21:00","2020","01","18","21:00","-4.6","","-6.4","","87","","","M","","","","","","","97.39","","","","","","NA"
"-119.40","49.94","KELOWNA UBCO","1123996","2020-01-18 22:00","2020","01","18","22:00","-4.4","","-6.2","","87","","","M","","","","","","","97.43","","","","","","NA"
"-119.40","49.94","KELOWNA UBCO","1123996","2020-01-18 23:00","2020","01","18","23:00","-4.1","","-5.8","","88","","","M","","","","","","","97.44","","","","","","NA"
"-119.40","49.94","KELOWNA UBCO","1123996","2020-01-19 00:00","2020","01","19","00:00","-3.9","","-5.6","","88","","","M","","","","","","","97.43","","","","","","NA"
"-119.40","49.94","KELOWNA UBCO","1123996","2020-01-19 01:00","2020","01","19","01:00","-4.2","","-6.1","","87","","","M","","","","","","","97.45","","","","","","NA"
"-119.40","49.94","KELOWNA UBCO","1123996","2020-01-19 02:00","2020","01","19","02:00","-3.4","","-5.1","","88","","","M","","","","","","","97.48","","","","","","NA"
"-119.40","49.94","KELOWNA UBCO","1123996","2020-01-19 03:00","2020","01","19","03:00","-3.1","","-5.0","","87","","","M","","","","","","","97.47","","","","","","NA"
"-119.40","49.94","KELOWNA UBCO","1123996","2020-01-19 04:00","2020","01","19","04:00","-3.0","","-5.0","","87","","","M","","","","","","","97.48","","","","","","NA"
"-119.40","49.94","KELOWNA UBCO","1123996","2020-01-19 05:00","2020","01","19","05:00","-3.2","","-4.9","","88","","","M","","","","","","","97.45","","","","","","NA"
"-119.40","49.94","KELOWNA UBCO","1123996","2020-01-19 06:00","2020","01","19","06:00","-3.0","","-4.7","","88","","","M","","","","","","","97.43","","","","","","NA"
"-119.40","49.94","KELOWNA UBCO","1123996","2020-01-19 07:00","2020","01","19","07:00","-2.9","","-4.6","","88","","","M","","","","","","","97.41","","","","","","NA"
"-119.40","49.94","KELOWNA UBCO","1123996","2020-01-19 08:00","2020","01","19","08:00","-3.8","","-5.1","","90","","","M","","","","","","","97.42","","","","","","NA"
"-119.40","49.94","KELOWNA UBCO","1123996","2020-01-19 09:00","2020","01","19","09:00","-3.2","","-4.9","","88","","","M","","","","","","","97.45","","","","","","NA"
"-119.40","49.94","KELOWNA UBCO","1123996","2020-01-19 10:00","2020","01","19","10:00","-1.8","","-4.9","","79","","","M","","","","","","","97.46","","","","","","NA"
"-119.40","49.94","KELOWNA UBCO","1123996","2020-01-19 11:00","2020","01","19","11:00","-0.7","","-4.6","","75","","","M","","","","","","","97.45","","","","","","NA"
"-119.40","49.94","KELOWNA UBCO","1123996","2020-01-19 12:00","2020","01","19","12:00","0.6","","-5.0","","66","","","M","","","","","","","97.39","","","","","","NA"
"-119.40","49.94","KELOWNA UBCO","1123996","2020-01-19 13:00","2020","01","19","13:00","0.2","","-3.6","","75","","","M","","","","","","","97.34","","","","","","NA"
"-119.40","49.94","KELOWNA UBCO","1123996","2020-01-19 14:00","2020","01","19","14:00","0.5","","-3.3","","76","","","M","","","","","","","97.28","","","","","","NA"
"-119.40","49.94","KELOWNA UBCO","1123996","2020-01-19 15:00","2020","01","19","15:00","0.3","","-2.8","","79","","","M","","","","","","","97.28","","","","","","NA"
"-119.40","49.94","KELOWNA UBCO","1123996","2020-01-19 16:00","2020","01","19","16:00","0.5","","-2.6","","80","","","M","","","","","","","97.26","","","","","","NA"
"-119.40","49.94","KELOWNA UBCO","1123996","2020-01-19 17:00","2020","01","19","17:00","0.0","","-2.3","","85","","","M","","","","","","","97.23","","","","","","NA"
"-119.40","49.94","KELOWNA UBCO","1123996","2020-01-19 18:00","2020","01","19","18:00","-0.3","","-2.3","","86","","","M","","","","","","","97.20","","","","","","NA"
"-119.40","49.94","KELOWNA UBCO","1123996","2020-01-19 19:00","2020","01","19","19:00","-0.4","","-2.2","","87","","","M","","","","","","","97.15","","","","","","NA"
"-119.40","49.94","KELOWNA UBCO","1123996","2020-01-19 20:00","2020","01","19","20:00","-0.5","","-2.1","","88","","","M","","","","","","","97.13","","","","","","NA"
"-119.40","49.94","KELOWNA UBCO","1123996","2020-01-19 21:00","2020","01","19","21:00","-0.7","","-2.4","","89","","","M","","","","","","","97.01","","","","","","NA"
"-119.40","49.94","KELOWNA UBCO","1123996","2020-01-19 22:00","2020","01","19","22:00","-1.0","","-2.6","","89","","","M","","","","","","","96.95","","","","","","NA"
"-119.40","49.94","KELOWNA UBCO","1123996","2020-01-19 23:00","2020","01","19","23:00","-1.1","","-2.7","","89","","","M","","","","","","","96.86","","","","","","NA"
"-119.40","49.94","KELOWNA UBCO","1123996","2020-01-20 00:00","2020","01","20","00:00","-0.7","","-2.2","","90","","","M","","","","","","","96.78","","","","","","NA"
"-119.40","49.94","KELOWNA UBCO","1123996","2020-01-20 01:00","2020","01","20","01:00","-0.6","","-2.0","","90","","","M","","","","","","","96.70","","","","","","NA"
"-119.40","49.94","KELOWNA UBCO","1123996","2020-01-20 02:00","2020","01","20","02:00","-0.7","","-2.4","","88","","","M","","","","","","","96.64","","","","","","NA"
"-119.40","49.94","KELOWNA UBCO","1123996","2020-01-20 03:00","2020","01","20","03:00","-0.7","","-2.2","","90","","","M","","","","","","","96.59","","","","","","NA"
"-119.40","49.94","KELOWNA UBCO","1123996","2020-01-20 04:00","2020","01","20","04:00","-1.1","","-2.5","","91","","","M","","","","","","","96.52","","","","","","NA"
"-119.40","49.94","KELOWNA UBCO","1123996","2020-01-20 05:00","2020","01","20","05:00","-1.3","","-2.4","","92","","","M","","","","","","","96.45","","","","","","NA"
"-119.40","49.94","KELOWNA UBCO","1123996","2020-01-20 06:00","2020","01","20","06:00","-0.9","","-2.0","","92","","","M","","","","","","","96.40","","","","","","NA"
"-119.40","49.94","KELOWNA UBCO","1123996","2020-01-20 07:00","2020","01","20","07:00","-1.3","","-2.5","","92","","","M","","","","","","","96.40","","","","","","NA"
"-119.40","49.94","KELOWNA UBCO","1123996","2020-01-20 08:00","2020","01","20","08:00","-1.0","","-2.2","","92","","","M","","","","","","","96.33","","","","","","NA"
"-119.40","49.94","KELOWNA UBCO","1123996","2020-01-20 09:00","2020","01","20","09:00","-0.6","","-2.3","","89","","","M","","","","","","","96.31","","","","","","NA"
"-119.40","49.94","KELOWNA UBCO","1123996","2020-01-20 10:00","2020","01","20","10:00","-0.3","","-2.2","","87","","","M","","","","","","","96.30","","","","","","NA"
"-119.40","49.94","KELOWNA UBCO","1123996","2020-01-20 11:00","2020","01","20","11:00","1.1","","-1.6","","82","","","M","","","","","","","96.25","","","","","","NA"
"-119.40","49.94","KELOWNA UBCO","1123996","2020-01-20 12:00","2020","01","20","12:00","1.4","","-1.6","","80","","","M","","","","","","","96.23","","","","","","NA"
"-119.40","49.94","KELOWNA UBCO","1123996","2020-01-20 13:00","2020","01","20","13:00","2.1","","-1.2","","79","","","M","","","","","","","96.16","","","","","","NA"
"-119.40","49.94","KELOWNA UBCO","1123996","2020-01-20 14:00","2020","01","20","14:00","3.5","","-1.1","","72","","","M","","","","","","","96.12","","","","","","NA"
"-119.40","49.94","KELOWNA UBCO","1123996","2020-01-20 15:00","2020","01","20","15:00","2.9","","-0.9","","76","","","M","","","","","","","96.09","","","","","","NA"
"-119.40","49.94","KELOWNA UBCO","1123996","2020-01-20 16:00","2020","01","20","16:00","3.3","","-0.9","","74","","","M","","","","","","","96.04","","","","","","NA"
"-119.40","49.94","KELOWNA UBCO","1123996","2020-01-20 17:00","2020","01","20","17:00","1.8","","-0.6","","84","","","M","","","","","","","96.03","","","","","","NA"
"-119.40","49.94","KELOWNA UBCO","1123996","2020-01-20 18:00","2020","01","20","18:00","-0.1","","-1.9","","87","","","M","","","","","","","96.01","","","","","","NA"
"-119.40","49.94","KELOWNA UBCO","1123996","2020-01-20 19:00","2020","01","20","19:00","0.1","","-1.4","","90","","","M","","","","","","","95.98","","","","","","NA"
"-119.40","49.94","KELOWNA UBCO","1123996","2020-01-20 20:00","2020","01","20","20:00","0.3","","-1.1","","90","","","M","","","","","","","95.92","","","","","","NA"
"-119.40","49.94","KELOWNA UBCO","1123996","2020-01-20 21:00","2020","01","20","21:00","-0.7","","-2.0","","91","","","M","","","","","","","95.90","","","","","","NA"
"-119.40","49.94","KELOWNA UBCO","1123996","2020-01-20 22:00","2020","01","20","22:00","-1.6","","-2.7","","92","","","M","","","","","","","95.88","","","","","","NA"
"-119.40","49.94","KELOWNA UBCO","1123996","2020-01-20 23:00","2020","01","20","23:00","-2.5","","-3.5","","93","","","M","","","","","","","95.84","","","","","","NA"
"-119.40","49.94","KELOWNA UBCO","1123996","2020-01-21 00:00","2020","01","21","00:00","-2.3","","-3.2","","93","","","M","","","","","","","95.81","","","","","","NA"
"-119.40","49.94","KELOWNA UBCO","1123996","2020-01-21 01:00","2020","01","21","01:00","-1.6","","-2.6","","93","","","M","","","","","","","95.75","","","","","","NA"
"-119.40","49.94","KELOWNA UBCO","1123996","2020-01-21 02:00","2020","01","21","02:00","-1.1","","-2.0","","93","","","M","","","","","","","95.72","","","","","","NA"
"-119.40","49.94","KELOWNA UBCO","1123996","2020-01-21 03:00","2020","01","21","03:00","-1.5","","-2.4","","93","","","M","","","","","","","95.66","","","","","","NA"
"-119.40","49.94","KELOWNA UBCO","1123996","2020-01-21 04:00","2020","01","21","04:00","-2.0","","-2.9","","93","","","M","","","","","","","95.58","","","","","","NA"
"-119.40","49.94","KELOWNA UBCO","1123996","2020-01-21 05:00","2020","01","21","05:00","-3.0","","-3.9","","93","","","M","","","","","","","95.53","","","","","","NA"
"-119.40","49.94","KELOWNA UBCO","1123996","2020-01-21 06:00","2020","01","21","06:00","-2.5","","-3.4","","93","","","M","","","","","","","95.47","","","","","","NA"
"-119.40","49.94","KELOWNA UBCO","1123996","2020-01-21 07:00","2020","01","21","07:00","-2.5","","-3.5","","93","","","M","","","","","","","95.41","","","","","","NA"
"-119.40","49.94","KELOWNA UBCO","1123996","2020-01-21 08:00","2020","01","21","08:00","-2.0","","-2.9","","93","","","M","","","","","","","95.35","","","","","","NA"
"-119.40","49.94","KELOWNA UBCO","1123996","2020-01-21 09:00","2020","01","21","09:00","-1.5","","-2.5","","93","","","M","","","","","","","95.31","","","","","","NA"
"-119.40","49.94","KELOWNA UBCO","1123996","2020-01-21 10:00","2020","01","21","10:00","-0.9","","-2.0","","93","","","M","","","","","","","95.29","","","","","","NA"
"-119.40","49.94","KELOWNA UBCO","1123996","2020-01-21 11:00","2020","01","21","11:00","-0.6","","-1.8","","92","","","M","","","","","","","95.30","","","","","","NA"
"-119.40","49.94","KELOWNA UBCO","1123996","2020-01-21 12:00","2020","01","21","12:00","-0.1","","-1.5","","91","","","M","","","","","","","95.25","","","","","","NA"
"-119.40","49.94","KELOWNA UBCO","1123996","2020-01-21 13:00","2020","01","21","13:00","0.5","","-0.9","","91","","","M","","","","","","","95.24","","","","","","NA"
"-119.40","49.94","KELOWNA UBCO","1123996","2020-01-21 14:00","2020","01","21","14:00","1.2","","-0.3","","90","","","M","","","","","","","95.19","","","","","","NA"
"-119.40","49.94","KELOWNA UBCO","1123996","2020-01-21 15:00","2020","01","21","15:00","1.4","","-0.5","","87","","","M","","","","","","","95.25","","","","","","NA"
"-119.40","49.94","KELOWNA UBCO","1123996","2020-01-21 16:00","2020","01","21","16:00","2.1","","0.1","","86","","","M","","","","","","","95.29","","","","","","NA"
"-119.40","49.94","KELOWNA UBCO","1123996","2020-01-21 17:00","2020","01","21","17:00","2.3","","0.4","","88","","","M","","","","","","","95.36","","","","","","NA"
"-119.40","49.94","KELOWNA UBCO","1123996","2020-01-21 18:00","2020","01","21","18:00","1.9","","-0.2","","86","","","M","","","","","","","95.37","","","","","","NA"
"-119.40","49.94","KELOWNA UBCO","1123996","2020-01-21 19:00","2020","01","21","19:00","2.1","","0.1","","87","","","M","","","","","","","95.41","","","","","","NA"
"-119.40","49.94","KELOWNA UBCO","1123996","2020-01-21 20:00","2020","01","21","20:00","1.9","","0.1","","87","","","M","","","","","","","95.44","","","","","","NA"
"-119.40","49.94","KELOWNA UBCO","1123996","2020-01-21 21:00","2020","01","21","21:00","1.5","","-1.3","","81","","","M","","","","","","","95.46","","","","","","NA"
"-119.40","49.94","KELOWNA UBCO","1123996","2020-01-21 22:00","2020","01","21","22:00","2.9","","-0.5","","78","","","M","","","","","","","95.53","","","","","","NA"
"-119.40","49.94","KELOWNA UBCO","1123996","2020-01-21 23:00","2020","01","21","23:00","2.9","","-0.8","","77","","","M","","","","","","","95.57","","","","","","NA"
"-119.40","49.94","KELOWNA UBCO","1123996","2020-01-22 00:00","2020","01","22","00:00","2.9","","-1.1","","75","","","M","","","","","","","95.64","","","","","","NA"
"-119.40","49.94","KELOWNA UBCO","1123996","2020-01-22 01:00","2020","01","22","01:00","2.5","","-1.3","","76","","","M","","","","","","","95.68","","","","","","NA"
"-119.40","49.94","KELOWNA UBCO","1123996","2020-01-22 02:00","2020","01","22","02:00","2.3","","-1.3","","77","","","M","","","","","","","95.73","","","","","","NA"
"-119.40","49.94","KELOWNA UBCO","1123996","2020-01-22 03:00","2020","01","22","03:00","1.2","","-1.6","","82","","","M","","","","","","","95.79","","","","","","NA"
"-119.40","49.94","KELOWNA UBCO","1123996","2020-01-22 04:00","2020","01","22","04:00","1.3","","-1.4","","82","","","M","","","","","","","95.85","","","","","","NA"
"-119.40","49.94","KELOWNA UBCO","1123996","2020-01-22 05:00","2020","01","22","05:00","1.9","","-0.9","","82","","","M","","","","","","","95.90","","","","","","NA"
"-119.40","49.94","KELOWNA UBCO","1123996","2020-01-22 06:00","2020","01","22","06:00","1.6","","-1.0","","83","","","M","","","","","","","95.99","","","","","","NA"
"-119.40","49.94","KELOWNA UBCO","1123996","2020-01-22 07:00","2020","01","22","07:00","2.1","","-0.6","","82","","","M","","","","","","","96.01","","","","","","NA"
"-119.40","49.94","KELOWNA UBCO","1123996","2020-01-22 08:00","2020","01","22","08:00","2.1","","-0.6","","82","","","M","","","","","","","96.10","","","","","","NA"
"-119.40","49.94","KELOWNA UBCO","1123996","2020-01-22 09:00","2020","01","22","09:00","2.6","","-0.9","","77","","","M","","","","","","","96.17","","","","","","NA"
"-119.40","49.94","KELOWNA UBCO","1123996","2020-01-22 10:00","2020","01","22","10:00","2.9","","-1.3","","74","","","M","","","","","","","96.20","","","","","","NA"
"-119.40","49.94","KELOWNA UBCO","1123996","2020-01-22 11:00","2020","01","22","11:00","4.0","","-1.5","","68","","","M","","","","","","","96.27","","","","","","NA"
"-119.40","49.94","KELOWNA UBCO","1123996","2020-01-22 12:00","2020","01","22","12:00","4.3","","-1.8","","64","","","M","","","","","","","96.26","","","","","","NA"
"-119.40","49.94","KELOWNA UBCO","1123996","2020-01-22 13:00","2020","01","22","13:00","3.7","","-1.2","","71","","","M","","","","","","","96.26","","","","","","NA"
"-119.40","49.94","KELOWNA UBCO","1123996","2020-01-22 14:00","2020","01","22","14:00","4.0","","-1.2","","69","","","M","","","","","","","96.25","","","","","","NA"
"-119.40","49.94","KELOWNA UBCO","1123996","2020-01-22 15:00","2020","01","22","15:00","3.6","","-1.3","","70","","","M","","","","","","","96.28","","","","","","NA"
"-119.40","49.94","KELOWNA UBCO","1123996","2020-01-22 16:00","2020","01","22","16:00","3.5","","-1.4","","70","","","M","","","","","","","96.31","","","","","","NA"
"-119.40","49.94","KELOWNA UBCO","1123996","2020-01-22 17:00","2020","01","22","17:00","3.1","","-1.5","","72","","","M","","","","","","","96.31","","","","","","NA"
"-119.40","49.94","KELOWNA UBCO","1123996","2020-01-22 18:00","2020","01","22","18:00","2.8","","-0.9","","77","","","M","","","","","","","96.39","","","","","","NA"
"-119.40","49.94","KELOWNA UBCO","1123996","2020-01-22 19:00","2020","01","22","19:00","1.8","","-0.3","","86","","","M","","","","","","","96.38","","","","","","NA"
"-119.40","49.94","KELOWNA UBCO","1123996","2020-01-22 20:00","2020","01","22","20:00","1.5","","-0.2","","88","","","M","","","","","","","96.37","","","","","","NA"
"-119.40","49.94","KELOWNA UBCO","1123996","2020-01-22 21:00","2020","01","22","21:00","1.0","","-0.3","","91","","","M","","","","","","","96.37","","","","","","NA"
"-119.40","49.94","KELOWNA UBCO","1123996","2020-01-22 22:00","2020","01","22","22:00","1.2","","-0.2","","91","","","M","","","","","","","96.38","","","","","","NA"
"-119.40","49.94","KELOWNA UBCO","1123996","2020-01-22 23:00","2020","01","22","23:00","1.1","","-0.2","","91","","","M","","","","","","","96.40","","","","","","NA"
"-119.40","49.94","KELOWNA UBCO","1123996","2020-01-23 00:00","2020","01","23","00:00","0.9","","-0.4","","91","","","M","","","","","","","96.40","","","","","","NA"
"-119.40","49.94","KELOWNA UBCO","1123996","2020-01-23 01:00","2020","01","23","01:00","1.1","","-0.1","","91","","","M","","","","","","","96.35","","","","","","NA"
"-119.40","49.94","KELOWNA UBCO","1123996","2020-01-23 02:00","2020","01","23","02:00","1.2","","-0.1","","91","","","M","","","","","","","96.34","","","","","","NA"
"-119.40","49.94","KELOWNA UBCO","1123996","2020-01-23 03:00","2020","01","23","03:00","1.0","","-0.2","","92","","","M","","","","","","","96.29","","","","","","NA"
"-119.40","49.94","KELOWNA UBCO","1123996","2020-01-23 04:00","2020","01","23","04:00","0.9","","-0.3","","92","","","M","","","","","","","96.28","","","","","","NA"
"-119.40","49.94","KELOWNA UBCO","1123996","2020-01-23 05:00","2020","01","23","05:00","0.6","","-0.5","","92","","","M","","","","","","","96.24","","","","","","NA"
"-119.40","49.94","KELOWNA UBCO","1123996","2020-01-23 06:00","2020","01","23","06:00","0.4","","-0.7","","93","","","M","","","","","","","96.27","","","","","","NA"
"-119.40","49.94","KELOWNA UBCO","1123996","2020-01-23 07:00","2020","01","23","07:00","0.7","","-0.3","","93","","","M","","","","","","","96.25","","","","","","NA"
"-119.40","49.94","KELOWNA UBCO","1123996","2020-01-23 08:00","2020","01","23","08:00","0.8","","-0.3","","92","","","M","","","","","","","96.24","","","","","","NA"
"-119.40","49.94","KELOWNA UBCO","1123996","2020-01-23 09:00","2020","01","23","09:00","1.3","","0.1","","92","","","M","","","","","","","96.25","","","","","","NA"
"-119.40","49.94","KELOWNA UBCO","1123996","2020-01-23 10:00","2020","01","23","10:00","2.3","","0.6","","89","","","M","","","","","","","96.30","","","","","","NA"
"-119.40","49.94","KELOWNA UBCO","1123996","2020-01-23 11:00","2020","01","23","11:00","3.4","","0.5","","82","","","M","","","","","","","96.31","","","","","","NA"
"-119.40","49.94","KELOWNA UBCO","1123996","2020-01-23 12:00","2020","01","23","12:00","3.5","","-0.8","","74","","","M","","","","","","","96.17","","","","","","NA"
"-119.40","49.94","KELOWNA UBCO","1123996","2020-01-23 13:00","2020","01","23","13:00","4.8","","0.3","","72","","","M","","","","","","","96.16","","","","","","NA"
"-119.40","49.94","KELOWNA UBCO","1123996","2020-01-23 14:00","2020","01","23","14:00","5.1","","0.7","","73","","","M","","","","","","","96.12","","","","","","NA"
"-119.40","49.94","KELOWNA UBCO","1123996","2020-01-23 15:00","2020","01","23","15:00","5.2","","0.6","","72","","","M","","","","","","","96.10","","","","","","NA"
"-119.40","49.94","KELOWNA UBCO","1123996","2020-01-23 16:00","2020","01","23","16:00","5.0","","1.0","","75","","","M","","","","","","","96.09","","","","","","NA"
"-119.40","49.94","KELOWNA UBCO","1123996","2020-01-23 17:00","2020","01","23","17:00","4.4","","0.9","","78","","","M","","","","","","","96.09","","","","","","NA"
"-119.40","49.94","KELOWNA UBCO","1123996","2020-01-23 18:00","2020","01","23","18:00","2.8","","0.4","","84","","","M","","","","","","","96.05","","","","","","NA"
"-119.40","49.94","KELOWNA UBCO","1123996","2020-01-23 19:00","2020","01","23","19:00","3.7","","1.1","","83","","","M","","","","","","","96.01","","","","","","NA"
"-119.40","49.94","KELOWNA UBCO","1123996","2020-01-23 20:00","2020","01","23","20:00","3.4","","0.7","","82","","","M","","","","","","","95.99","","","","","","NA"
"-119.40","49.94","KELOWNA UBCO","1123996","2020-01-23 21:00","2020","01","23","21:00","2.5","","0.5","","86","","","M","","","","","","","95.92","","","","","","NA"
"-119.40","49.94","KELOWNA UBCO","1123996","2020-01-23 22:00","2020","01","23","22:00","1.5","","-0.1","","89","","","M","","","","","","","95.88","","","","","","NA"
"-119.40","49.94","KELOWNA UBCO","1123996","2020-01-23 23:00","2020","01","23","23:00","1.8","","0.3","","90","","","M","","","","","","","95.86","","","","","","NA"
"-119.40","49.94","KELOWNA UBCO","1123996","2020-01-24 00:00","2020","01","24","00:00","2.3","","0.8","","89","","","M","","","","","","","95.80","","","","","","NA"
"-119.40","49.94","KELOWNA UBCO","1123996","2020-01-24 01:00","2020","01","24","01:00","1.7","","0.2","","90","","","M","","","","","","","95.76","","","","","","NA"
"-119.40","49.94","KELOWNA UBCO","1123996","2020-01-24 02:00","2020","01","24","02:00","1.4","","0.1","","91","","","M","","","","","","","95.72","","","","","","NA"
"-119.40","49.94","KELOWNA UBCO","1123996","2020-01-24 03:00","2020","01","24","03:00","1.3","","0.1","","92","","","M","","","","","","","95.71","","","","","","NA"
"-119.40","49.94","KELOWNA UBCO","1123996","2020-01-24 04:00","2020","01","24","04:00","1.4","","0.3","","92","","","M","","","","","","","95.69","","","","","","NA"
"-119.40","49.94","KELOWNA UBCO","1123996","2020-01-24 05:00","2020","01","24","05:00","0.8","","-0.3","","93","","","M","","","","","","","95.60","","","","","","NA"
"-119.40","49.94","KELOWNA UBCO","1123996","2020-01-24 06:00","2020","01","24","06:00","1.4","","0.4","","93","","","M","","","","","","","95.62","","","","","","NA"
"-119.40","49.94","KELOWNA UBCO","1123996","2020-01-24 07:00","2020","01","24","07:00","1.3","","0.2","","93","","","M","","","","","","","95.57","","","","","","NA"
"-119.40","49.94","KELOWNA UBCO","1123996","2020-01-24 08:00","2020","01","24","08:00","1.6","","0.6","","92","","","M","","","","","","","95.52","","","","","","NA"
"-119.40","49.94","KELOWNA UBCO","1123996","2020-01-24 09:00","2020","01","24","09:00","2.4","","1.3","","92","","","M","","","","","","","95.61","","","","","","NA"
"-119.40","49.94","KELOWNA UBCO","1123996","2020-01-24 10:00","2020","01","24","10:00","2.7","","1.2","","90","","","M","","","","","","","95.69","","","","","","NA"
"-119.40","49.94","KELOWNA UBCO","1123996","2020-01-24 11:00","2020","01","24","11:00","4.5","","1.7","","82","","","M","","","","","","","95.73","","","","","","NA"
"-119.40","49.94","KELOWNA UBCO","1123996","2020-01-24 12:00","2020","01","24","12:00","5.8","","2.2","","78","","","M","","","","","","","95.70","","","","","","NA"
"-119.40","49.94","KELOWNA UBCO","1123996","2020-01-24 13:00","2020","01","24","13:00","6.0","","2.1","","76","","","M","","","","","","","95.71","","","","","","NA"
"-119.40","49.94","KELOWNA UBCO","1123996","2020-01-24 14:00","2020","01","24","14:00","6.1","","2.0","","75","","","M","","","","","","","95.69","","","","","","NA"
"-119.40","49.94","KELOWNA UBCO","1123996","2020-01-24 15:00","2020","01","24","15:00","6.0","","1.8","","74","","","M","","","","","","","95.78","","","","","","NA"
"-119.40","49.94","KELOWNA UBCO","1123996","2020-01-24 16:00","2020","01","24","16:00","5.9","","1.9","","75","","","M","","","","","","","95.87","","","","","","NA"
"-119.40","49.94","KELOWNA UBCO","1123996","2020-01-24 17:00","2020","01","24","17:00","3.3","","1.1","","86","","","M","","","","","","","95.87","","","","","","NA"
"-119.40","49.94","KELOWNA UBCO","1123996","2020-01-24 18:00","2020","01","24","18:00","4.1","","1.7","","84","","","M","","","","","","","95.89","","","","","","NA"
"-119.40","49.94","KELOWNA UBCO","1123996","2020-01-24 19:00","2020","01","24","19:00","3.5","","1.4","","86","","","M","","","","","","","95.97","","","","","","NA"
"-119.40","49.94","KELOWNA UBCO","1123996","2020-01-24 20:00","2020","01","24","20:00","3.7","","0.8","","81","","","M","","","","","","","96.01","","","","","","NA"
"-119.40","49.94","KELOWNA UBCO","1123996","2020-01-24 21:00","2020","01","24","21:00","3.7","","1.1","","83","","","M","","","","","","","96.09","","","","","","NA"
"-119.40","49.94","KELOWNA UBCO","1123996","2020-01-24 22:00","2020","01","24","22:00","3.4","","0.9","","83","","","M","","","","","","","96.13","","","","","","NA"
"-119.40","49.94","KELOWNA UBCO","1123996","2020-01-24 23:00","2020","01","24","23:00","3.1","","0.7","","85","","","M","","","","","","","96.18","","","","","","NA"
"-119.40","49.94","KELOWNA UBCO","1123996","2020-01-25 00:00","2020","01","25","00:00","2.9","","0.3","","83","","","M","","","","","","","96.18","","","","","","NA"
"-119.40","49.94","KELOWNA UBCO","1123996","2020-01-25 01:00","2020","01","25","01:00","2.9","","0.4","","84","","","M","","","","","","","96.17","","","","","","NA"
"-119.40","49.94","KELOWNA UBCO","1123996","2020-01-25 02:00","2020","01","25","02:00","2.6","","0.1","","84","","","M","","","","","","","96.23","","","","","","NA"
"-119.40","49.94","KELOWNA UBCO","1123996","2020-01-25 03:00","2020","01","25","03:00","2.4","","0.2","","85","","","M","","","","","","","96.23","","","","","","NA"
"-119.40","49.94","KELOWNA UBCO","1123996","2020-01-25 04:00","2020","01","25","04:00","2.3","","0.0","","85","","","M","","","","","","","96.17","","","","","","NA"
"-119.40","49.94","KELOWNA UBCO","1123996","2020-01-25 05:00","2020","01","25","05:00","2.4","","-0.3","","82","","","M","","","","","","","96.19","","","","","","NA"
"-119.40","49.94","KELOWNA UBCO","1123996","2020-01-25 06:00","2020","01","25","06:00","2.2","","-0.3","","83","","","M","","","","","","","96.21","","","","","","NA"
"-119.40","49.94","KELOWNA UBCO","1123996","2020-01-25 07:00","2020","01","25","07:00","0.6","","-1.0","","89","","","M","","","","","","","96.19","","","","","","NA"
"-119.40","49.94","KELOWNA UBCO","1123996","2020-01-25 08:00","2020","01","25","08:00","-0.7","","-1.8","","92","","","M","","","","","","","96.25","","","","","","NA"
"-119.40","49.94","KELOWNA UBCO","1123996","2020-01-25 09:00","2020","01","25","09:00","0.3","","-1.5","","88","","","M","","","","","","","96.32","","","","","","NA"
"-119.40","49.94","KELOWNA UBCO","1123996","2020-01-25 10:00","2020","01","25","10:00","1.3","","-1.1","","84","","","M","","","","","","","96.35","","","","","","NA"
"-119.40","49.94","KELOWNA UBCO","1123996","2020-01-25 11:00","2020","01","25","11:00","1.7","","-0.6","","85","","","M","","","","","","","96.39","","","","","","NA"
"-119.40","49.94","KELOWNA UBCO","1123996","2020-01-25 12:00","2020","01","25","12:00","2.8","","-0.2","","81","","","M","","","","","","","96.37","","","","","","NA"
"-119.40","49.94","KELOWNA UBCO","1123996","2020-01-25 13:00","2020","01","25","13:00","3.0","","-0.2","","79","","","M","","","","","","","96.36","","","","","","NA"
"-119.40","49.94","KELOWNA UBCO","1123996","2020-01-25 14:00","2020","01","25","14:00","3.4","","-0.5","","76","","","M","","","","","","","96.33","","","","","","NA"
"-119.40","49.94","KELOWNA UBCO","1123996","2020-01-25 15:00","2020","01","25","15:00","3.3","","-0.2","","77","","","M","","","","","","","96.36","","","","","","NA"
"-119.40","49.94","KELOWNA UBCO","1123996","2020-01-25 16:00","2020","01","25","16:00","2.5","","-0.4","","81","","","M","","","","","","","96.36","","","","","","NA"
"-119.40","49.94","KELOWNA UBCO","1123996","2020-01-25 17:00","2020","01","25","17:00","2.5","","0.0","","83","","","M","","","","","","","96.40","","","","","","NA"
"-119.40","49.94","KELOWNA UBCO","1123996","2020-01-25 18:00","2020","01","25","18:00","1.7","","-0.3","","87","","","M","","","","","","","96.45","","","","","","NA"
"-119.40","49.94","KELOWNA UBCO","1123996","2020-01-25 19:00","2020","01","25","19:00","2.0","","0.1","","88","","","M","","","","","","","96.45","","","","","","NA"
"-119.40","49.94","KELOWNA UBCO","1123996","2020-01-25 20:00","2020","01","25","20:00","1.6","","0.1","","90","","","M","","","","","","","96.41","","","","","","NA"
"-119.40","49.94","KELOWNA UBCO","1123996","2020-01-25 21:00","2020","01","25","21:00","1.3","","-0.3","","89","","","M","","","","","","","96.40","","","","","","NA"
"-119.40","49.94","KELOWNA UBCO","1123996","2020-01-25 22:00","2020","01","25","22:00","1.6","","0.0","","89","","","M","","","","","","","96.39","","","","","","NA"
"-119.40","49.94","KELOWNA UBCO","1123996","2020-01-25 23:00","2020","01","25","23:00","1.0","","-0.3","","91","","","M","","","","","","","96.37","","","","","","NA"
"-119.40","49.94","KELOWNA UBCO","1123996","2020-01-26 00:00","2020","01","26","00:00","1.0","","-0.3","","91","","","M","","","","","","","96.35","","","","","","NA"
"-119.40","49.94","KELOWNA UBCO","1123996","2020-01-26 01:00","2020","01","26","01:00","1.1","","-0.2","","91","","","M","","","","","","","96.31","","","","","","NA"
"-119.40","49.94","KELOWNA UBCO","1123996","2020-01-26 02:00","2020","01","26","02:00","1.1","","-0.2","","91","","","M","","","","","","","96.26","","","","","","NA"
"-119.40","49.94","KELOWNA UBCO","1123996","2020-01-26 03:00","2020","01","26","03:00","0.8","","-0.5","","91","","","M","","","","","","","96.16","","","","","","NA"
"-119.40","49.94","KELOWNA UBCO","1123996","2020-01-26 04:00","2020","01","26","04:00","1.0","","-0.3","","91","","","M","","","","","","","96.13","","","","","","NA"
"-119.40","49.94","KELOWNA UBCO","1123996","2020-01-26 05:00","2020","01","26","05:00","0.6","","-0.6","","91","","","M","","","","","","","95.97","","","","","","NA"
"-119.40","49.94","KELOWNA UBCO","1123996","2020-01-26 06:00","2020","01","26","06:00","0.9","","-0.3","","92","","","M","","","","","","","95.96","","","","","","NA"
"-119.40","49.94","KELOWNA UBCO","1123996","2020-01-26 07:00","2020","01","26","07:00","0.6","","-0.6","","92","","","M","","","","","","","95.96","","","","","","NA"
"-119.40","49.94","KELOWNA UBCO","1123996","2020-01-26 08:00","2020","01","26","08:00","0.5","","-0.6","","92","","","M","","","","","","","95.98","","","","","","NA"
"-119.40","49.94","KELOWNA UBCO","1123996","2020-01-26 09:00","2020","01","26","09:00","0.7","","-0.5","","92","","","M","","","","","","","95.96","","","","","","NA"
"-119.40","49.94","KELOWNA UBCO","1123996","2020-01-26 10:00","2020","01","26","10:00","1.2","","-0.1","","91","","","M","","","","","","","96.02","","","","","","NA"
"-119.40","49.94","KELOWNA UBCO","1123996","2020-01-26 11:00","2020","01","26","11:00","2.3","","-1.0","","79","","","M","","","","","","","96.01","","","","","","NA"
"-119.40","49.94","KELOWNA UBCO","1123996","2020-01-26 12:00","2020","01","26","12:00","2.8","","0.0","","82","","","M","","","","","","","96.02","","","","","","NA"
"-119.40","49.94","KELOWNA UBCO","1123996","2020-01-26 13:00","2020","01","26","13:00","4.6","","-0.1","","71","","","M","","","","","","","96.05","","","","","","NA"
"-119.40","49.94","KELOWNA UBCO","1123996","2020-01-26 14:00","2020","01","26","14:00","4.1","","0.6","","78","","","M","","","","","","","96.04","","","","","","NA"
"-119.40","49.94","KELOWNA UBCO","1123996","2020-01-26 15:00","2020","01","26","15:00","4.0","","0.6","","78","","","M","","","","","","","96.03","","","","","","NA"
"-119.40","49.94","KELOWNA UBCO","1123996","2020-01-26 16:00","2020","01","26","16:00","4.0","","0.9","","80","","","M","","","","","","","96.05","","","","","","NA"
"-119.40","49.94","KELOWNA UBCO","1123996","2020-01-26 17:00","2020","01","26","17:00","3.0","","0.6","","84","","","M","","","","","","","96.06","","","","","","NA"
"-119.40","49.94","KELOWNA UBCO","1123996","2020-01-26 18:00","2020","01","26","18:00","2.9","","0.7","","85","","","M","","","","","","","96.10","","","","","","NA"
"-119.40","49.94","KELOWNA UBCO","1123996","2020-01-26 19:00","2020","01","26","19:00","2.4","","-0.2","","83","","","M","","","","","","","96.13","","","","","","NA"
"-119.40","49.94","KELOWNA UBCO","1123996","2020-01-26 20:00","2020","01","26","20:00","4.1","","1.0","","80","","","M","","","","","","","96.16","","","","","","NA"
"-119.40","49.94","KELOWNA UBCO","1123996","2020-01-26 21:00","2020","01","26","21:00","2.9","","0.6","","85","","","M","","","","","","","96.17","","","","","","NA"
"-119.40","49.94","KELOWNA UBCO","1123996","2020-01-26 22:00","2020","01","26","22:00","2.5","","0.7","","88","","","M","","","","","","","96.20","","","","","","NA"
"-119.40","49.94","KELOWNA UBCO","1123996","2020-01-26 23:00","2020","01","26","23:00","2.1","","0.2","","87","","","M","","","","","","","96.22","","","","","","NA"
"-119.40","49.94","KELOWNA UBCO","1123996","2020-01-27 00:00","2020","01","27","00:00","2.2","","0.4","","88","","","M","","","","","","","96.24","","","","","","NA"
"-119.40","49.94","KELOWNA UBCO","1123996","2020-01-27 01:00","2020","01","27","01:00","2.6","","0.2","","84","","","M","","","","","","","96.23","","","","","","NA"
"-119.40","49.94","KELOWNA UBCO","1123996","2020-01-27 02:00","2020","01","27","02:00","3.2","","0.7","","83","","","M","","","","","","","96.24","","","","","","NA"
"-119.40","49.94","KELOWNA UBCO","1123996","2020-01-27 03:00","2020","01","27","03:00","3.1","","0.6","","84","","","M","","","","","","","96.27","","","","","","NA"
"-119.40","49.94","KELOWNA UBCO","1123996","2020-01-27 04:00","2020","01","27","04:00","1.9","","0.1","","88","","","M","","","","","","","96.29","","","","","","NA"
"-119.40","49.94","KELOWNA UBCO","1123996","2020-01-27 05:00","2020","01","27","05:00","2.3","","0.6","","88","","","M","","","","","","","96.32","","","","","","NA"
"-119.40","49.94","KELOWNA UBCO","1123996","2020-01-27 06:00","2020","01","27","06:00","2.3","","0.0","","85","","","M","","","","","","","96.35","","","","","","NA"
"-119.40","49.94","KELOWNA UBCO","1123996","2020-01-27 07:00","2020","01","27","07:00","2.4","","0.7","","88","","","M","","","","","","","96.38","","","","","","NA"
"-119.40","49.94","KELOWNA UBCO","1123996","2020-01-27 08:00","2020","01","27","08:00","1.4","","0.0","","91","","","M","","","","","","","96.42","","","","","","NA"
"-119.40","49.94","KELOWNA UBCO","1123996","2020-01-27 09:00","2020","01","27","09:00","2.8","","0.0","","82","","","M","","","","","","","96.47","","","","","","NA"
"-119.40","49.94","KELOWNA UBCO","1123996","2020-01-27 10:00","2020","01","27","10:00","3.4","","0.5","","81","","","M","","","","","","","96.50","","","","","","NA"
"-119.40","49.94","KELOWNA UBCO","1123996","2020-01-27 11:00","2020","01","27","11:00","4.8","","0.1","","72","","","M","","","","","","","96.53","","","","","","NA"
"-119.40","49.94","KELOWNA UBCO","1123996","2020-01-27 12:00","2020","01","27","12:00","5.8","","0.3","","68","","","M","","","","","","","96.53","","","","","","NA"
"-119.40","49.94","KELOWNA UBCO","1123996","2020-01-27 13:00","2020","01","27","13:00","5.9","","-0.7","","62","","","M","","","","","","","96.51","","","","","","NA"
"-119.40","49.94","KELOWNA UBCO","1123996","2020-01-27 14:00","2020","01","27","14:00","7.3","","-1.0","","55","","","M","","","","","","","96.47","","","","","","NA"
"-119.40","49.94","KELOWNA UBCO","1123996","2020-01-27 15:00","2020","01","27","15:00","6.7","","-1.1","","57","","","M","","","","","","","96.43","","","","","","NA"
"-119.40","49.94","KELOWNA UBCO","1123996","2020-01-27 16:00","2020","01","27","16:00","6.1","","-0.9","","60","","","M","","","","","","","96.49","","","","","","NA"
"-119.40","49.94","KELOWNA UBCO","1123996","2020-01-27 17:00","2020","01","27","17:00","5.0","","-1.0","","65","","","M","","","","","","","96.44","","","","","","NA"
"-119.40","49.94","KELOWNA UBCO","1123996","2020-01-27 18:00","2020","01","27","18:00","3.9","","-0.9","","71","","","M","","","","","","","96.39","","","","","","NA"
"-119.40","49.94","KELOWNA UBCO","1123996","2020-01-27 19:00","2020","01","27","19:00","3.4","","-1.2","","72","","","M","","","","","","","96.32","","","","","","NA"
"-119.40","49.94","KELOWNA UBCO","1123996","2020-01-27 20:00","2020","01","27","20:00","3.3","","-1.2","","72","","","M","","","","","","","96.30","","","","","","NA"
"-119.40","49.94","KELOWNA UBCO","1123996","2020-01-27 21:00","2020","01","27","21:00","2.9","","-1.1","","75","","","M","","","","","","","96.32","","","","","","NA"
"-119.40","49.94","KELOWNA UBCO","1123996","2020-01-27 22:00","2020","01","27","22:00","3.0","","-1.2","","74","","","M","","","","","","","96.22","","","","","","NA"
"-119.40","49.94","KELOWNA UBCO","1123996","2020-01-27 23:00","2020","01","27","23:00","2.8","","-1.2","","75","","","M","","","","","","","96.18","","","","","","NA"
"-119.40","49.94","KELOWNA UBCO","1123996","2020-01-28 00:00","2020","01","28","00:00","2.1","","-1.0","","80","","","M","","","","","","","96.14","","","","","","NA"
"-119.40","49.94","KELOWNA UBCO","1123996","2020-01-28 01:00","2020","01","28","01:00","1.5","","-0.3","","88","","","M","","","","","","","96.14","","","","","","NA"
"-119.40","49.94","KELOWNA UBCO","1123996","2020-01-28 02:00","2020","01","28","02:00","0.6","","-0.8","","91","","","M","","","","","","","96.10","","","","","","NA"
"-119.40","49.94","KELOWNA UBCO","1123996","2020-01-28 03:00","2020","01","28","03:00","0.8","","-0.4","","92","","","M","","","","","","","96.01","","","","","","NA"
"-119.40","49.94","KELOWNA UBCO","1123996","2020-01-28 04:00","2020","01","28","04:00","0.6","","-0.5","","92","","","M","","","","","","","96.04","","","","","","NA"
"-119.40","49.94","KELOWNA UBCO","1123996","2020-01-28 05:00","2020","01","28","05:00","0.6","","-0.5","","92","","","M","","","","","","","96.02","","","","","","NA"
"-119.40","49.94","KELOWNA UBCO","1123996","2020-01-28 06:00","2020","01","28","06:00","0.3","","-0.7","","93","","","M","","","","","","","96.04","","","","","","NA"
"-119.40","49.94","KELOWNA UBCO","1123996","2020-01-28 07:00","2020","01","28","07:00","0.3","","-0.6","","93","","","M","","","","","","","96.07","","","","","","NA"
"-119.40","49.94","KELOWNA UBCO","1123996","2020-01-28 08:00","2020","01","28","08:00","0.3","","-0.7","","93","","","M","","","","","","","96.11","","","","","","NA"
"-119.40","49.94","KELOWNA UBCO","1123996","2020-01-28 09:00","2020","01","28","09:00","0.7","","-0.3","","93","","","M","","","","","","","96.16","","","","","","NA"
"-119.40","49.94","KELOWNA UBCO","1123996","2020-01-28 10:00","2020","01","28","10:00","1.1","","-0.1","","92","","","M","","","","","","","96.20","","","","","","NA"
"-119.40","49.94","KELOWNA UBCO","1123996","2020-01-28 11:00","2020","01","28","11:00","2.3","","-0.3","","83","","","M","","","","","","","96.24","","","","","","NA"
"-119.40","49.94","KELOWNA UBCO","1123996","2020-01-28 12:00","2020","01","28","12:00","3.0","","0.3","","83","","","M","","","","","","","96.28","","","","","","NA"
"-119.40","49.94","KELOWNA UBCO","1123996","2020-01-28 13:00","2020","01","28","13:00","4.3","","-0.6","","70","","","M","","","","","","","96.25","","","","","","NA"
"-119.40","49.94","KELOWNA UBCO","1123996","2020-01-28 14:00","2020","01","28","14:00","4.6","","-0.5","","69","","","M","","","","","","","96.27","","","","","","NA"
"-119.40","49.94","KELOWNA UBCO","1123996","2020-01-28 15:00","2020","01","28","15:00","3.6","","-0.3","","76","","","M","","","","","","","96.37","","","","","","NA"
"-119.40","49.94","KELOWNA UBCO","1123996","2020-01-28 16:00","2020","01","28","16:00","4.3","","0.3","","75","","","M","","","","","","","96.45","","","","","","NA"
"-119.40","49.94","KELOWNA UBCO","1123996","2020-01-28 17:00","2020","01","28","17:00","2.9","","0.3","","83","","","M","","","","","","","96.54","","","","","","NA"
"-119.40","49.94","KELOWNA UBCO","1123996","2020-01-28 18:00","2020","01","28","18:00","0.4","","-1.1","","90","","","M","","","","","","","96.56","","","","","","NA"
"-119.40","49.94","KELOWNA UBCO","1123996","2020-01-28 19:00","2020","01","28","19:00","-0.2","","-1.4","","92","","","M","","","","","","","96.63","","","","","","NA"
"-119.40","49.94","KELOWNA UBCO","1123996","2020-01-28 20:00","2020","01","28","20:00","-1.0","","-2.1","","92","","","M","","","","","","","96.73","","","","","","NA"
"-119.40","49.94","KELOWNA UBCO","1123996","2020-01-28 21:00","2020","01","28","21:00","-0.5","","-1.5","","93","","","M","","","","","","","96.71","","","","","","NA"
"-119.40","49.94","KELOWNA UBCO","1123996","2020-01-28 22:00","2020","01","28","22:00","1.4","","0.0","","90","","","M","","","","","","","96.76","","","","","","NA"
"-119.40","49.94","KELOWNA UBCO","1123996","2020-01-28 23:00","2020","01","28","23:00","1.5","","-0.4","","87","","","M","","","","","","","96.80","","","","","","NA"
"-119.40","49.94","KELOWNA UBCO","1123996","2020-01-29 00:00","2020","01","29","00:00","1.7","","-0.5","","85","","","M","","","","","","","96.79","","","","","","NA"
"-119.40","49.94","KELOWNA UBCO","1123996","2020-01-29 01:00","2020","01","29","01:00","1.9","","-0.5","","84","","","M","","","","","","","96.81","","","","","","NA"
"-119.40","49.94","KELOWNA UBCO","1123996","2020-01-29 02:00","2020","01","29","02:00","1.5","","-0.8","","85","","","M","","","","","","","96.82","","","","","","NA"
"-119.40","49.94","KELOWNA UBCO","1123996","2020-01-29 03:00","2020","01","29","03:00","1.1","","-0.7","","88","","","M","","","","","","","96.75","","","","","","NA"
"-119.40","49.94","KELOWNA UBCO","1123996","2020-01-29 04:00","2020","01","29","04:00","2.0","","-0.5","","84","","","M","","","","","","","96.71","","","","","","NA"
"-119.40","49.94","KELOWNA UBCO","1123996","2020-01-29 05:00","2020","01","29","05:00","1.3","","-0.8","","86","","","M","","","","","","","96.66","","","","","","NA"
"-119.40","49.94","KELOWNA UBCO","1123996","2020-01-29 06:00","2020","01","29","06:00","1.2","","-0.6","","88","","","M","","","","","","","96.63","","","","","","NA"
"-119.40","49.94","KELOWNA UBCO","1123996","2020-01-29 07:00","2020","01","29","07:00","1.4","","-0.6","","87","","","M","","","","","","","96.48","","","","","","NA"
"-119.40","49.94","KELOWNA UBCO","1123996","2020-01-29 08:00","2020","01","29","08:00","1.6","","-0.5","","86","","","M","","","","","","","96.49","","","","","","NA"
"-119.40","49.94","KELOWNA UBCO","1123996","2020-01-29 09:00","2020","01","29","09:00","2.2","","-0.4","","83","","","M","","","","","","","96.39","","","","","","NA"
"-119.40","49.94","KELOWNA UBCO","1123996","2020-01-29 10:00","2020","01","29","10:00","3.4","","-0.3","","77","","","M","","","","","","","96.33","","","","","","NA"
"-119.40","49.94","KELOWNA UBCO","1123996","2020-01-29 11:00","2020","01","29","11:00","4.0","","-0.2","","74","","","M","","","","","","","96.31","","","","","","NA"
"-119.40","49.94","KELOWNA UBCO","1123996","2020-01-29 12:00","2020","01","29","12:00","4.8","","-0.3","","69","","","M","","","","","","","96.21","","","","","","NA"
"-119.40","49.94","KELOWNA UBCO","1123996","2020-01-29 13:00","2020","01","29","13:00","4.6","","-0.6","","69","","","M","","","","","","","96.13","","","","","","NA"
"-119.40","49.94","KELOWNA UBCO","1123996","2020-01-29 14:00","2020","01","29","14:00","5.2","","-0.1","","68","","","M","","","","","","","96.07","","","","","","NA"
"-119.40","49.94","KELOWNA UBCO","1123996","2020-01-29 15:00","2020","01","29","15:00","5.4","","-0.1","","68","","","M","","","","","","","96.05","","","","","","NA"
"-119.40","49.94","KELOWNA UBCO","1123996","2020-01-29 16:00","2020","01","29","16:00","5.2","","0.1","","70","","","M","","","","","","","96.11","","","","","","NA"
"-119.40","49.94","KELOWNA UBCO","1123996","2020-01-29 17:00","2020","01","29","17:00","5.2","","0.2","","70","","","M","","","","","","","96.20","","","","","","NA"
"-119.40","49.94","KELOWNA UBCO","1123996","2020-01-29 18:00","2020","01","29","18:00","4.2","","0.2","","75","","","M","","","","","","","96.28","","","","","","NA"
"-119.40","49.94","KELOWNA UBCO","1123996","2020-01-29 19:00","2020","01","29","19:00","3.4","","-0.4","","76","","","M","","","","","","","96.39","","","","","","NA"
"-119.40","49.94","KELOWNA UBCO","1123996","2020-01-29 20:00","2020","01","29","20:00","3.1","","-0.8","","76","","","M","","","","","","","96.44","","","","","","NA"
"-119.40","49.94","KELOWNA UBCO","1123996","2020-01-29 21:00","2020","01","29","21:00","2.6","","-1.3","","76","","","M","","","","","","","96.48","","","","","","NA"
"-119.40","49.94","KELOWNA UBCO","1123996","2020-01-29 22:00","2020","01","29","22:00","2.6","","-2.8","","68","","","M","","","","","","","96.60","","","","","","NA"
"-119.40","49.94","KELOWNA UBCO","1123996","2020-01-29 23:00","2020","01","29","23:00","3.6","","-1.0","","72","","","M","","","","","","","96.69","","","","","","NA"
"-119.40","49.94","KELOWNA UBCO","1123996","2020-01-30 00:00","2020","01","30","00:00","1.7","","-2.1","","76","","","M","","","","","","","96.76","","","","","","NA"
"-119.40","49.94","KELOWNA UBCO","1123996","2020-01-30 01:00","2020","01","30","01:00","0.6","","-2.4","","80","","","M","","","","","","","96.82","","","","","","NA"
"-119.40","49.94","KELOWNA UBCO","1123996","2020-01-30 02:00","2020","01","30","02:00","0.6","","-3.2","","76","","","M","","","","","","","96.94","","","","","","NA"
"-119.40","49.94","KELOWNA UBCO","1123996","2020-01-30 03:00","2020","01","30","03:00","0.5","","-1.8","","84","","","M","","","","","","","96.99","","","","","","NA"
"-119.40","49.94","KELOWNA UBCO","1123996","2020-01-30 04:00","2020","01","30","04:00","0.6","","-3.7","","73","","","M","","","","","","","97.05","","","","","","NA"
"-119.40","49.94","KELOWNA UBCO","1123996","2020-01-30 05:00","2020","01","30","05:00","1.3","","-2.8","","74","","","M","","","","","","","97.06","","","","","","NA"
"-119.40","49.94","KELOWNA UBCO","1123996","2020-01-30 06:00","2020","01","30","06:00","0.8","","-2.6","","78","","","M","","","","","","","97.06","","","","","","NA"
"-119.40","49.94","KELOWNA UBCO","1123996","2020-01-30 07:00","2020","01","30","07:00","0.0","","-4.3","","73","","","M","","","","","","","97.14","","","","","","NA"
"-119.40","49.94","KELOWNA UBCO","1123996","2020-01-30 08:00","2020","01","30","08:00","0.5","","-4.2","","71","","","M","","","","","","","97.08","","","","","","NA"
"-119.40","49.94","KELOWNA UBCO","1123996","2020-01-30 09:00","2020","01","30","09:00","0.9","","-3.7","","71","","","M","","","","","","","97.11","","","","","","NA"
"-119.40","49.94","KELOWNA UBCO","1123996","2020-01-30 10:00","2020","01","30","10:00","1.5","","-2.9","","72","","","M","","","","","","","97.17","","","","","","NA"
"-119.40","49.94","KELOWNA UBCO","1123996","2020-01-30 11:00","2020","01","30","11:00","1.5","","-2.9","","72","","","M","","","","","","","97.19","","","","","","NA"
"-119.40","49.94","KELOWNA UBCO","1123996","2020-01-30 12:00","2020","01","30","12:00","2.2","","-2.3","","72","","","M","","","","","","","97.19","","","","","","NA"
"-119.40","49.94","KELOWNA UBCO","1123996","2020-01-30 13:00","2020","01","30","13:00","2.8","","-1.6","","73","","","M","","","","","","","96.97","","","","","","NA"
"-119.40","49.94","KELOWNA UBCO","1123996","2020-01-30 14:00","2020","01","30","14:00","3.3","","-1.9","","69","","","M","","","","","","","96.81","","","","","","NA"
"-119.40","49.94","KELOWNA UBCO","1123996","2020-01-30 15:00","2020","01","30","15:00","3.6","","-1.8","","68","","","M","","","","","","","96.73","","","","","","NA"
"-119.40","49.94","KELOWNA UBCO","1123996","2020-01-30 16:00","2020","01","30","16:00","3.5","","-2.2","","66","","","M","","","","","","","96.59","","","","","","NA"
"-119.40","49.94","KELOWNA UBCO","1123996","2020-01-30 17:00","2020","01","30","17:00","3.2","","-2.4","","67","","","M","","","","","","","96.52","","","","","","NA"
"-119.40","49.94","KELOWNA UBCO","1123996","2020-01-30 18:00","2020","01","30","18:00","2.7","","-2.3","","70","","","M","","","","","","","96.48","","","","","","NA"
"-119.40","49.94","KELOWNA UBCO","1123996","2020-01-30 19:00","2020","01","30","19:00","3.0","","-2.4","","68","","","M","","","","","","","96.36","","","","","","NA"
"-119.40","49.94","KELOWNA UBCO","1123996","2020-01-30 20:00","2020","01","30","20:00","3.3","","-1.9","","69","","","M","","","","","","","96.33","","","","","","NA"
"-119.40","49.94","KELOWNA UBCO","1123996","2020-01-30 21:00","2020","01","30","21:00","3.3","","-1.3","","72","","","M","","","","","","","96.26","","","","","","NA"
"-119.40","49.94","KELOWNA UBCO","1123996","2020-01-30 22:00","2020","01","30","22:00","3.5","","-0.8","","74","","","M","","","","","","","96.23","","","","","","NA"
"-119.40","49.94","KELOWNA UBCO","1123996","2020-01-30 23:00","2020","01","30","23:00","3.4","","-0.7","","74","","","M","","","","","","","96.16","","","","","","NA"
"-119.40","49.94","KELOWNA UBCO","1123996","2020-01-31 00:00","2020","01","31","00:00","4.0","","-0.3","","74","","","M","","","","","","","96.21","","","","","","NA"
"-119.40","49.94","KELOWNA UBCO","1123996","2020-01-31 01:00","2020","01","31","01:00","3.9","","-0.4","","73","","","M","","","","","","","96.29","","","","","","NA"
"-119.40","49.94","KELOWNA UBCO","1123996","2020-01-31 02:00","2020","01","31","02:00","4.2","","0.2","","75","","","M","","","","","","","96.32","","","","","","NA"
"-119.40","49.94","KELOWNA UBCO","1123996","2020-01-31 03:00","2020","01","31","03:00","3.7","","0.3","","78","","","M","","","","","","","96.35","","","","","","NA"
"-119.40","49.94","KELOWNA UBCO","1123996","2020-01-31 04:00","2020","01","31","04:00","3.3","","0.3","","80","","","M","","","","","","","96.36","","","","","","NA"
"-119.40","49.94","KELOWNA UBCO","1123996","2020-01-31 05:00","2020","01","31","05:00","3.5","","0.6","","81","","","M","","","","","","","96.39","","","","","","NA"
"-119.40","49.94","KELOWNA UBCO","1123996","2020-01-31 06:00","2020","01","31","06:00","3.3","","0.3","","81","","","M","","","","","","","96.37","","","","","","NA"
"-119.40","49.94","KELOWNA UBCO","1123996","2020-01-31 07:00","2020","01","31","07:00","3.1","","0.3","","82","","","M","","","","","","","96.38","","","","","","NA"
"-119.40","49.94","KELOWNA UBCO","1123996","2020-01-31 08:00","2020","01","31","08:00","3.3","","0.6","","82","","","M","","","","","","","96.36","","","","","","NA"
"-119.40","49.94","KELOWNA UBCO","1123996","2020-01-31 09:00","2020","01","31","09:00","3.1","","0.7","","85","","","M","","","","","","","96.33","","","","","","NA"
"-119.40","49.94","KELOWNA UBCO","1123996","2020-01-31 10:00","2020","01","31","10:00","3.3","","1.0","","85","","","M","","","","","","","96.29","","","","","","NA"
"-119.40","49.94","KELOWNA UBCO","1123996","2020-01-31 11:00","2020","01","31","11:00","3.8","","1.0","","82","","","M","","","","","","","96.12","","","","","","NA"
"-119.40","49.94","KELOWNA UBCO","1123996","2020-01-31 12:00","2020","01","31","12:00","4.4","","1.1","","79","","","M","","","","","","","96.02","","","","","","NA"
"-119.40","49.94","KELOWNA UBCO","1123996","2020-01-31 13:00","2020","01","31","13:00","4.5","","1.8","","83","","","M","","","","","","","95.95","","","","","","NA"
"-119.40","49.94","KELOWNA UBCO","1123996","2020-01-31 14:00","2020","01","31","14:00","5.1","","1.8","","79","","","M","","","","","","","95.87","","","","","","NA"
"-119.40","49.94","KELOWNA UBCO","1123996","2020-01-31 15:00","2020","01","31","15:00","5.6","","1.9","","77","","","M","","","","","","","95.76","","","","","","NA"
"-119.40","49.94","KELOWNA UBCO","1123996","2020-01-31 16:00","2020","01","31","16:00","5.4","","2.0","","79","","","M","","","","","","","95.72","","","","","","NA"
"-119.40","49.94","KELOWNA UBCO","1123996","2020-01-31 17:00","2020","01","31","17:00","5.4","","2.2","","79","","","M","","","","","","","95.68","","","","","","NA"
"-119.40","49.94","KELOWNA UBCO","1123996","2020-01-31 18:00","2020","01","31","18:00","5.4","","2.3","","81","","","M","","","","","","","95.61","","","","","","NA"
"-119.40","49.94","KELOWNA UBCO","1123996","2020-01-31 19:00","2020","01","31","19:00","5.1","","2.3","","82","","","M","","","","","","","95.47","","","","","","NA"
"-119.40","49.94","KELOWNA UBCO","1123996","2020-01-31 20:00","2020","01","31","20:00","4.9","","2.4","","84","","","M","","","","","","","95.48","","","","","","NA"
"-119.40","49.94","KELOWNA UBCO","1123996","2020-01-31 21:00","2020","01","31","21:00","4.7","","2.3","","84","","","M","","","","","","","95.40","","","","","","NA"
"-119.40","49.94","KELOWNA UBCO","1123996","2020-01-31 22:00","2020","01","31","22:00","5.4","","2.6","","82","","","M","","","","","","","95.42","","","","","","NA"
"-119.40","49.94","KELOWNA UBCO","1123996","2020-01-31 23:00","2020","01","31","23:00","4.2","","2.1","","86","","","M","","","","","","","95.31","","","","","","NA"
