"Longitude (x)","Latitude (y)","Station Name","Climate ID","Date/Time (LST)","Year","Month","Day","Time (LST)","Temp (°C)","Temp Flag","Dew Point Temp (°C)","Dew Point Temp Flag","Rel Hum (%)","Rel Hum Flag","Precip. Amount (mm)","Precip. Amount Flag","Wind Dir (10s deg)","Wind Dir Flag","Wind Spd (km/h)","Wind Spd Flag","Visibility (km)","Visibility Flag","Stn Press (kPa)","Stn Press Flag","Hmdx","Hmdx Flag","Wind Chill","Wind Chill Flag","Weather"
"-119.40","49.94","KELOWNA UBCO","1123996","2019-10-01 00:00","2019","10","01","00:00","6.7","","0.8","","66","","","M","","","","","","","96.63","","","","","","NA"
"-119.40","49.94","KELOWNA UBCO","1123996","2019-10-01 01:00","2019","10","01","01:00","4.6","","0.1","","73","","","M","","","","","","","96.66","","","","","","NA"
"-119.40","49.94","KELOWNA UBCO","1123996","2019-10-01 02:00","2019","10","01","02:00","2.9","","-0.1","","81","","","M","","","","","","","96.67","","","","","","NA"
"-119.40","49.94","KELOWNA UBCO","1123996","2019-10-01 03:00","2019","10","01","03:00","2.2","","-0.4","","83","","","M","","","","","","","96.66","","","","","","NA"
"-119.40","49.94","KELOWNA UBCO","1123996","2019-10-01 04:00","2019","10","01","04:00","1.2","","-0.8","","87","","","M","","","","","","","96.68","","","","","","NA"
"-119.40","49.94","KELOWNA UBCO","1123996","2019-10-01 05:00","2019","10","01","05:00","1.0","","-0.8","","88","","","M","","","","","","","96.71","","","","","","NA"
"-119.40","49.94","KELOWNA UBCO","1123996","2019-10-01 06:00","2019","10","01","06:00","0.9","","-0.7","","89","","","M","","","","","","","96.74","","","","","","NA"
"-119.40","49.94","KELOWNA UBCO","1123996","2019-10-01 07:00","2019","10","01","07:00","1.7","","-0.4","","86","","","M","","","","","","","96.77","","","","","","NA"
"-119.40","49.94","KELOWNA UBCO","1123996","2019-10-01 08:00","2019","10","01","08:00","6.6","","-0.2","","62","","","M","","","","","","","96.78","","","","","","NA"
"-119.40","49.94","KELOWNA UBCO","1123996","2019-10-01 09:00","2019","10","01","09:00","7.7","","0.0","","58","","","M","","","","","","","96.78","","","","","","NA"
"-119.40","49.94","KELOWNA UBCO","1123996","2019-10-01 10:00","2019","10","01","10:00","8.6","","0.0","","55","","","M","","","","","","","96.76","","","","","","NA"
"-119.40","49.94","KELOWNA UBCO","1123996","2019-10-01 11:00","2019","10","01","11:00","10.5","","0.7","","51","","","M","","","","","","","96.71","","","","","","NA"
"-119.40","49.94","KELOWNA UBCO","1123996","2019-10-01 12:00","2019","10","01","12:00","12.1","","-0.3","","42","","","M","","","","","","","96.65","","","","","","NA"
"-119.40","49.94","KELOWNA UBCO","1123996","2019-10-01 13:00","2019","10","01","13:00","12.7","","-1.2","","38","","","M","","","","","","","96.57","","","","","","NA"
"-119.40","49.94","KELOWNA UBCO","1123996","2019-10-01 14:00","2019","10","01","14:00","13.0","","-2.2","","35","","","M","","","","","","","96.52","","","","","","NA"
"-119.40","49.94","KELOWNA UBCO","1123996","2019-10-01 15:00","2019","10","01","15:00","13.9","","-1.3","","35","","","M","","","","","","","96.46","","","","","","NA"
"-119.40","49.94","KELOWNA UBCO","1123996","2019-10-01 16:00","2019","10","01","16:00","13.8","","-1.6","","35","","","M","","","","","","","96.43","","","","","","NA"
"-119.40","49.94","KELOWNA UBCO","1123996","2019-10-01 17:00","2019","10","01","17:00","12.8","","0.9","","44","","","M","","","","","","","96.42","","","","","","NA"
"-119.40","49.94","KELOWNA UBCO","1123996","2019-10-01 18:00","2019","10","01","18:00","10.1","","3.0","","61","","","M","","","","","","","96.43","","","","","","NA"
"-119.40","49.94","KELOWNA UBCO","1123996","2019-10-01 19:00","2019","10","01","19:00","7.7","","2.5","","69","","","M","","","","","","","96.46","","","","","","NA"
"-119.40","49.94","KELOWNA UBCO","1123996","2019-10-01 20:00","2019","10","01","20:00","5.9","","2.0","","76","","","M","","","","","","","96.46","","","","","","NA"
"-119.40","49.94","KELOWNA UBCO","1123996","2019-10-01 21:00","2019","10","01","21:00","5.9","","1.9","","76","","","M","","","","","","","96.47","","","","","","NA"
"-119.40","49.94","KELOWNA UBCO","1123996","2019-10-01 22:00","2019","10","01","22:00","5.7","","2.2","","78","","","M","","","","","","","96.47","","","","","","NA"
"-119.40","49.94","KELOWNA UBCO","1123996","2019-10-01 23:00","2019","10","01","23:00","4.8","","1.8","","81","","","M","","","","","","","96.47","","","","","","NA"
"-119.40","49.94","KELOWNA UBCO","1123996","2019-10-02 00:00","2019","10","02","00:00","5.2","","2.1","","81","","","M","","","","","","","96.49","","","","","","NA"
"-119.40","49.94","KELOWNA UBCO","1123996","2019-10-02 01:00","2019","10","02","01:00","5.3","","2.0","","79","","","M","","","","","","","96.51","","","","","","NA"
"-119.40","49.94","KELOWNA UBCO","1123996","2019-10-02 02:00","2019","10","02","02:00","6.1","","1.5","","72","","","M","","","","","","","96.49","","","","","","NA"
"-119.40","49.94","KELOWNA UBCO","1123996","2019-10-02 03:00","2019","10","02","03:00","6.0","","1.7","","74","","","M","","","","","","","96.48","","","","","","NA"
"-119.40","49.94","KELOWNA UBCO","1123996","2019-10-02 04:00","2019","10","02","04:00","5.6","","1.3","","74","","","M","","","","","","","96.49","","","","","","NA"
"-119.40","49.94","KELOWNA UBCO","1123996","2019-10-02 05:00","2019","10","02","05:00","5.0","","0.9","","75","","","M","","","","","","","96.47","","","","","","NA"
"-119.40","49.94","KELOWNA UBCO","1123996","2019-10-02 06:00","2019","10","02","06:00","5.9","","1.3","","72","","","M","","","","","","","96.50","","","","","","NA"
"-119.40","49.94","KELOWNA UBCO","1123996","2019-10-02 07:00","2019","10","02","07:00","6.9","","1.2","","67","","","M","","","","","","","96.53","","","","","","NA"
"-119.40","49.94","KELOWNA UBCO","1123996","2019-10-02 08:00","2019","10","02","08:00","7.6","","1.8","","66","","","M","","","","","","","96.54","","","","","","NA"
"-119.40","49.94","KELOWNA UBCO","1123996","2019-10-02 09:00","2019","10","02","09:00","9.2","","1.6","","59","","","M","","","","","","","96.55","","","","","","NA"
"-119.40","49.94","KELOWNA UBCO","1123996","2019-10-02 10:00","2019","10","02","10:00","9.7","","1.7","","57","","","M","","","","","","","96.55","","","","","","NA"
"-119.40","49.94","KELOWNA UBCO","1123996","2019-10-02 11:00","2019","10","02","11:00","11.1","","0.6","","48","","","M","","","","","","","96.52","","","","","","NA"
"-119.40","49.94","KELOWNA UBCO","1123996","2019-10-02 12:00","2019","10","02","12:00","11.6","","-0.4","","43","","","M","","","","","","","96.48","","","","","","NA"
"-119.40","49.94","KELOWNA UBCO","1123996","2019-10-02 13:00","2019","10","02","13:00","12.0","","-1.3","","40","","","M","","","","","","","96.42","","","","","","NA"
"-119.40","49.94","KELOWNA UBCO","1123996","2019-10-02 14:00","2019","10","02","14:00","12.4","","-2.4","","35","","","M","","","","","","","96.39","","","","","","NA"
"-119.40","49.94","KELOWNA UBCO","1123996","2019-10-02 15:00","2019","10","02","15:00","12.7","","-1.2","","38","","","M","","","","","","","96.35","","","","","","NA"
"-119.40","49.94","KELOWNA UBCO","1123996","2019-10-02 16:00","2019","10","02","16:00","12.7","","-0.8","","39","","","M","","","","","","","96.30","","","","","","NA"
"-119.40","49.94","KELOWNA UBCO","1123996","2019-10-02 17:00","2019","10","02","17:00","12.2","","0.3","","44","","","M","","","","","","","96.27","","","","","","NA"
"-119.40","49.94","KELOWNA UBCO","1123996","2019-10-02 18:00","2019","10","02","18:00","11.6","","0.8","","48","","","M","","","","","","","96.26","","","","","","NA"
"-119.40","49.94","KELOWNA UBCO","1123996","2019-10-02 19:00","2019","10","02","19:00","9.7","","2.3","","60","","","M","","","","","","","96.25","","","","","","NA"
"-119.40","49.94","KELOWNA UBCO","1123996","2019-10-02 20:00","2019","10","02","20:00","9.3","","2.5","","62","","","M","","","","","","","96.24","","","","","","NA"
"-119.40","49.94","KELOWNA UBCO","1123996","2019-10-02 21:00","2019","10","02","21:00","9.2","","2.8","","64","","","M","","","","","","","96.23","","","","","","NA"
"-119.40","49.94","KELOWNA UBCO","1123996","2019-10-02 22:00","2019","10","02","22:00","9.3","","2.4","","62","","","M","","","","","","","96.21","","","","","","NA"
"-119.40","49.94","KELOWNA UBCO","1123996","2019-10-02 23:00","2019","10","02","23:00","11.1","","0.1","","46","","","M","","","","","","","96.22","","","","","","NA"
"-119.40","49.94","KELOWNA UBCO","1123996","2019-10-03 00:00","2019","10","03","00:00","11.3","","-0.7","","43","","","M","","","","","","","96.20","","","","","","NA"
"-119.40","49.94","KELOWNA UBCO","1123996","2019-10-03 01:00","2019","10","03","01:00","10.6","","-0.4","","46","","","M","","","","","","","96.20","","","","","","NA"
"-119.40","49.94","KELOWNA UBCO","1123996","2019-10-03 02:00","2019","10","03","02:00","10.2","","-0.2","","49","","","M","","","","","","","96.17","","","","","","NA"
"-119.40","49.94","KELOWNA UBCO","1123996","2019-10-03 03:00","2019","10","03","03:00","10.1","","-0.4","","48","","","M","","","","","","","96.15","","","","","","NA"
"-119.40","49.94","KELOWNA UBCO","1123996","2019-10-03 04:00","2019","10","03","04:00","9.2","","1.2","","57","","","M","","","","","","","96.18","","","","","","NA"
"-119.40","49.94","KELOWNA UBCO","1123996","2019-10-03 05:00","2019","10","03","05:00","8.5","","2.3","","65","","","M","","","","","","","96.21","","","","","","NA"
"-119.40","49.94","KELOWNA UBCO","1123996","2019-10-03 06:00","2019","10","03","06:00","7.7","","3.4","","74","","","M","","","","","","","96.22","","","","","","NA"
"-119.40","49.94","KELOWNA UBCO","1123996","2019-10-03 07:00","2019","10","03","07:00","7.9","","3.3","","73","","","M","","","","","","","96.24","","","","","","NA"
"-119.40","49.94","KELOWNA UBCO","1123996","2019-10-03 08:00","2019","10","03","08:00","9.0","","3.0","","66","","","M","","","","","","","96.25","","","","","","NA"
"-119.40","49.94","KELOWNA UBCO","1123996","2019-10-03 09:00","2019","10","03","09:00","9.7","","2.5","","60","","","M","","","","","","","96.26","","","","","","NA"
"-119.40","49.94","KELOWNA UBCO","1123996","2019-10-03 10:00","2019","10","03","10:00","10.8","","3.2","","59","","","M","","","","","","","96.24","","","","","","NA"
"-119.40","49.94","KELOWNA UBCO","1123996","2019-10-03 11:00","2019","10","03","11:00","11.6","","0.8","","47","","","M","","","","","","","96.19","","","","","","NA"
"-119.40","49.94","KELOWNA UBCO","1123996","2019-10-03 12:00","2019","10","03","12:00","12.9","","0.8","","44","","","M","","","","","","","96.12","","","","","","NA"
"-119.40","49.94","KELOWNA UBCO","1123996","2019-10-03 13:00","2019","10","03","13:00","13.9","","1.4","","43","","","M","","","","","","","96.06","","","","","","NA"
"-119.40","49.94","KELOWNA UBCO","1123996","2019-10-03 14:00","2019","10","03","14:00","14.1","","2.6","","46","","","M","","","","","","","96.02","","","","","","NA"
"-119.40","49.94","KELOWNA UBCO","1123996","2019-10-03 15:00","2019","10","03","15:00","14.0","","3.7","","50","","","M","","","","","","","95.99","","","","","","NA"
"-119.40","49.94","KELOWNA UBCO","1123996","2019-10-03 16:00","2019","10","03","16:00","12.2","","3.6","","56","","","M","","","","","","","95.98","","","","","","NA"
"-119.40","49.94","KELOWNA UBCO","1123996","2019-10-03 17:00","2019","10","03","17:00","11.3","","4.0","","61","","","M","","","","","","","95.99","","","","","","NA"
"-119.40","49.94","KELOWNA UBCO","1123996","2019-10-03 18:00","2019","10","03","18:00","11.3","","3.6","","59","","","M","","","","","","","96.00","","","","","","NA"
"-119.40","49.94","KELOWNA UBCO","1123996","2019-10-03 19:00","2019","10","03","19:00","11.3","","3.9","","60","","","M","","","","","","","96.03","","","","","","NA"
"-119.40","49.94","KELOWNA UBCO","1123996","2019-10-03 20:00","2019","10","03","20:00","10.4","","4.3","","66","","","M","","","","","","","96.09","","","","","","NA"
"-119.40","49.94","KELOWNA UBCO","1123996","2019-10-03 21:00","2019","10","03","21:00","9.6","","4.7","","71","","","M","","","","","","","96.19","","","","","","NA"
"-119.40","49.94","KELOWNA UBCO","1123996","2019-10-03 22:00","2019","10","03","22:00","7.5","","5.6","","88","","","M","","","","","","","96.20","","","","","","NA"
"-119.40","49.94","KELOWNA UBCO","1123996","2019-10-03 23:00","2019","10","03","23:00","6.8","","5.2","","89","","","M","","","","","","","96.18","","","","","","NA"
"-119.40","49.94","KELOWNA UBCO","1123996","2019-10-04 00:00","2019","10","04","00:00","7.0","","5.3","","89","","","M","","","","","","","96.18","","","","","","NA"
"-119.40","49.94","KELOWNA UBCO","1123996","2019-10-04 01:00","2019","10","04","01:00","5.9","","4.4","","90","","","M","","","","","","","96.19","","","","","","NA"
"-119.40","49.94","KELOWNA UBCO","1123996","2019-10-04 02:00","2019","10","04","02:00","4.4","","3.2","","92","","","M","","","","","","","96.19","","","","","","NA"
"-119.40","49.94","KELOWNA UBCO","1123996","2019-10-04 03:00","2019","10","04","03:00","3.4","","2.3","","93","","","M","","","","","","","96.22","","","","","","NA"
"-119.40","49.94","KELOWNA UBCO","1123996","2019-10-04 04:00","2019","10","04","04:00","3.1","","2.1","","93","","","M","","","","","","","96.25","","","","","","NA"
"-119.40","49.94","KELOWNA UBCO","1123996","2019-10-04 05:00","2019","10","04","05:00","3.5","","2.4","","93","","","M","","","","","","","96.29","","","","","","NA"
"-119.40","49.94","KELOWNA UBCO","1123996","2019-10-04 06:00","2019","10","04","06:00","4.1","","3.1","","93","","","M","","","","","","","96.33","","","","","","NA"
"-119.40","49.94","KELOWNA UBCO","1123996","2019-10-04 07:00","2019","10","04","07:00","5.4","","4.3","","93","","","M","","","","","","","96.37","","","","","","NA"
"-119.40","49.94","KELOWNA UBCO","1123996","2019-10-04 08:00","2019","10","04","08:00","6.4","","5.1","","91","","","M","","","","","","","96.41","","","","","","NA"
"-119.40","49.94","KELOWNA UBCO","1123996","2019-10-04 09:00","2019","10","04","09:00","7.6","","4.3","","79","","","M","","","","","","","96.43","","","","","","NA"
"-119.40","49.94","KELOWNA UBCO","1123996","2019-10-04 10:00","2019","10","04","10:00","9.8","","4.8","","71","","","M","","","","","","","96.44","","","","","","NA"
"-119.40","49.94","KELOWNA UBCO","1123996","2019-10-04 11:00","2019","10","04","11:00","11.1","","4.8","","65","","","M","","","","","","","96.45","","","","","","NA"
"-119.40","49.94","KELOWNA UBCO","1123996","2019-10-04 12:00","2019","10","04","12:00","12.3","","3.8","","56","","","M","","","","","","","96.44","","","","","","NA"
"-119.40","49.94","KELOWNA UBCO","1123996","2019-10-04 13:00","2019","10","04","13:00","12.7","","4.1","","56","","","M","","","","","","","96.44","","","","","","NA"
"-119.40","49.94","KELOWNA UBCO","1123996","2019-10-04 14:00","2019","10","04","14:00","12.5","","2.4","","50","","","M","","","","","","","96.44","","","","","","NA"
"-119.40","49.94","KELOWNA UBCO","1123996","2019-10-04 15:00","2019","10","04","15:00","12.5","","3.9","","56","","","M","","","","","","","96.46","","","","","","NA"
"-119.40","49.94","KELOWNA UBCO","1123996","2019-10-04 16:00","2019","10","04","16:00","12.7","","4.3","","56","","","M","","","","","","","96.50","","","","","","NA"
"-119.40","49.94","KELOWNA UBCO","1123996","2019-10-04 17:00","2019","10","04","17:00","10.7","","5.6","","71","","","M","","","","","","","96.53","","","","","","NA"
"-119.40","49.94","KELOWNA UBCO","1123996","2019-10-04 18:00","2019","10","04","18:00","9.6","","5.2","","74","","","M","","","","","","","96.56","","","","","","NA"
"-119.40","49.94","KELOWNA UBCO","1123996","2019-10-04 19:00","2019","10","04","19:00","8.1","","5.2","","82","","","M","","","","","","","96.58","","","","","","NA"
"-119.40","49.94","KELOWNA UBCO","1123996","2019-10-04 20:00","2019","10","04","20:00","9.2","","5.6","","78","","","M","","","","","","","96.62","","","","","","NA"
"-119.40","49.94","KELOWNA UBCO","1123996","2019-10-04 21:00","2019","10","04","21:00","8.7","","4.9","","78","","","M","","","","","","","96.65","","","","","","NA"
"-119.40","49.94","KELOWNA UBCO","1123996","2019-10-04 22:00","2019","10","04","22:00","7.9","","5.0","","82","","","M","","","","","","","96.65","","","","","","NA"
"-119.40","49.94","KELOWNA UBCO","1123996","2019-10-04 23:00","2019","10","04","23:00","8.0","","4.9","","81","","","M","","","","","","","96.69","","","","","","NA"
"-119.40","49.94","KELOWNA UBCO","1123996","2019-10-05 00:00","2019","10","05","00:00","8.0","","4.8","","80","","","M","","","","","","","96.71","","","","","","NA"
"-119.40","49.94","KELOWNA UBCO","1123996","2019-10-05 01:00","2019","10","05","01:00","7.6","","4.4","","80","","","M","","","","","","","96.72","","","","","","NA"
"-119.40","49.94","KELOWNA UBCO","1123996","2019-10-05 02:00","2019","10","05","02:00","8.3","","4.6","","78","","","M","","","","","","","96.74","","","","","","NA"
"-119.40","49.94","KELOWNA UBCO","1123996","2019-10-05 03:00","2019","10","05","03:00","8.5","","4.1","","74","","","M","","","","","","","96.76","","","","","","NA"
"-119.40","49.94","KELOWNA UBCO","1123996","2019-10-05 04:00","2019","10","05","04:00","8.1","","5.0","","81","","","M","","","","","","","96.79","","","","","","NA"
"-119.40","49.94","KELOWNA UBCO","1123996","2019-10-05 05:00","2019","10","05","05:00","7.7","","4.9","","82","","","M","","","","","","","96.82","","","","","","NA"
"-119.40","49.94","KELOWNA UBCO","1123996","2019-10-05 06:00","2019","10","05","06:00","8.2","","4.7","","79","","","M","","","","","","","96.86","","","","","","NA"
"-119.40","49.94","KELOWNA UBCO","1123996","2019-10-05 07:00","2019","10","05","07:00","7.9","","5.2","","83","","","M","","","","","","","96.93","","","","","","NA"
"-119.40","49.94","KELOWNA UBCO","1123996","2019-10-05 08:00","2019","10","05","08:00","8.5","","5.7","","82","","","M","","","","","","","96.98","","","","","","NA"
"-119.40","49.94","KELOWNA UBCO","1123996","2019-10-05 09:00","2019","10","05","09:00","11.4","","4.2","","62","","","M","","","","","","","97.02","","","","","","NA"
"-119.40","49.94","KELOWNA UBCO","1123996","2019-10-05 10:00","2019","10","05","10:00","13.3","","3.1","","50","","","M","","","","","","","97.05","","","","","","NA"
"-119.40","49.94","KELOWNA UBCO","1123996","2019-10-05 11:00","2019","10","05","11:00","13.6","","0.9","","42","","","M","","","","","","","97.04","","","","","","NA"
"-119.40","49.94","KELOWNA UBCO","1123996","2019-10-05 12:00","2019","10","05","12:00","14.4","","2.2","","44","","","M","","","","","","","97.04","","","","","","NA"
"-119.40","49.94","KELOWNA UBCO","1123996","2019-10-05 13:00","2019","10","05","13:00","15.3","","0.5","","36","","","M","","","","","","","96.97","","","","","","NA"
"-119.40","49.94","KELOWNA UBCO","1123996","2019-10-05 14:00","2019","10","05","14:00","14.9","","-0.3","","35","","","M","","","","","","","96.97","","","","","","NA"
"-119.40","49.94","KELOWNA UBCO","1123996","2019-10-05 15:00","2019","10","05","15:00","15.5","","0.3","","35","","","M","","","","","","","96.98","","","","","","NA"
"-119.40","49.94","KELOWNA UBCO","1123996","2019-10-05 16:00","2019","10","05","16:00","15.4","","-0.2","","34","","","M","","","","","","","97.01","","","","","","NA"
"-119.40","49.94","KELOWNA UBCO","1123996","2019-10-05 17:00","2019","10","05","17:00","13.9","","3.5","","50","","","M","","","","","","","97.00","","","","","","NA"
"-119.40","49.94","KELOWNA UBCO","1123996","2019-10-05 18:00","2019","10","05","18:00","11.4","","4.1","","60","","","M","","","","","","","97.03","","","","","","NA"
"-119.40","49.94","KELOWNA UBCO","1123996","2019-10-05 19:00","2019","10","05","19:00","10.4","","3.5","","62","","","M","","","","","","","97.09","","","","","","NA"
"-119.40","49.94","KELOWNA UBCO","1123996","2019-10-05 20:00","2019","10","05","20:00","10.8","","0.9","","50","","","M","","","","","","","97.16","","","","","","NA"
"-119.40","49.94","KELOWNA UBCO","1123996","2019-10-05 21:00","2019","10","05","21:00","11.1","","0.9","","49","","","M","","","","","","","97.21","","","","","","NA"
"-119.40","49.94","KELOWNA UBCO","1123996","2019-10-05 22:00","2019","10","05","22:00","10.0","","0.9","","53","","","M","","","","","","","97.24","","","","","","NA"
"-119.40","49.94","KELOWNA UBCO","1123996","2019-10-05 23:00","2019","10","05","23:00","8.9","","0.3","","55","","","M","","","","","","","97.28","","","","","","NA"
"-119.40","49.94","KELOWNA UBCO","1123996","2019-10-06 00:00","2019","10","06","00:00","6.6","","1.0","","67","","","M","","","","","","","97.32","","","","","","NA"
"-119.40","49.94","KELOWNA UBCO","1123996","2019-10-06 01:00","2019","10","06","01:00","6.1","","0.8","","69","","","M","","","","","","","97.36","","","","","","NA"
"-119.40","49.94","KELOWNA UBCO","1123996","2019-10-06 02:00","2019","10","06","02:00","5.3","","0.3","","70","","","M","","","","","","","97.40","","","","","","NA"
"-119.40","49.94","KELOWNA UBCO","1123996","2019-10-06 03:00","2019","10","06","03:00","4.8","","0.1","","71","","","M","","","","","","","97.41","","","","","","NA"
"-119.40","49.94","KELOWNA UBCO","1123996","2019-10-06 04:00","2019","10","06","04:00","4.8","","-0.1","","70","","","M","","","","","","","97.39","","","","","","NA"
"-119.40","49.94","KELOWNA UBCO","1123996","2019-10-06 05:00","2019","10","06","05:00","4.3","","-0.3","","72","","","M","","","","","","","97.40","","","","","","NA"
"-119.40","49.94","KELOWNA UBCO","1123996","2019-10-06 06:00","2019","10","06","06:00","3.3","","-0.5","","76","","","M","","","","","","","97.41","","","","","","NA"
"-119.40","49.94","KELOWNA UBCO","1123996","2019-10-06 07:00","2019","10","06","07:00","3.7","","-0.8","","73","","","M","","","","","","","97.43","","","","","","NA"
"-119.40","49.94","KELOWNA UBCO","1123996","2019-10-06 08:00","2019","10","06","08:00","6.3","","-0.7","","61","","","M","","","","","","","97.44","","","","","","NA"
"-119.40","49.94","KELOWNA UBCO","1123996","2019-10-06 09:00","2019","10","06","09:00","8.2","","0.5","","58","","","M","","","","","","","97.40","","","","","","NA"
"-119.40","49.94","KELOWNA UBCO","1123996","2019-10-06 10:00","2019","10","06","10:00","9.3","","-0.2","","52","","","M","","","","","","","97.38","","","","","","NA"
"-119.40","49.94","KELOWNA UBCO","1123996","2019-10-06 11:00","2019","10","06","11:00","11.3","","-0.2","","45","","","M","","","","","","","97.31","","","","","","NA"
"-119.40","49.94","KELOWNA UBCO","1123996","2019-10-06 12:00","2019","10","06","12:00","12.6","","-0.3","","41","","","M","","","","","","","97.23","","","","","","NA"
"-119.40","49.94","KELOWNA UBCO","1123996","2019-10-06 13:00","2019","10","06","13:00","13.1","","0.5","","42","","","M","","","","","","","97.10","","","","","","NA"
"-119.40","49.94","KELOWNA UBCO","1123996","2019-10-06 14:00","2019","10","06","14:00","13.8","","0.6","","40","","","M","","","","","","","97.01","","","","","","NA"
"-119.40","49.94","KELOWNA UBCO","1123996","2019-10-06 15:00","2019","10","06","15:00","13.8","","-0.2","","38","","","M","","","","","","","96.92","","","","","","NA"
"-119.40","49.94","KELOWNA UBCO","1123996","2019-10-06 16:00","2019","10","06","16:00","13.8","","0.9","","41","","","M","","","","","","","96.82","","","","","","NA"
"-119.40","49.94","KELOWNA UBCO","1123996","2019-10-06 17:00","2019","10","06","17:00","13.7","","-0.1","","39","","","M","","","","","","","96.75","","","","","","NA"
"-119.40","49.94","KELOWNA UBCO","1123996","2019-10-06 18:00","2019","10","06","18:00","12.8","","1.4","","46","","","M","","","","","","","96.70","","","","","","NA"
"-119.40","49.94","KELOWNA UBCO","1123996","2019-10-06 19:00","2019","10","06","19:00","11.7","","1.6","","50","","","M","","","","","","","96.69","","","","","","NA"
"-119.40","49.94","KELOWNA UBCO","1123996","2019-10-06 20:00","2019","10","06","20:00","10.6","","1.7","","54","","","M","","","","","","","96.65","","","","","","NA"
"-119.40","49.94","KELOWNA UBCO","1123996","2019-10-06 21:00","2019","10","06","21:00","9.6","","2.4","","61","","","M","","","","","","","96.59","","","","","","NA"
"-119.40","49.94","KELOWNA UBCO","1123996","2019-10-06 22:00","2019","10","06","22:00","11.3","","1.7","","52","","","M","","","","","","","96.55","","","","","","NA"
"-119.40","49.94","KELOWNA UBCO","1123996","2019-10-06 23:00","2019","10","06","23:00","11.4","","2.3","","54","","","M","","","","","","","96.50","","","","","","NA"
"-119.40","49.94","KELOWNA UBCO","1123996","2019-10-07 00:00","2019","10","07","00:00","10.8","","2.7","","57","","","M","","","","","","","96.43","","","","","","NA"
"-119.40","49.94","KELOWNA UBCO","1123996","2019-10-07 01:00","2019","10","07","01:00","10.7","","2.7","","58","","","M","","","","","","","96.36","","","","","","NA"
"-119.40","49.94","KELOWNA UBCO","1123996","2019-10-07 02:00","2019","10","07","02:00","10.8","","4.3","","64","","","M","","","","","","","96.27","","","","","","NA"
"-119.40","49.94","KELOWNA UBCO","1123996","2019-10-07 03:00","2019","10","07","03:00","9.7","","4.3","","69","","","M","","","","","","","96.22","","","","","","NA"
"-119.40","49.94","KELOWNA UBCO","1123996","2019-10-07 04:00","2019","10","07","04:00","9.9","","4.2","","68","","","M","","","","","","","96.12","","","","","","NA"
"-119.40","49.94","KELOWNA UBCO","1123996","2019-10-07 05:00","2019","10","07","05:00","9.4","","4.7","","73","","","M","","","","","","","96.02","","","","","","NA"
"-119.40","49.94","KELOWNA UBCO","1123996","2019-10-07 06:00","2019","10","07","06:00","9.9","","4.8","","71","","","M","","","","","","","96.00","","","","","","NA"
"-119.40","49.94","KELOWNA UBCO","1123996","2019-10-07 07:00","2019","10","07","07:00","12.0","","2.6","","53","","","M","","","","","","","95.86","","","","","","NA"
"-119.40","49.94","KELOWNA UBCO","1123996","2019-10-07 08:00","2019","10","07","08:00","11.9","","3.2","","55","","","M","","","","","","","95.80","","","","","","NA"
"-119.40","49.94","KELOWNA UBCO","1123996","2019-10-07 09:00","2019","10","07","09:00","13.0","","3.0","","50","","","M","","","","","","","95.77","","","","","","NA"
"-119.40","49.94","KELOWNA UBCO","1123996","2019-10-07 10:00","2019","10","07","10:00","14.0","","3.2","","48","","","M","","","","","","","95.61","","","","","","NA"
"-119.40","49.94","KELOWNA UBCO","1123996","2019-10-07 11:00","2019","10","07","11:00","13.0","","3.5","","52","","","M","","","","","","","95.56","","","","","","NA"
"-119.40","49.94","KELOWNA UBCO","1123996","2019-10-07 12:00","2019","10","07","12:00","13.0","","5.1","","59","","","M","","","","","","","95.41","","","","","","NA"
"-119.40","49.94","KELOWNA UBCO","1123996","2019-10-07 13:00","2019","10","07","13:00","13.3","","4.7","","56","","","M","","","","","","","95.35","","","","","","NA"
"-119.40","49.94","KELOWNA UBCO","1123996","2019-10-07 14:00","2019","10","07","14:00","12.3","","6.2","","66","","","M","","","","","","","95.30","","","","","","NA"
"-119.40","49.94","KELOWNA UBCO","1123996","2019-10-07 15:00","2019","10","07","15:00","13.7","","5.6","","58","","","M","","","","","","","95.17","","","","","","NA"
"-119.40","49.94","KELOWNA UBCO","1123996","2019-10-07 16:00","2019","10","07","16:00","13.4","","6.3","","62","","","M","","","","","","","95.06","","","","","","NA"
"-119.40","49.94","KELOWNA UBCO","1123996","2019-10-07 17:00","2019","10","07","17:00","13.8","","6.5","","61","","","M","","","","","","","95.00","","","","","","NA"
"-119.40","49.94","KELOWNA UBCO","1123996","2019-10-07 18:00","2019","10","07","18:00","12.3","","6.5","","67","","","M","","","","","","","94.93","","","","","","NA"
"-119.40","49.94","KELOWNA UBCO","1123996","2019-10-07 19:00","2019","10","07","19:00","10.3","","6.0","","75","","","M","","","","","","","94.84","","","","","","NA"
"-119.40","49.94","KELOWNA UBCO","1123996","2019-10-07 20:00","2019","10","07","20:00","10.3","","6.0","","75","","","M","","","","","","","94.78","","","","","","NA"
"-119.40","49.94","KELOWNA UBCO","1123996","2019-10-07 21:00","2019","10","07","21:00","13.7","","4.0","","52","","","M","","","","","","","94.77","","","","","","NA"
"-119.40","49.94","KELOWNA UBCO","1123996","2019-10-07 22:00","2019","10","07","22:00","10.8","","0.6","","49","","","M","","","","","","","94.92","","","","","","NA"
"-119.40","49.94","KELOWNA UBCO","1123996","2019-10-07 23:00","2019","10","07","23:00","8.7","","1.1","","59","","","M","","","","","","","95.08","","","","","","NA"
"-119.40","49.94","KELOWNA UBCO","1123996","2019-10-08 00:00","2019","10","08","00:00","7.7","","2.4","","69","","","M","","","","","","","95.16","","","","","","NA"
"-119.40","49.94","KELOWNA UBCO","1123996","2019-10-08 01:00","2019","10","08","01:00","7.7","","1.7","","66","","","M","","","","","","","95.13","","","","","","NA"
"-119.40","49.94","KELOWNA UBCO","1123996","2019-10-08 02:00","2019","10","08","02:00","7.2","","2.3","","71","","","M","","","","","","","95.18","","","","","","NA"
"-119.40","49.94","KELOWNA UBCO","1123996","2019-10-08 03:00","2019","10","08","03:00","6.6","","2.7","","76","","","M","","","","","","","95.16","","","","","","NA"
"-119.40","49.94","KELOWNA UBCO","1123996","2019-10-08 04:00","2019","10","08","04:00","6.6","","3.3","","79","","","M","","","","","","","95.20","","","","","","NA"
"-119.40","49.94","KELOWNA UBCO","1123996","2019-10-08 05:00","2019","10","08","05:00","6.5","","1.5","","71","","","M","","","","","","","95.27","","","","","","NA"
"-119.40","49.94","KELOWNA UBCO","1123996","2019-10-08 06:00","2019","10","08","06:00","6.4","","0.7","","67","","","M","","","","","","","95.31","","","","","","NA"
"-119.40","49.94","KELOWNA UBCO","1123996","2019-10-08 07:00","2019","10","08","07:00","6.5","","0.2","","64","","","M","","","","","","","95.36","","","","","","NA"
"-119.40","49.94","KELOWNA UBCO","1123996","2019-10-08 08:00","2019","10","08","08:00","6.6","","0.0","","63","","","M","","","","","","","95.44","","","","","","NA"
"-119.40","49.94","KELOWNA UBCO","1123996","2019-10-08 09:00","2019","10","08","09:00","7.4","","0.0","","59","","","M","","","","","","","95.50","","","","","","NA"
"-119.40","49.94","KELOWNA UBCO","1123996","2019-10-08 10:00","2019","10","08","10:00","5.0","","1.0","","75","","","M","","","","","","","95.60","","","","","","NA"
"-119.40","49.94","KELOWNA UBCO","1123996","2019-10-08 11:00","2019","10","08","11:00","6.2","","0.6","","67","","","M","","","","","","","95.62","","","","","","NA"
"-119.40","49.94","KELOWNA UBCO","1123996","2019-10-08 12:00","2019","10","08","12:00","7.1","","-0.5","","58","","","M","","","","","","","95.66","","","","","","NA"
"-119.40","49.94","KELOWNA UBCO","1123996","2019-10-08 13:00","2019","10","08","13:00","8.0","","-2.9","","46","","","M","","","","","","","95.72","","","","","","NA"
"-119.40","49.94","KELOWNA UBCO","1123996","2019-10-08 14:00","2019","10","08","14:00","7.4","","-3.9","","45","","","M","","","","","","","95.84","","","","","","NA"
"-119.40","49.94","KELOWNA UBCO","1123996","2019-10-08 15:00","2019","10","08","15:00","6.7","","-4.4","","45","","","M","","","","","","","95.98","","","","","","NA"
"-119.40","49.94","KELOWNA UBCO","1123996","2019-10-08 16:00","2019","10","08","16:00","5.4","","-3.0","","55","","","M","","","","","","","96.08","","","","","","NA"
"-119.40","49.94","KELOWNA UBCO","1123996","2019-10-08 17:00","2019","10","08","17:00","5.7","","-5.5","","44","","","M","","","","","","","96.17","","","","","","NA"
"-119.40","49.94","KELOWNA UBCO","1123996","2019-10-08 18:00","2019","10","08","18:00","5.3","","-4.9","","47","","","M","","","","","","","96.27","","","","","","NA"
"-119.40","49.94","KELOWNA UBCO","1123996","2019-10-08 19:00","2019","10","08","19:00","5.1","","-5.7","","45","","","M","","","","","","","96.37","","","","","","NA"
"-119.40","49.94","KELOWNA UBCO","1123996","2019-10-08 20:00","2019","10","08","20:00","4.7","","-5.1","","49","","","M","","","","","","","96.45","","","","","","NA"
"-119.40","49.94","KELOWNA UBCO","1123996","2019-10-08 21:00","2019","10","08","21:00","4.6","","-5.6","","47","","","M","","","","","","","96.52","","","","","","NA"
"-119.40","49.94","KELOWNA UBCO","1123996","2019-10-08 22:00","2019","10","08","22:00","4.3","","-5.8","","48","","","M","","","","","","","96.59","","","","","","NA"
"-119.40","49.94","KELOWNA UBCO","1123996","2019-10-08 23:00","2019","10","08","23:00","4.3","","-6.3","","46","","","M","","","","","","","96.66","","","","","","NA"
"-119.40","49.94","KELOWNA UBCO","1123996","2019-10-09 00:00","2019","10","09","00:00","3.9","","-7.6","","43","","","M","","","","","","","96.73","","","","","","NA"
"-119.40","49.94","KELOWNA UBCO","1123996","2019-10-09 01:00","2019","10","09","01:00","3.3","","-8.1","","43","","","M","","","","","","","96.81","","","","","","NA"
"-119.40","49.94","KELOWNA UBCO","1123996","2019-10-09 02:00","2019","10","09","02:00","2.3","","-8.2","","46","","","M","","","","","","","96.90","","","","","","NA"
"-119.40","49.94","KELOWNA UBCO","1123996","2019-10-09 03:00","2019","10","09","03:00","1.6","","-8.1","","49","","","M","","","","","","","97.00","","","","","","NA"
"-119.40","49.94","KELOWNA UBCO","1123996","2019-10-09 04:00","2019","10","09","04:00","-0.1","","-7.4","","58","","","M","","","","","","","97.11","","","","","","NA"
"-119.40","49.94","KELOWNA UBCO","1123996","2019-10-09 05:00","2019","10","09","05:00","-0.9","","-6.6","","65","","","M","","","","","","","97.21","","","","","","NA"
"-119.40","49.94","KELOWNA UBCO","1123996","2019-10-09 06:00","2019","10","09","06:00","-1.5","","-7.3","","65","","","M","","","","","","","97.31","","","","","","NA"
"-119.40","49.94","KELOWNA UBCO","1123996","2019-10-09 07:00","2019","10","09","07:00","-1.4","","-7.1","","65","","","M","","","","","","","97.42","","","","","","NA"
"-119.40","49.94","KELOWNA UBCO","1123996","2019-10-09 08:00","2019","10","09","08:00","2.0","","-8.7","","45","","","M","","","","","","","97.51","","","","","","NA"
"-119.40","49.94","KELOWNA UBCO","1123996","2019-10-09 09:00","2019","10","09","09:00","2.4","","-10.0","","39","","","M","","","","","","","97.54","","","","","","NA"
"-119.40","49.94","KELOWNA UBCO","1123996","2019-10-09 10:00","2019","10","09","10:00","3.4","","-10.8","","34","","","M","","","","","","","97.55","","","","","","NA"
"-119.40","49.94","KELOWNA UBCO","1123996","2019-10-09 11:00","2019","10","09","11:00","4.5","","-10.3","","33","","","M","","","","","","","97.55","","","","","","NA"
"-119.40","49.94","KELOWNA UBCO","1123996","2019-10-09 12:00","2019","10","09","12:00","5.4","","-9.9","","32","","","M","","","","","","","97.53","","","","","","NA"
"-119.40","49.94","KELOWNA UBCO","1123996","2019-10-09 13:00","2019","10","09","13:00","5.6","","-10.5","","30","","","M","","","","","","","97.50","","","","","","NA"
"-119.40","49.94","KELOWNA UBCO","1123996","2019-10-09 14:00","2019","10","09","14:00","6.1","","-10.4","","30","","","M","","","","","","","97.50","","","","","","NA"
"-119.40","49.94","KELOWNA UBCO","1123996","2019-10-09 15:00","2019","10","09","15:00","6.6","","-10.2","","29","","","M","","","","","","","97.52","","","","","","NA"
"-119.40","49.94","KELOWNA UBCO","1123996","2019-10-09 16:00","2019","10","09","16:00","6.0","","-9.8","","31","","","M","","","","","","","97.54","","","","","","NA"
"-119.40","49.94","KELOWNA UBCO","1123996","2019-10-09 17:00","2019","10","09","17:00","5.3","","-9.5","","34","","","M","","","","","","","97.57","","","","","","NA"
"-119.40","49.94","KELOWNA UBCO","1123996","2019-10-09 18:00","2019","10","09","18:00","4.0","","-9.8","","36","","","M","","","","","","","97.63","","","","","","NA"
"-119.40","49.94","KELOWNA UBCO","1123996","2019-10-09 19:00","2019","10","09","19:00","2.5","","-7.2","","49","","","M","","","","","","","97.67","","","","","","NA"
"-119.40","49.94","KELOWNA UBCO","1123996","2019-10-09 20:00","2019","10","09","20:00","0.7","","-6.8","","57","","","M","","","","","","","97.71","","","","","","NA"
"-119.40","49.94","KELOWNA UBCO","1123996","2019-10-09 21:00","2019","10","09","21:00","-1.3","","-7.3","","63","","","M","","","","","","","97.75","","","","","","NA"
"-119.40","49.94","KELOWNA UBCO","1123996","2019-10-09 22:00","2019","10","09","22:00","-2.1","","-7.2","","68","","","M","","","","","","","97.76","","","","","","NA"
"-119.40","49.94","KELOWNA UBCO","1123996","2019-10-09 23:00","2019","10","09","23:00","-2.6","","-7.4","","70","","","M","","","","","","","97.77","","","","","","NA"
"-119.40","49.94","KELOWNA UBCO","1123996","2019-10-10 00:00","2019","10","10","00:00","-3.2","","-7.5","","72","","","M","","","","","","","97.79","","","","","","NA"
"-119.40","49.94","KELOWNA UBCO","1123996","2019-10-10 01:00","2019","10","10","01:00","-3.5","","-7.4","","75","","","M","","","","","","","97.80","","","","","","NA"
"-119.40","49.94","KELOWNA UBCO","1123996","2019-10-10 02:00","2019","10","10","02:00","-3.3","","-6.8","","76","","","M","","","","","","","97.83","","","","","","NA"
"-119.40","49.94","KELOWNA UBCO","1123996","2019-10-10 03:00","2019","10","10","03:00","-3.1","","-7.0","","75","","","M","","","","","","","97.84","","","","","","NA"
"-119.40","49.94","KELOWNA UBCO","1123996","2019-10-10 04:00","2019","10","10","04:00","-3.2","","-6.8","","76","","","M","","","","","","","97.87","","","","","","NA"
"-119.40","49.94","KELOWNA UBCO","1123996","2019-10-10 05:00","2019","10","10","05:00","-3.7","","-7.0","","78","","","M","","","","","","","97.88","","","","","","NA"
"-119.40","49.94","KELOWNA UBCO","1123996","2019-10-10 06:00","2019","10","10","06:00","-4.2","","-7.3","","79","","","M","","","","","","","97.90","","","","","","NA"
"-119.40","49.94","KELOWNA UBCO","1123996","2019-10-10 07:00","2019","10","10","07:00","-3.1","","-6.2","","80","","","M","","","","","","","97.93","","","","","","NA"
"-119.40","49.94","KELOWNA UBCO","1123996","2019-10-10 08:00","2019","10","10","08:00","-0.6","","-6.4","","64","","","M","","","","","","","97.93","","","","","","NA"
"-119.40","49.94","KELOWNA UBCO","1123996","2019-10-10 09:00","2019","10","10","09:00","2.0","","-5.8","","56","","","M","","","","","","","97.92","","","","","","NA"
"-119.40","49.94","KELOWNA UBCO","1123996","2019-10-10 10:00","2019","10","10","10:00","3.6","","-5.2","","53","","","M","","","","","","","97.89","","","","","","NA"
"-119.40","49.94","KELOWNA UBCO","1123996","2019-10-10 11:00","2019","10","10","11:00","5.3","","-5.8","","45","","","M","","","","","","","97.82","","","","","","NA"
"-119.40","49.94","KELOWNA UBCO","1123996","2019-10-10 12:00","2019","10","10","12:00","6.6","","-4.7","","44","","","M","","","","","","","97.75","","","","","","NA"
"-119.40","49.94","KELOWNA UBCO","1123996","2019-10-10 13:00","2019","10","10","13:00","7.5","","-5.9","","38","","","M","","","","","","","97.67","","","","","","NA"
"-119.40","49.94","KELOWNA UBCO","1123996","2019-10-10 14:00","2019","10","10","14:00","8.5","","-7.3","","32","","","M","","","","","","","97.62","","","","","","NA"
"-119.40","49.94","KELOWNA UBCO","1123996","2019-10-10 15:00","2019","10","10","15:00","8.6","","-6.2","","35","","","M","","","","","","","97.56","","","","","","NA"
"-119.40","49.94","KELOWNA UBCO","1123996","2019-10-10 16:00","2019","10","10","16:00","8.3","","-5.8","","36","","","M","","","","","","","97.54","","","","","","NA"
"-119.40","49.94","KELOWNA UBCO","1123996","2019-10-10 17:00","2019","10","10","17:00","6.0","","-4.8","","46","","","M","","","","","","","97.55","","","","","","NA"
"-119.40","49.94","KELOWNA UBCO","1123996","2019-10-10 18:00","2019","10","10","18:00","4.4","","-3.6","","56","","","M","","","","","","","97.56","","","","","","NA"
"-119.40","49.94","KELOWNA UBCO","1123996","2019-10-10 19:00","2019","10","10","19:00","2.0","","-4.0","","64","","","M","","","","","","","97.55","","","","","","NA"
"-119.40","49.94","KELOWNA UBCO","1123996","2019-10-10 20:00","2019","10","10","20:00","0.7","","-4.0","","71","","","M","","","","","","","97.57","","","","","","NA"
"-119.40","49.94","KELOWNA UBCO","1123996","2019-10-10 21:00","2019","10","10","21:00","-0.2","","-4.7","","72","","","M","","","","","","","97.58","","","","","","NA"
"-119.40","49.94","KELOWNA UBCO","1123996","2019-10-10 22:00","2019","10","10","22:00","-0.3","","-4.5","","73","","","M","","","","","","","97.57","","","","","","NA"
"-119.40","49.94","KELOWNA UBCO","1123996","2019-10-10 23:00","2019","10","10","23:00","-0.2","","-4.4","","73","","","M","","","","","","","97.56","","","","","","NA"
"-119.40","49.94","KELOWNA UBCO","1123996","2019-10-11 00:00","2019","10","11","00:00","-1.0","","-4.7","","76","","","M","","","","","","","97.58","","","","","","NA"
"-119.40","49.94","KELOWNA UBCO","1123996","2019-10-11 01:00","2019","10","11","01:00","-1.1","","-4.8","","76","","","M","","","","","","","97.57","","","","","","NA"
"-119.40","49.94","KELOWNA UBCO","1123996","2019-10-11 02:00","2019","10","11","02:00","-1.6","","-4.4","","81","","","M","","","","","","","97.55","","","","","","NA"
"-119.40","49.94","KELOWNA UBCO","1123996","2019-10-11 03:00","2019","10","11","03:00","-2.6","","-4.8","","85","","","M","","","","","","","97.55","","","","","","NA"
"-119.40","49.94","KELOWNA UBCO","1123996","2019-10-11 04:00","2019","10","11","04:00","-2.7","","-4.4","","88","","","M","","","","","","","97.57","","","","","","NA"
"-119.40","49.94","KELOWNA UBCO","1123996","2019-10-11 05:00","2019","10","11","05:00","-2.9","","-4.1","","91","","","M","","","","","","","97.55","","","","","","NA"
"-119.40","49.94","KELOWNA UBCO","1123996","2019-10-11 06:00","2019","10","11","06:00","-3.4","","-4.8","","90","","","M","","","","","","","97.54","","","","","","NA"
"-119.40","49.94","KELOWNA UBCO","1123996","2019-10-11 07:00","2019","10","11","07:00","-3.2","","-4.6","","90","","","M","","","","","","","97.52","","","","","","NA"
"-119.40","49.94","KELOWNA UBCO","1123996","2019-10-11 08:00","2019","10","11","08:00","1.2","","-3.8","","69","","","M","","","","","","","97.52","","","","","","NA"
"-119.40","49.94","KELOWNA UBCO","1123996","2019-10-11 09:00","2019","10","11","09:00","3.6","","-3.8","","58","","","M","","","","","","","97.47","","","","","","NA"
"-119.40","49.94","KELOWNA UBCO","1123996","2019-10-11 10:00","2019","10","11","10:00","5.3","","-3.4","","53","","","M","","","","","","","97.41","","","","","","NA"
"-119.40","49.94","KELOWNA UBCO","1123996","2019-10-11 11:00","2019","10","11","11:00","6.3","","-3.6","","49","","","M","","","","","","","97.35","","","","","","NA"
"-119.40","49.94","KELOWNA UBCO","1123996","2019-10-11 12:00","2019","10","11","12:00","8.1","","-4.5","","41","","","M","","","","","","","97.27","","","","","","NA"
"-119.40","49.94","KELOWNA UBCO","1123996","2019-10-11 13:00","2019","10","11","13:00","9.9","","-5.3","","34","","","M","","","","","","","97.17","","","","","","NA"
"-119.40","49.94","KELOWNA UBCO","1123996","2019-10-11 14:00","2019","10","11","14:00","9.9","","-6.6","","31","","","M","","","","","","","97.06","","","","","","NA"
"-119.40","49.94","KELOWNA UBCO","1123996","2019-10-11 15:00","2019","10","11","15:00","10.9","","-6.7","","28","","","M","","","","","","","96.97","","","","","","NA"
"-119.40","49.94","KELOWNA UBCO","1123996","2019-10-11 16:00","2019","10","11","16:00","10.4","","-7.0","","29","","","M","","","","","","","96.90","","","","","","NA"
"-119.40","49.94","KELOWNA UBCO","1123996","2019-10-11 17:00","2019","10","11","17:00","8.9","","-5.4","","36","","","M","","","","","","","96.85","","","","","","NA"
"-119.40","49.94","KELOWNA UBCO","1123996","2019-10-11 18:00","2019","10","11","18:00","5.0","","-3.6","","54","","","M","","","","","","","96.82","","","","","","NA"
"-119.40","49.94","KELOWNA UBCO","1123996","2019-10-11 19:00","2019","10","11","19:00","3.4","","-3.1","","62","","","M","","","","","","","96.82","","","","","","NA"
"-119.40","49.94","KELOWNA UBCO","1123996","2019-10-11 20:00","2019","10","11","20:00","2.0","","-3.6","","67","","","M","","","","","","","96.81","","","","","","NA"
"-119.40","49.94","KELOWNA UBCO","1123996","2019-10-11 21:00","2019","10","11","21:00","1.4","","-3.8","","68","","","M","","","","","","","96.80","","","","","","NA"
"-119.40","49.94","KELOWNA UBCO","1123996","2019-10-11 22:00","2019","10","11","22:00","0.2","","-3.9","","74","","","M","","","","","","","96.77","","","","","","NA"
"-119.40","49.94","KELOWNA UBCO","1123996","2019-10-11 23:00","2019","10","11","23:00","0.1","","-4.4","","72","","","M","","","","","","","96.77","","","","","","NA"
"-119.40","49.94","KELOWNA UBCO","1123996","2019-10-12 00:00","2019","10","12","00:00","-0.4","","-3.8","","77","","","M","","","","","","","96.75","","","","","","NA"
"-119.40","49.94","KELOWNA UBCO","1123996","2019-10-12 01:00","2019","10","12","01:00","0.1","","-3.7","","76","","","M","","","","","","","96.73","","","","","","NA"
"-119.40","49.94","KELOWNA UBCO","1123996","2019-10-12 02:00","2019","10","12","02:00","-0.5","","-3.7","","79","","","M","","","","","","","96.70","","","","","","NA"
"-119.40","49.94","KELOWNA UBCO","1123996","2019-10-12 03:00","2019","10","12","03:00","-0.8","","-3.5","","82","","","M","","","","","","","96.67","","","","","","NA"
"-119.40","49.94","KELOWNA UBCO","1123996","2019-10-12 04:00","2019","10","12","04:00","-1.4","","-3.4","","86","","","M","","","","","","","96.64","","","","","","NA"
"-119.40","49.94","KELOWNA UBCO","1123996","2019-10-12 05:00","2019","10","12","05:00","-0.9","","-2.6","","88","","","M","","","","","","","96.64","","","","","","NA"
"-119.40","49.94","KELOWNA UBCO","1123996","2019-10-12 06:00","2019","10","12","06:00","-1.0","","-2.4","","90","","","M","","","","","","","96.62","","","","","","NA"
"-119.40","49.94","KELOWNA UBCO","1123996","2019-10-12 07:00","2019","10","12","07:00","-0.3","","-1.9","","89","","","M","","","","","","","96.62","","","","","","NA"
"-119.40","49.94","KELOWNA UBCO","1123996","2019-10-12 08:00","2019","10","12","08:00","2.6","","-1.3","","76","","","M","","","","","","","96.63","","","","","","NA"
"-119.40","49.94","KELOWNA UBCO","1123996","2019-10-12 09:00","2019","10","12","09:00","6.1","","0.0","","65","","","M","","","","","","","96.60","","","","","","NA"
"-119.40","49.94","KELOWNA UBCO","1123996","2019-10-12 10:00","2019","10","12","10:00","6.5","","-2.6","","52","","","M","","","","","","","96.57","","","","","","NA"
"-119.40","49.94","KELOWNA UBCO","1123996","2019-10-12 11:00","2019","10","12","11:00","7.7","","-2.9","","47","","","M","","","","","","","96.53","","","","","","NA"
"-119.40","49.94","KELOWNA UBCO","1123996","2019-10-12 12:00","2019","10","12","12:00","8.9","","-2.9","","43","","","M","","","","","","","96.45","","","","","","NA"
"-119.40","49.94","KELOWNA UBCO","1123996","2019-10-12 13:00","2019","10","12","13:00","9.1","","-3.1","","42","","","M","","","","","","","96.39","","","","","","NA"
"-119.40","49.94","KELOWNA UBCO","1123996","2019-10-12 14:00","2019","10","12","14:00","9.5","","-3.8","","39","","","M","","","","","","","96.31","","","","","","NA"
"-119.40","49.94","KELOWNA UBCO","1123996","2019-10-12 15:00","2019","10","12","15:00","10.0","","-3.2","","39","","","M","","","","","","","96.25","","","","","","NA"
"-119.40","49.94","KELOWNA UBCO","1123996","2019-10-12 16:00","2019","10","12","16:00","10.0","","-4.0","","37","","","M","","","","","","","96.23","","","","","","NA"
"-119.40","49.94","KELOWNA UBCO","1123996","2019-10-12 17:00","2019","10","12","17:00","8.8","","-1.9","","47","","","M","","","","","","","96.21","","","","","","NA"
"-119.40","49.94","KELOWNA UBCO","1123996","2019-10-12 18:00","2019","10","12","18:00","8.3","","-2.4","","47","","","M","","","","","","","96.19","","","","","","NA"
"-119.40","49.94","KELOWNA UBCO","1123996","2019-10-12 19:00","2019","10","12","19:00","6.9","","-1.2","","56","","","M","","","","","","","96.17","","","","","","NA"
"-119.40","49.94","KELOWNA UBCO","1123996","2019-10-12 20:00","2019","10","12","20:00","5.8","","-0.8","","62","","","M","","","","","","","96.14","","","","","","NA"
"-119.40","49.94","KELOWNA UBCO","1123996","2019-10-12 21:00","2019","10","12","21:00","5.4","","-0.4","","66","","","M","","","","","","","96.12","","","","","","NA"
"-119.40","49.94","KELOWNA UBCO","1123996","2019-10-12 22:00","2019","10","12","22:00","5.9","","-0.1","","66","","","M","","","","","","","96.10","","","","","","NA"
"-119.40","49.94","KELOWNA UBCO","1123996","2019-10-12 23:00","2019","10","12","23:00","6.0","","-0.4","","63","","","M","","","","","","","96.10","","","","","","NA"
"-119.40","49.94","KELOWNA UBCO","1123996","2019-10-13 00:00","2019","10","13","00:00","5.9","","0.0","","66","","","M","","","","","","","96.08","","","","","","NA"
"-119.40","49.94","KELOWNA UBCO","1123996","2019-10-13 01:00","2019","10","13","01:00","5.9","","0.9","","70","","","M","","","","","","","96.11","","","","","","NA"
"-119.40","49.94","KELOWNA UBCO","1123996","2019-10-13 02:00","2019","10","13","02:00","4.7","","2.4","","85","","","M","","","","","","","96.12","","","","","","NA"
"-119.40","49.94","KELOWNA UBCO","1123996","2019-10-13 03:00","2019","10","13","03:00","4.9","","2.3","","84","","","M","","","","","","","96.04","","","","","","NA"
"-119.40","49.94","KELOWNA UBCO","1123996","2019-10-13 04:00","2019","10","13","04:00","4.4","","2.7","","89","","","M","","","","","","","96.01","","","","","","NA"
"-119.40","49.94","KELOWNA UBCO","1123996","2019-10-13 05:00","2019","10","13","05:00","4.7","","3.3","","90","","","M","","","","","","","96.03","","","","","","NA"
"-119.40","49.94","KELOWNA UBCO","1123996","2019-10-13 06:00","2019","10","13","06:00","4.9","","3.4","","90","","","M","","","","","","","96.02","","","","","","NA"
"-119.40","49.94","KELOWNA UBCO","1123996","2019-10-13 07:00","2019","10","13","07:00","4.8","","3.5","","91","","","M","","","","","","","96.00","","","","","","NA"
"-119.40","49.94","KELOWNA UBCO","1123996","2019-10-13 08:00","2019","10","13","08:00","5.2","","3.8","","90","","","M","","","","","","","96.01","","","","","","NA"
"-119.40","49.94","KELOWNA UBCO","1123996","2019-10-13 09:00","2019","10","13","09:00","5.6","","3.7","","88","","","M","","","","","","","96.00","","","","","","NA"
"-119.40","49.94","KELOWNA UBCO","1123996","2019-10-13 10:00","2019","10","13","10:00","5.9","","3.7","","86","","","M","","","","","","","96.00","","","","","","NA"
"-119.40","49.94","KELOWNA UBCO","1123996","2019-10-13 11:00","2019","10","13","11:00","6.5","","3.8","","83","","","M","","","","","","","95.96","","","","","","NA"
"-119.40","49.94","KELOWNA UBCO","1123996","2019-10-13 12:00","2019","10","13","12:00","7.0","","3.6","","79","","","M","","","","","","","95.91","","","","","","NA"
"-119.40","49.94","KELOWNA UBCO","1123996","2019-10-13 13:00","2019","10","13","13:00","7.5","","2.9","","73","","","M","","","","","","","95.89","","","","","","NA"
"-119.40","49.94","KELOWNA UBCO","1123996","2019-10-13 14:00","2019","10","13","14:00","7.8","","3.3","","73","","","M","","","","","","","95.88","","","","","","NA"
"-119.40","49.94","KELOWNA UBCO","1123996","2019-10-13 15:00","2019","10","13","15:00","7.8","","4.3","","78","","","M","","","","","","","95.91","","","","","","NA"
"-119.40","49.94","KELOWNA UBCO","1123996","2019-10-13 16:00","2019","10","13","16:00","7.3","","4.8","","84","","","M","","","","","","","95.93","","","","","","NA"
"-119.40","49.94","KELOWNA UBCO","1123996","2019-10-13 17:00","2019","10","13","17:00","6.9","","5.1","","88","","","M","","","","","","","95.98","","","","","","NA"
"-119.40","49.94","KELOWNA UBCO","1123996","2019-10-13 18:00","2019","10","13","18:00","6.5","","4.9","","89","","","M","","","","","","","95.98","","","","","","NA"
"-119.40","49.94","KELOWNA UBCO","1123996","2019-10-13 19:00","2019","10","13","19:00","6.2","","4.8","","91","","","M","","","","","","","96.02","","","","","","NA"
"-119.40","49.94","KELOWNA UBCO","1123996","2019-10-13 20:00","2019","10","13","20:00","6.2","","4.8","","91","","","M","","","","","","","96.04","","","","","","NA"
"-119.40","49.94","KELOWNA UBCO","1123996","2019-10-13 21:00","2019","10","13","21:00","6.4","","5.0","","91","","","M","","","","","","","96.07","","","","","","NA"
"-119.40","49.94","KELOWNA UBCO","1123996","2019-10-13 22:00","2019","10","13","22:00","5.6","","4.2","","91","","","M","","","","","","","96.08","","","","","","NA"
"-119.40","49.94","KELOWNA UBCO","1123996","2019-10-13 23:00","2019","10","13","23:00","5.5","","4.2","","92","","","M","","","","","","","96.11","","","","","","NA"
"-119.40","49.94","KELOWNA UBCO","1123996","2019-10-14 00:00","2019","10","14","00:00","5.3","","4.1","","92","","","M","","","","","","","96.15","","","","","","NA"
"-119.40","49.94","KELOWNA UBCO","1123996","2019-10-14 01:00","2019","10","14","01:00","5.3","","4.1","","92","","","M","","","","","","","96.20","","","","","","NA"
"-119.40","49.94","KELOWNA UBCO","1123996","2019-10-14 02:00","2019","10","14","02:00","5.1","","4.0","","92","","","M","","","","","","","96.24","","","","","","NA"
"-119.40","49.94","KELOWNA UBCO","1123996","2019-10-14 03:00","2019","10","14","03:00","4.8","","3.6","","92","","","M","","","","","","","96.28","","","","","","NA"
"-119.40","49.94","KELOWNA UBCO","1123996","2019-10-14 04:00","2019","10","14","04:00","4.7","","3.6","","92","","","M","","","","","","","96.31","","","","","","NA"
"-119.40","49.94","KELOWNA UBCO","1123996","2019-10-14 05:00","2019","10","14","05:00","5.9","","4.7","","92","","","M","","","","","","","96.38","","","","","","NA"
"-119.40","49.94","KELOWNA UBCO","1123996","2019-10-14 06:00","2019","10","14","06:00","5.6","","4.1","","90","","","M","","","","","","","96.44","","","","","","NA"
"-119.40","49.94","KELOWNA UBCO","1123996","2019-10-14 07:00","2019","10","14","07:00","6.0","","4.2","","89","","","M","","","","","","","96.49","","","","","","NA"
"-119.40","49.94","KELOWNA UBCO","1123996","2019-10-14 08:00","2019","10","14","08:00","6.7","","4.6","","87","","","M","","","","","","","96.50","","","","","","NA"
"-119.40","49.94","KELOWNA UBCO","1123996","2019-10-14 09:00","2019","10","14","09:00","7.2","","4.0","","80","","","M","","","","","","","96.56","","","","","","NA"
"-119.40","49.94","KELOWNA UBCO","1123996","2019-10-14 10:00","2019","10","14","10:00","7.8","","4.3","","78","","","M","","","","","","","96.59","","","","","","NA"
"-119.40","49.94","KELOWNA UBCO","1123996","2019-10-14 11:00","2019","10","14","11:00","8.8","","3.8","","71","","","M","","","","","","","96.58","","","","","","NA"
"-119.40","49.94","KELOWNA UBCO","1123996","2019-10-14 12:00","2019","10","14","12:00","11.2","","4.1","","62","","","M","","","","","","","96.56","","","","","","NA"
"-119.40","49.94","KELOWNA UBCO","1123996","2019-10-14 13:00","2019","10","14","13:00","11.6","","4.5","","61","","","M","","","","","","","96.56","","","","","","NA"
"-119.40","49.94","KELOWNA UBCO","1123996","2019-10-14 14:00","2019","10","14","14:00","11.5","","4.0","","60","","","M","","","","","","","96.55","","","","","","NA"
"-119.40","49.94","KELOWNA UBCO","1123996","2019-10-14 15:00","2019","10","14","15:00","11.3","","3.5","","59","","","M","","","","","","","96.53","","","","","","NA"
"-119.40","49.94","KELOWNA UBCO","1123996","2019-10-14 16:00","2019","10","14","16:00","10.8","","4.2","","63","","","M","","","","","","","96.54","","","","","","NA"
"-119.40","49.94","KELOWNA UBCO","1123996","2019-10-14 17:00","2019","10","14","17:00","9.4","","3.5","","67","","","M","","","","","","","96.54","","","","","","NA"
"-119.40","49.94","KELOWNA UBCO","1123996","2019-10-14 18:00","2019","10","14","18:00","8.8","","3.3","","69","","","M","","","","","","","96.58","","","","","","NA"
"-119.40","49.94","KELOWNA UBCO","1123996","2019-10-14 19:00","2019","10","14","19:00","7.6","","3.4","","75","","","M","","","","","","","96.61","","","","","","NA"
"-119.40","49.94","KELOWNA UBCO","1123996","2019-10-14 20:00","2019","10","14","20:00","7.2","","3.5","","77","","","M","","","","","","","96.64","","","","","","NA"
"-119.40","49.94","KELOWNA UBCO","1123996","2019-10-14 21:00","2019","10","14","21:00","5.9","","3.0","","81","","","M","","","","","","","96.64","","","","","","NA"
"-119.40","49.94","KELOWNA UBCO","1123996","2019-10-14 22:00","2019","10","14","22:00","5.2","","2.6","","83","","","M","","","","","","","96.65","","","","","","NA"
"-119.40","49.94","KELOWNA UBCO","1123996","2019-10-14 23:00","2019","10","14","23:00","4.4","","2.3","","87","","","M","","","","","","","96.63","","","","","","NA"
"-119.40","49.94","KELOWNA UBCO","1123996","2019-10-15 00:00","2019","10","15","00:00","4.1","","2.1","","87","","","M","","","","","","","96.62","","","","","","NA"
"-119.40","49.94","KELOWNA UBCO","1123996","2019-10-15 01:00","2019","10","15","01:00","3.6","","1.9","","89","","","M","","","","","","","96.62","","","","","","NA"
"-119.40","49.94","KELOWNA UBCO","1123996","2019-10-15 02:00","2019","10","15","02:00","2.9","","1.4","","90","","","M","","","","","","","96.62","","","","","","NA"
"-119.40","49.94","KELOWNA UBCO","1123996","2019-10-15 03:00","2019","10","15","03:00","3.0","","1.7","","91","","","M","","","","","","","96.58","","","","","","NA"
"-119.40","49.94","KELOWNA UBCO","1123996","2019-10-15 04:00","2019","10","15","04:00","2.8","","1.5","","91","","","M","","","","","","","96.48","","","","","","NA"
"-119.40","49.94","KELOWNA UBCO","1123996","2019-10-15 05:00","2019","10","15","05:00","2.7","","1.5","","92","","","M","","","","","","","96.50","","","","","","NA"
"-119.40","49.94","KELOWNA UBCO","1123996","2019-10-15 06:00","2019","10","15","06:00","2.4","","1.0","","91","","","M","","","","","","","96.49","","","","","","NA"
"-119.40","49.94","KELOWNA UBCO","1123996","2019-10-15 07:00","2019","10","15","07:00","3.1","","1.7","","91","","","M","","","","","","","96.43","","","","","","NA"
"-119.40","49.94","KELOWNA UBCO","1123996","2019-10-15 08:00","2019","10","15","08:00","4.5","","2.5","","87","","","M","","","","","","","96.41","","","","","","NA"
"-119.40","49.94","KELOWNA UBCO","1123996","2019-10-15 09:00","2019","10","15","09:00","6.1","","3.2","","82","","","M","","","","","","","96.40","","","","","","NA"
"-119.40","49.94","KELOWNA UBCO","1123996","2019-10-15 10:00","2019","10","15","10:00","7.3","","3.1","","75","","","M","","","","","","","96.33","","","","","","NA"
"-119.40","49.94","KELOWNA UBCO","1123996","2019-10-15 11:00","2019","10","15","11:00","8.0","","2.8","","70","","","M","","","","","","","96.27","","","","","","NA"
"-119.40","49.94","KELOWNA UBCO","1123996","2019-10-15 12:00","2019","10","15","12:00","8.5","","3.5","","71","","","M","","","","","","","96.23","","","","","","NA"
"-119.40","49.94","KELOWNA UBCO","1123996","2019-10-15 13:00","2019","10","15","13:00","9.0","","3.3","","68","","","M","","","","","","","96.16","","","","","","NA"
"-119.40","49.94","KELOWNA UBCO","1123996","2019-10-15 14:00","2019","10","15","14:00","8.9","","3.5","","69","","","M","","","","","","","96.13","","","","","","NA"
"-119.40","49.94","KELOWNA UBCO","1123996","2019-10-15 15:00","2019","10","15","15:00","9.4","","3.8","","68","","","M","","","","","","","96.09","","","","","","NA"
"-119.40","49.94","KELOWNA UBCO","1123996","2019-10-15 16:00","2019","10","15","16:00","9.7","","3.9","","67","","","M","","","","","","","96.11","","","","","","NA"
"-119.40","49.94","KELOWNA UBCO","1123996","2019-10-15 17:00","2019","10","15","17:00","9.2","","4.6","","73","","","M","","","","","","","96.14","","","","","","NA"
"-119.40","49.94","KELOWNA UBCO","1123996","2019-10-15 18:00","2019","10","15","18:00","8.5","","4.5","","76","","","M","","","","","","","96.09","","","","","","NA"
"-119.40","49.94","KELOWNA UBCO","1123996","2019-10-15 19:00","2019","10","15","19:00","7.6","","4.2","","79","","","M","","","","","","","96.12","","","","","","NA"
"-119.40","49.94","KELOWNA UBCO","1123996","2019-10-15 20:00","2019","10","15","20:00","7.2","","4.1","","80","","","M","","","","","","","96.10","","","","","","NA"
"-119.40","49.94","KELOWNA UBCO","1123996","2019-10-15 21:00","2019","10","15","21:00","6.8","","3.7","","81","","","M","","","","","","","96.07","","","","","","NA"
"-119.40","49.94","KELOWNA UBCO","1123996","2019-10-15 22:00","2019","10","15","22:00","6.6","","4.0","","84","","","M","","","","","","","96.08","","","","","","NA"
"-119.40","49.94","KELOWNA UBCO","1123996","2019-10-15 23:00","2019","10","15","23:00","6.7","","4.0","","83","","","M","","","","","","","96.03","","","","","","NA"
"-119.40","49.94","KELOWNA UBCO","1123996","2019-10-16 00:00","2019","10","16","00:00","6.1","","3.6","","84","","","M","","","","","","","96.06","","","","","","NA"
"-119.40","49.94","KELOWNA UBCO","1123996","2019-10-16 01:00","2019","10","16","01:00","6.6","","3.8","","83","","","M","","","","","","","96.03","","","","","","NA"
"-119.40","49.94","KELOWNA UBCO","1123996","2019-10-16 02:00","2019","10","16","02:00","6.9","","4.7","","86","","","M","","","","","","","95.96","","","","","","NA"
"-119.40","49.94","KELOWNA UBCO","1123996","2019-10-16 03:00","2019","10","16","03:00","6.7","","4.9","","88","","","M","","","","","","","95.91","","","","","","NA"
"-119.40","49.94","KELOWNA UBCO","1123996","2019-10-16 04:00","2019","10","16","04:00","6.3","","4.5","","88","","","M","","","","","","","95.82","","","","","","NA"
"-119.40","49.94","KELOWNA UBCO","1123996","2019-10-16 05:00","2019","10","16","05:00","5.8","","4.1","","89","","","M","","","","","","","95.83","","","","","","NA"
"-119.40","49.94","KELOWNA UBCO","1123996","2019-10-16 06:00","2019","10","16","06:00","6.2","","4.3","","88","","","M","","","","","","","95.82","","","","","","NA"
"-119.40","49.94","KELOWNA UBCO","1123996","2019-10-16 07:00","2019","10","16","07:00","6.5","","4.5","","87","","","M","","","","","","","95.76","","","","","","NA"
"-119.40","49.94","KELOWNA UBCO","1123996","2019-10-16 08:00","2019","10","16","08:00","7.5","","4.8","","83","","","M","","","","","","","95.66","","","","","","NA"
"-119.40","49.94","KELOWNA UBCO","1123996","2019-10-16 09:00","2019","10","16","09:00","8.8","","3.5","","70","","","M","","","","","","","95.67","","","","","","NA"
"-119.40","49.94","KELOWNA UBCO","1123996","2019-10-16 10:00","2019","10","16","10:00","10.6","","3.0","","59","","","M","","","","","","","95.59","","","","","","NA"
"-119.40","49.94","KELOWNA UBCO","1123996","2019-10-16 11:00","2019","10","16","11:00","11.9","","3.2","","55","","","M","","","","","","","95.51","","","","","","NA"
"-119.40","49.94","KELOWNA UBCO","1123996","2019-10-16 12:00","2019","10","16","12:00","12.0","","3.5","","56","","","M","","","","","","","95.43","","","","","","NA"
"-119.40","49.94","KELOWNA UBCO","1123996","2019-10-16 13:00","2019","10","16","13:00","11.9","","3.8","","57","","","M","","","","","","","95.32","","","","","","NA"
"-119.40","49.94","KELOWNA UBCO","1123996","2019-10-16 14:00","2019","10","16","14:00","12.4","","2.7","","52","","","M","","","","","","","95.20","","","","","","NA"
"-119.40","49.94","KELOWNA UBCO","1123996","2019-10-16 15:00","2019","10","16","15:00","12.3","","3.5","","55","","","M","","","","","","","95.12","","","","","","NA"
"-119.40","49.94","KELOWNA UBCO","1123996","2019-10-16 16:00","2019","10","16","16:00","12.4","","3.3","","54","","","M","","","","","","","95.02","","","","","","NA"
"-119.40","49.94","KELOWNA UBCO","1123996","2019-10-16 17:00","2019","10","16","17:00","12.1","","3.4","","55","","","M","","","","","","","94.92","","","","","","NA"
"-119.40","49.94","KELOWNA UBCO","1123996","2019-10-16 18:00","2019","10","16","18:00","12.4","","3.5","","54","","","M","","","","","","","94.86","","","","","","NA"
"-119.40","49.94","KELOWNA UBCO","1123996","2019-10-16 19:00","2019","10","16","19:00","12.8","","3.4","","53","","","M","","","","","","","94.80","","","","","","NA"
"-119.40","49.94","KELOWNA UBCO","1123996","2019-10-16 20:00","2019","10","16","20:00","13.8","","2.8","","47","","","M","","","","","","","94.79","","","","","","NA"
"-119.40","49.94","KELOWNA UBCO","1123996","2019-10-16 21:00","2019","10","16","21:00","13.3","","3.8","","53","","","M","","","","","","","94.81","","","","","","NA"
"-119.40","49.94","KELOWNA UBCO","1123996","2019-10-16 22:00","2019","10","16","22:00","11.2","","5.5","","68","","","M","","","","","","","94.72","","","","","","NA"
"-119.40","49.94","KELOWNA UBCO","1123996","2019-10-16 23:00","2019","10","16","23:00","12.2","","4.6","","60","","","M","","","","","","","94.68","","","","","","NA"
"-119.40","49.94","KELOWNA UBCO","1123996","2019-10-17 00:00","2019","10","17","00:00","11.1","","5.3","","68","","","M","","","","","","","94.75","","","","","","NA"
"-119.40","49.94","KELOWNA UBCO","1123996","2019-10-17 01:00","2019","10","17","01:00","11.4","","5.3","","66","","","M","","","","","","","94.79","","","","","","NA"
"-119.40","49.94","KELOWNA UBCO","1123996","2019-10-17 02:00","2019","10","17","02:00","8.9","","5.7","","81","","","M","","","","","","","94.84","","","","","","NA"
"-119.40","49.94","KELOWNA UBCO","1123996","2019-10-17 03:00","2019","10","17","03:00","9.0","","5.2","","77","","","M","","","","","","","94.78","","","","","","NA"
"-119.40","49.94","KELOWNA UBCO","1123996","2019-10-17 04:00","2019","10","17","04:00","7.9","","4.9","","81","","","M","","","","","","","94.85","","","","","","NA"
"-119.40","49.94","KELOWNA UBCO","1123996","2019-10-17 05:00","2019","10","17","05:00","5.4","","3.4","","87","","","M","","","","","","","94.88","","","","","","NA"
"-119.40","49.94","KELOWNA UBCO","1123996","2019-10-17 06:00","2019","10","17","06:00","5.6","","3.7","","87","","","M","","","","","","","94.86","","","","","","NA"
"-119.40","49.94","KELOWNA UBCO","1123996","2019-10-17 07:00","2019","10","17","07:00","4.6","","2.9","","89","","","M","","","","","","","94.88","","","","","","NA"
"-119.40","49.94","KELOWNA UBCO","1123996","2019-10-17 08:00","2019","10","17","08:00","8.4","","3.3","","70","","","M","","","","","","","94.89","","","","","","NA"
"-119.40","49.94","KELOWNA UBCO","1123996","2019-10-17 09:00","2019","10","17","09:00","9.9","","3.1","","62","","","M","","","","","","","94.90","","","","","","NA"
"-119.40","49.94","KELOWNA UBCO","1123996","2019-10-17 10:00","2019","10","17","10:00","11.6","","4.0","","59","","","M","","","","","","","94.86","","","","","","NA"
"-119.40","49.94","KELOWNA UBCO","1123996","2019-10-17 11:00","2019","10","17","11:00","11.3","","5.0","","65","","","M","","","","","","","94.85","","","","","","NA"
"-119.40","49.94","KELOWNA UBCO","1123996","2019-10-17 12:00","2019","10","17","12:00","11.8","","4.8","","62","","","M","","","","","","","94.81","","","","","","NA"
"-119.40","49.94","KELOWNA UBCO","1123996","2019-10-17 13:00","2019","10","17","13:00","11.5","","4.8","","64","","","M","","","","","","","94.78","","","","","","NA"
"-119.40","49.94","KELOWNA UBCO","1123996","2019-10-17 14:00","2019","10","17","14:00","11.9","","4.4","","60","","","M","","","","","","","94.78","","","","","","NA"
"-119.40","49.94","KELOWNA UBCO","1123996","2019-10-17 15:00","2019","10","17","15:00","12.1","","4.4","","59","","","M","","","","","","","94.76","","","","","","NA"
"-119.40","49.94","KELOWNA UBCO","1123996","2019-10-17 16:00","2019","10","17","16:00","12.8","","2.8","","51","","","M","","","","","","","94.74","","","","","","NA"
"-119.40","49.94","KELOWNA UBCO","1123996","2019-10-17 17:00","2019","10","17","17:00","11.8","","3.6","","58","","","M","","","","","","","94.74","","","","","","NA"
"-119.40","49.94","KELOWNA UBCO","1123996","2019-10-17 18:00","2019","10","17","18:00","10.7","","3.7","","62","","","M","","","","","","","94.71","","","","","","NA"
"-119.40","49.94","KELOWNA UBCO","1123996","2019-10-17 19:00","2019","10","17","19:00","10.9","","3.2","","59","","","M","","","","","","","94.72","","","","","","NA"
"-119.40","49.94","KELOWNA UBCO","1123996","2019-10-17 20:00","2019","10","17","20:00","10.5","","3.2","","61","","","M","","","","","","","94.69","","","","","","NA"
"-119.40","49.94","KELOWNA UBCO","1123996","2019-10-17 21:00","2019","10","17","21:00","10.2","","5.0","","70","","","M","","","","","","","94.70","","","","","","NA"
"-119.40","49.94","KELOWNA UBCO","1123996","2019-10-17 22:00","2019","10","17","22:00","8.5","","5.4","","81","","","M","","","","","","","94.72","","","","","","NA"
"-119.40","49.94","KELOWNA UBCO","1123996","2019-10-17 23:00","2019","10","17","23:00","8.1","","6.1","","87","","","M","","","","","","","94.77","","","","","","NA"
"-119.40","49.94","KELOWNA UBCO","1123996","2019-10-18 00:00","2019","10","18","00:00","8.2","","5.0","","81","","","M","","","","","","","94.84","","","","","","NA"
"-119.40","49.94","KELOWNA UBCO","1123996","2019-10-18 01:00","2019","10","18","01:00","7.3","","4.5","","82","","","M","","","","","","","94.85","","","","","","NA"
"-119.40","49.94","KELOWNA UBCO","1123996","2019-10-18 02:00","2019","10","18","02:00","7.6","","3.6","","76","","","M","","","","","","","94.91","","","","","","NA"
"-119.40","49.94","KELOWNA UBCO","1123996","2019-10-18 03:00","2019","10","18","03:00","6.9","","2.8","","75","","","M","","","","","","","94.95","","","","","","NA"
"-119.40","49.94","KELOWNA UBCO","1123996","2019-10-18 04:00","2019","10","18","04:00","5.5","","2.3","","80","","","M","","","","","","","95.01","","","","","","NA"
"-119.40","49.94","KELOWNA UBCO","1123996","2019-10-18 05:00","2019","10","18","05:00","8.0","","0.9","","61","","","M","","","","","","","95.10","","","","","","NA"
"-119.40","49.94","KELOWNA UBCO","1123996","2019-10-18 06:00","2019","10","18","06:00","7.5","","1.6","","66","","","M","","","","","","","95.20","","","","","","NA"
"-119.40","49.94","KELOWNA UBCO","1123996","2019-10-18 07:00","2019","10","18","07:00","7.0","","1.4","","68","","","M","","","","","","","95.29","","","","","","NA"
"-119.40","49.94","KELOWNA UBCO","1123996","2019-10-18 08:00","2019","10","18","08:00","7.7","","2.0","","67","","","M","","","","","","","95.36","","","","","","NA"
"-119.40","49.94","KELOWNA UBCO","1123996","2019-10-18 09:00","2019","10","18","09:00","10.6","","0.3","","49","","","M","","","","","","","95.40","","","","","","NA"
"-119.40","49.94","KELOWNA UBCO","1123996","2019-10-18 10:00","2019","10","18","10:00","10.4","","-0.1","","48","","","M","","","","","","","95.41","","","","","","NA"
"-119.40","49.94","KELOWNA UBCO","1123996","2019-10-18 11:00","2019","10","18","11:00","12.0","","-1.4","","39","","","M","","","","","","","95.38","","","","","","NA"
"-119.40","49.94","KELOWNA UBCO","1123996","2019-10-18 12:00","2019","10","18","12:00","12.5","","-2.0","","36","","","M","","","","","","","95.36","","","","","","NA"
"-119.40","49.94","KELOWNA UBCO","1123996","2019-10-18 13:00","2019","10","18","13:00","12.6","","-2.7","","34","","","M","","","","","","","95.32","","","","","","NA"
"-119.40","49.94","KELOWNA UBCO","1123996","2019-10-18 14:00","2019","10","18","14:00","12.0","","0.4","","45","","","M","","","","","","","95.33","","","","","","NA"
"-119.40","49.94","KELOWNA UBCO","1123996","2019-10-18 15:00","2019","10","18","15:00","11.7","","-0.4","","43","","","M","","","","","","","95.31","","","","","","NA"
"-119.40","49.94","KELOWNA UBCO","1123996","2019-10-18 16:00","2019","10","18","16:00","11.3","","0.8","","48","","","M","","","","","","","95.32","","","","","","NA"
"-119.40","49.94","KELOWNA UBCO","1123996","2019-10-18 17:00","2019","10","18","17:00","11.3","","-0.8","","43","","","M","","","","","","","95.35","","","","","","NA"
"-119.40","49.94","KELOWNA UBCO","1123996","2019-10-18 18:00","2019","10","18","18:00","9.5","","1.7","","58","","","M","","","","","","","95.33","","","","","","NA"
"-119.40","49.94","KELOWNA UBCO","1123996","2019-10-18 19:00","2019","10","18","19:00","10.1","","0.1","","50","","","M","","","","","","","95.31","","","","","","NA"
"-119.40","49.94","KELOWNA UBCO","1123996","2019-10-18 20:00","2019","10","18","20:00","9.6","","0.9","","54","","","M","","","","","","","95.29","","","","","","NA"
"-119.40","49.94","KELOWNA UBCO","1123996","2019-10-18 21:00","2019","10","18","21:00","9.5","","0.9","","55","","","M","","","","","","","95.29","","","","","","NA"
"-119.40","49.94","KELOWNA UBCO","1123996","2019-10-18 22:00","2019","10","18","22:00","9.8","","0.4","","52","","","M","","","","","","","95.29","","","","","","NA"
"-119.40","49.94","KELOWNA UBCO","1123996","2019-10-18 23:00","2019","10","18","23:00","8.9","","1.6","","60","","","M","","","","","","","95.25","","","","","","NA"
"-119.40","49.94","KELOWNA UBCO","1123996","2019-10-19 00:00","2019","10","19","00:00","8.6","","1.0","","59","","","M","","","","","","","95.22","","","","","","NA"
"-119.40","49.94","KELOWNA UBCO","1123996","2019-10-19 01:00","2019","10","19","01:00","8.6","","1.1","","59","","","M","","","","","","","95.20","","","","","","NA"
"-119.40","49.94","KELOWNA UBCO","1123996","2019-10-19 02:00","2019","10","19","02:00","7.4","","1.7","","67","","","M","","","","","","","95.17","","","","","","NA"
"-119.40","49.94","KELOWNA UBCO","1123996","2019-10-19 03:00","2019","10","19","03:00","6.8","","1.6","","70","","","M","","","","","","","95.09","","","","","","NA"
"-119.40","49.94","KELOWNA UBCO","1123996","2019-10-19 04:00","2019","10","19","04:00","5.4","","1.0","","73","","","M","","","","","","","94.98","","","","","","NA"
"-119.40","49.94","KELOWNA UBCO","1123996","2019-10-19 05:00","2019","10","19","05:00","4.6","","1.3","","79","","","M","","","","","","","95.02","","","","","","NA"
"-119.40","49.94","KELOWNA UBCO","1123996","2019-10-19 06:00","2019","10","19","06:00","4.8","","1.4","","78","","","M","","","","","","","95.02","","","","","","NA"
"-119.40","49.94","KELOWNA UBCO","1123996","2019-10-19 07:00","2019","10","19","07:00","5.7","","2.0","","77","","","M","","","","","","","95.02","","","","","","NA"
"-119.40","49.94","KELOWNA UBCO","1123996","2019-10-19 08:00","2019","10","19","08:00","6.5","","2.5","","75","","","M","","","","","","","95.06","","","","","","NA"
"-119.40","49.94","KELOWNA UBCO","1123996","2019-10-19 09:00","2019","10","19","09:00","7.9","","2.7","","69","","","M","","","","","","","95.06","","","","","","NA"
"-119.40","49.94","KELOWNA UBCO","1123996","2019-10-19 10:00","2019","10","19","10:00","8.7","","2.7","","66","","","M","","","","","","","95.06","","","","","","NA"
"-119.40","49.94","KELOWNA UBCO","1123996","2019-10-19 11:00","2019","10","19","11:00","9.7","","2.2","","60","","","M","","","","","","","95.08","","","","","","NA"
"-119.40","49.94","KELOWNA UBCO","1123996","2019-10-19 12:00","2019","10","19","12:00","10.9","","2.9","","58","","","M","","","","","","","95.08","","","","","","NA"
"-119.40","49.94","KELOWNA UBCO","1123996","2019-10-19 13:00","2019","10","19","13:00","10.8","","0.6","","49","","","M","","","","","","","95.12","","","","","","NA"
"-119.40","49.94","KELOWNA UBCO","1123996","2019-10-19 14:00","2019","10","19","14:00","11.0","","2.9","","57","","","M","","","","","","","95.17","","","","","","NA"
"-119.40","49.94","KELOWNA UBCO","1123996","2019-10-19 15:00","2019","10","19","15:00","9.8","","0.2","","51","","","M","","","","","","","95.22","","","","","","NA"
"-119.40","49.94","KELOWNA UBCO","1123996","2019-10-19 16:00","2019","10","19","16:00","10.7","","0.2","","48","","","M","","","","","","","95.28","","","","","","NA"
"-119.40","49.94","KELOWNA UBCO","1123996","2019-10-19 17:00","2019","10","19","17:00","8.5","","0.6","","58","","","M","","","","","","","95.34","","","","","","NA"
"-119.40","49.94","KELOWNA UBCO","1123996","2019-10-19 18:00","2019","10","19","18:00","6.9","","1.5","","68","","","M","","","","","","","95.44","","","","","","NA"
"-119.40","49.94","KELOWNA UBCO","1123996","2019-10-19 19:00","2019","10","19","19:00","4.6","","1.2","","78","","","M","","","","","","","95.52","","","","","","NA"
"-119.40","49.94","KELOWNA UBCO","1123996","2019-10-19 20:00","2019","10","19","20:00","3.9","","0.9","","81","","","M","","","","","","","95.58","","","","","","NA"
"-119.40","49.94","KELOWNA UBCO","1123996","2019-10-19 21:00","2019","10","19","21:00","2.4","","0.1","","84","","","M","","","","","","","95.66","","","","","","NA"
"-119.40","49.94","KELOWNA UBCO","1123996","2019-10-19 22:00","2019","10","19","22:00","2.1","","-0.1","","86","","","M","","","","","","","95.77","","","","","","NA"
"-119.40","49.94","KELOWNA UBCO","1123996","2019-10-19 23:00","2019","10","19","23:00","2.3","","0.2","","86","","","M","","","","","","","95.82","","","","","","NA"
"-119.40","49.94","KELOWNA UBCO","1123996","2019-10-20 00:00","2019","10","20","00:00","2.8","","0.5","","85","","","M","","","","","","","95.87","","","","","","NA"
"-119.40","49.94","KELOWNA UBCO","1123996","2019-10-20 01:00","2019","10","20","01:00","3.7","","1.0","","83","","","M","","","","","","","95.93","","","","","","NA"
"-119.40","49.94","KELOWNA UBCO","1123996","2019-10-20 02:00","2019","10","20","02:00","4.0","","1.4","","84","","","M","","","","","","","95.95","","","","","","NA"
"-119.40","49.94","KELOWNA UBCO","1123996","2019-10-20 03:00","2019","10","20","03:00","4.9","","1.1","","76","","","M","","","","","","","95.97","","","","","","NA"
"-119.40","49.94","KELOWNA UBCO","1123996","2019-10-20 04:00","2019","10","20","04:00","4.9","","0.5","","73","","","M","","","","","","","95.99","","","","","","NA"
"-119.40","49.94","KELOWNA UBCO","1123996","2019-10-20 05:00","2019","10","20","05:00","4.9","","0.0","","71","","","M","","","","","","","96.02","","","","","","NA"
"-119.40","49.94","KELOWNA UBCO","1123996","2019-10-20 06:00","2019","10","20","06:00","4.4","","0.1","","74","","","M","","","","","","","96.04","","","","","","NA"
"-119.40","49.94","KELOWNA UBCO","1123996","2019-10-20 07:00","2019","10","20","07:00","4.8","","0.4","","73","","","M","","","","","","","96.05","","","","","","NA"
"-119.40","49.94","KELOWNA UBCO","1123996","2019-10-20 08:00","2019","10","20","08:00","5.6","","0.7","","71","","","M","","","","","","","96.08","","","","","","NA"
"-119.40","49.94","KELOWNA UBCO","1123996","2019-10-20 09:00","2019","10","20","09:00","6.2","","1.1","","70","","","M","","","","","","","96.08","","","","","","NA"
"-119.40","49.94","KELOWNA UBCO","1123996","2019-10-20 10:00","2019","10","20","10:00","8.0","","2.5","","68","","","M","","","","","","","96.05","","","","","","NA"
"-119.40","49.94","KELOWNA UBCO","1123996","2019-10-20 11:00","2019","10","20","11:00","9.1","","1.1","","57","","","M","","","","","","","96.00","","","","","","NA"
"-119.40","49.94","KELOWNA UBCO","1123996","2019-10-20 12:00","2019","10","20","12:00","8.9","","1.1","","58","","","M","","","","","","","96.00","","","","","","NA"
"-119.40","49.94","KELOWNA UBCO","1123996","2019-10-20 13:00","2019","10","20","13:00","6.8","","2.0","","72","","","M","","","","","","","96.00","","","","","","NA"
"-119.40","49.94","KELOWNA UBCO","1123996","2019-10-20 14:00","2019","10","20","14:00","6.1","","2.9","","80","","","M","","","","","","","95.96","","","","","","NA"
"-119.40","49.94","KELOWNA UBCO","1123996","2019-10-20 15:00","2019","10","20","15:00","5.6","","3.0","","84","","","M","","","","","","","95.88","","","","","","NA"
"-119.40","49.94","KELOWNA UBCO","1123996","2019-10-20 16:00","2019","10","20","16:00","5.3","","2.9","","84","","","M","","","","","","","95.90","","","","","","NA"
"-119.40","49.94","KELOWNA UBCO","1123996","2019-10-20 17:00","2019","10","20","17:00","5.0","","3.0","","87","","","M","","","","","","","95.85","","","","","","NA"
"-119.40","49.94","KELOWNA UBCO","1123996","2019-10-20 18:00","2019","10","20","18:00","4.6","","2.7","","87","","","M","","","","","","","95.88","","","","","","NA"
"-119.40","49.94","KELOWNA UBCO","1123996","2019-10-20 19:00","2019","10","20","19:00","4.3","","2.7","","89","","","M","","","","","","","95.88","","","","","","NA"
"-119.40","49.94","KELOWNA UBCO","1123996","2019-10-20 20:00","2019","10","20","20:00","4.1","","2.6","","90","","","M","","","","","","","95.90","","","","","","NA"
"-119.40","49.94","KELOWNA UBCO","1123996","2019-10-20 21:00","2019","10","20","21:00","4.5","","2.8","","89","","","M","","","","","","","95.98","","","","","","NA"
"-119.40","49.94","KELOWNA UBCO","1123996","2019-10-20 22:00","2019","10","20","22:00","4.5","","2.9","","89","","","M","","","","","","","96.04","","","","","","NA"
"-119.40","49.94","KELOWNA UBCO","1123996","2019-10-20 23:00","2019","10","20","23:00","4.3","","2.7","","89","","","M","","","","","","","96.10","","","","","","NA"
"-119.40","49.94","KELOWNA UBCO","1123996","2019-10-21 00:00","2019","10","21","00:00","4.4","","2.7","","89","","","M","","","","","","","96.18","","","","","","NA"
"-119.40","49.94","KELOWNA UBCO","1123996","2019-10-21 01:00","2019","10","21","01:00","4.9","","2.7","","86","","","M","","","","","","","96.27","","","","","","NA"
"-119.40","49.94","KELOWNA UBCO","1123996","2019-10-21 02:00","2019","10","21","02:00","4.0","","2.1","","87","","","M","","","","","","","96.30","","","","","","NA"
"-119.40","49.94","KELOWNA UBCO","1123996","2019-10-21 03:00","2019","10","21","03:00","2.5","","1.1","","91","","","M","","","","","","","96.32","","","","","","NA"
"-119.40","49.94","KELOWNA UBCO","1123996","2019-10-21 04:00","2019","10","21","04:00","1.7","","0.5","","91","","","M","","","","","","","96.36","","","","","","NA"
"-119.40","49.94","KELOWNA UBCO","1123996","2019-10-21 05:00","2019","10","21","05:00","2.4","","1.4","","93","","","M","","","","","","","96.42","","","","","","NA"
"-119.40","49.94","KELOWNA UBCO","1123996","2019-10-21 06:00","2019","10","21","06:00","3.0","","1.8","","92","","","M","","","","","","","96.44","","","","","","NA"
"-119.40","49.94","KELOWNA UBCO","1123996","2019-10-21 07:00","2019","10","21","07:00","4.4","","2.5","","87","","","M","","","","","","","96.49","","","","","","NA"
"-119.40","49.94","KELOWNA UBCO","1123996","2019-10-21 08:00","2019","10","21","08:00","5.5","","3.1","","85","","","M","","","","","","","96.56","","","","","","NA"
"-119.40","49.94","KELOWNA UBCO","1123996","2019-10-21 09:00","2019","10","21","09:00","5.8","","3.0","","82","","","M","","","","","","","96.64","","","","","","NA"
"-119.40","49.94","KELOWNA UBCO","1123996","2019-10-21 10:00","2019","10","21","10:00","6.1","","3.4","","83","","","M","","","","","","","96.69","","","","","","NA"
"-119.40","49.94","KELOWNA UBCO","1123996","2019-10-21 11:00","2019","10","21","11:00","6.1","","3.5","","84","","","M","","","","","","","96.70","","","","","","NA"
"-119.40","49.94","KELOWNA UBCO","1123996","2019-10-21 12:00","2019","10","21","12:00","6.6","","4.2","","85","","","M","","","","","","","96.68","","","","","","NA"
"-119.40","49.94","KELOWNA UBCO","1123996","2019-10-21 13:00","2019","10","21","13:00","6.6","","3.9","","83","","","M","","","","","","","96.66","","","","","","NA"
"-119.40","49.94","KELOWNA UBCO","1123996","2019-10-21 14:00","2019","10","21","14:00","6.6","","3.9","","83","","","M","","","","","","","96.64","","","","","","NA"
"-119.40","49.94","KELOWNA UBCO","1123996","2019-10-21 15:00","2019","10","21","15:00","6.3","","4.0","","85","","","M","","","","","","","96.62","","","","","","NA"
"-119.40","49.94","KELOWNA UBCO","1123996","2019-10-21 16:00","2019","10","21","16:00","6.3","","4.4","","88","","","M","","","","","","","96.62","","","","","","NA"
"-119.40","49.94","KELOWNA UBCO","1123996","2019-10-21 17:00","2019","10","21","17:00","6.5","","4.4","","87","","","M","","","","","","","96.61","","","","","","NA"
"-119.40","49.94","KELOWNA UBCO","1123996","2019-10-21 18:00","2019","10","21","18:00","6.4","","4.3","","86","","","M","","","","","","","96.57","","","","","","NA"
"-119.40","49.94","KELOWNA UBCO","1123996","2019-10-21 19:00","2019","10","21","19:00","6.3","","4.5","","88","","","M","","","","","","","96.56","","","","","","NA"
"-119.40","49.94","KELOWNA UBCO","1123996","2019-10-21 20:00","2019","10","21","20:00","6.1","","4.4","","89","","","M","","","","","","","96.51","","","","","","NA"
"-119.40","49.94","KELOWNA UBCO","1123996","2019-10-21 21:00","2019","10","21","21:00","6.3","","4.5","","88","","","M","","","","","","","96.45","","","","","","NA"
"-119.40","49.94","KELOWNA UBCO","1123996","2019-10-21 22:00","2019","10","21","22:00","6.3","","4.3","","87","","","M","","","","","","","96.39","","","","","","NA"
"-119.40","49.94","KELOWNA UBCO","1123996","2019-10-21 23:00","2019","10","21","23:00","6.2","","4.6","","89","","","M","","","","","","","96.38","","","","","","NA"
"-119.40","49.94","KELOWNA UBCO","1123996","2019-10-22 00:00","2019","10","22","00:00","6.8","","4.0","","82","","","M","","","","","","","96.37","","","","","","NA"
"-119.40","49.94","KELOWNA UBCO","1123996","2019-10-22 01:00","2019","10","22","01:00","6.5","","4.1","","85","","","M","","","","","","","96.30","","","","","","NA"
"-119.40","49.94","KELOWNA UBCO","1123996","2019-10-22 02:00","2019","10","22","02:00","8.1","","3.4","","72","","","M","","","","","","","96.17","","","","","","NA"
"-119.40","49.94","KELOWNA UBCO","1123996","2019-10-22 03:00","2019","10","22","03:00","7.6","","4.0","","78","","","M","","","","","","","96.27","","","","","","NA"
"-119.40","49.94","KELOWNA UBCO","1123996","2019-10-22 04:00","2019","10","22","04:00","8.2","","4.0","","75","","","M","","","","","","","96.22","","","","","","NA"
"-119.40","49.94","KELOWNA UBCO","1123996","2019-10-22 05:00","2019","10","22","05:00","7.2","","3.7","","78","","","M","","","","","","","96.22","","","","","","NA"
"-119.40","49.94","KELOWNA UBCO","1123996","2019-10-22 06:00","2019","10","22","06:00","7.4","","3.7","","78","","","M","","","","","","","96.19","","","","","","NA"
"-119.40","49.94","KELOWNA UBCO","1123996","2019-10-22 07:00","2019","10","22","07:00","7.2","","3.6","","78","","","M","","","","","","","96.26","","","","","","NA"
"-119.40","49.94","KELOWNA UBCO","1123996","2019-10-22 08:00","2019","10","22","08:00","10.2","","4.5","","68","","","M","","","","","","","96.35","","","","","","NA"
"-119.40","49.94","KELOWNA UBCO","1123996","2019-10-22 09:00","2019","10","22","09:00","13.5","","3.0","","49","","","M","","","","","","","96.37","","","","","","NA"
"-119.40","49.94","KELOWNA UBCO","1123996","2019-10-22 10:00","2019","10","22","10:00","14.6","","3.4","","47","","","M","","","","","","","96.41","","","","","","NA"
"-119.40","49.94","KELOWNA UBCO","1123996","2019-10-22 11:00","2019","10","22","11:00","16.8","","2.2","","37","","","M","","","","","","","96.43","","","","","","NA"
"-119.40","49.94","KELOWNA UBCO","1123996","2019-10-22 12:00","2019","10","22","12:00","15.8","","0.6","","35","","","M","","","","","","","96.44","","","","","","NA"
"-119.40","49.94","KELOWNA UBCO","1123996","2019-10-22 13:00","2019","10","22","13:00","17.4","","-0.9","","29","","","M","","","","","","","96.48","","","","","","NA"
"-119.40","49.94","KELOWNA UBCO","1123996","2019-10-22 14:00","2019","10","22","14:00","15.6","","-1.4","","31","","","M","","","","","","","96.55","","","","","","NA"
"-119.40","49.94","KELOWNA UBCO","1123996","2019-10-22 15:00","2019","10","22","15:00","15.4","","-1.7","","31","","","M","","","","","","","96.59","","","","","","NA"
"-119.40","49.94","KELOWNA UBCO","1123996","2019-10-22 16:00","2019","10","22","16:00","11.7","","1.8","","51","","","M","","","","","","","96.77","","","","","","NA"
"-119.40","49.94","KELOWNA UBCO","1123996","2019-10-22 17:00","2019","10","22","17:00","9.9","","2.1","","58","","","M","","","","","","","96.88","","","","","","NA"
"-119.40","49.94","KELOWNA UBCO","1123996","2019-10-22 18:00","2019","10","22","18:00","10.0","","2.2","","58","","","M","","","","","","","96.97","","","","","","NA"
"-119.40","49.94","KELOWNA UBCO","1123996","2019-10-22 19:00","2019","10","22","19:00","8.9","","2.1","","62","","","M","","","","","","","97.06","","","","","","NA"
"-119.40","49.94","KELOWNA UBCO","1123996","2019-10-22 20:00","2019","10","22","20:00","9.0","","1.9","","61","","","M","","","","","","","97.14","","","","","","NA"
"-119.40","49.94","KELOWNA UBCO","1123996","2019-10-22 21:00","2019","10","22","21:00","8.6","","1.4","","60","","","M","","","","","","","97.22","","","","","","NA"
"-119.40","49.94","KELOWNA UBCO","1123996","2019-10-22 22:00","2019","10","22","22:00","9.0","","1.7","","61","","","M","","","","","","","97.27","","","","","","NA"
"-119.40","49.94","KELOWNA UBCO","1123996","2019-10-22 23:00","2019","10","22","23:00","8.8","","1.9","","62","","","M","","","","","","","97.32","","","","","","NA"
"-119.40","49.94","KELOWNA UBCO","1123996","2019-10-23 00:00","2019","10","23","00:00","7.2","","2.1","","70","","","M","","","","","","","97.40","","","","","","NA"
"-119.40","49.94","KELOWNA UBCO","1123996","2019-10-23 01:00","2019","10","23","01:00","7.4","","2.4","","70","","","M","","","","","","","97.42","","","","","","NA"
"-119.40","49.94","KELOWNA UBCO","1123996","2019-10-23 02:00","2019","10","23","02:00","6.7","","1.8","","71","","","M","","","","","","","97.50","","","","","","NA"
"-119.40","49.94","KELOWNA UBCO","1123996","2019-10-23 03:00","2019","10","23","03:00","6.8","","2.0","","71","","","M","","","","","","","97.55","","","","","","NA"
"-119.40","49.94","KELOWNA UBCO","1123996","2019-10-23 04:00","2019","10","23","04:00","4.2","","0.4","","76","","","M","","","","","","","97.58","","","","","","NA"
"-119.40","49.94","KELOWNA UBCO","1123996","2019-10-23 05:00","2019","10","23","05:00","3.8","","1.1","","82","","","M","","","","","","","97.62","","","","","","NA"
"-119.40","49.94","KELOWNA UBCO","1123996","2019-10-23 06:00","2019","10","23","06:00","3.1","","0.7","","85","","","M","","","","","","","97.67","","","","","","NA"
"-119.40","49.94","KELOWNA UBCO","1123996","2019-10-23 07:00","2019","10","23","07:00","2.7","","0.5","","85","","","M","","","","","","","97.72","","","","","","NA"
"-119.40","49.94","KELOWNA UBCO","1123996","2019-10-23 08:00","2019","10","23","08:00","4.5","","0.4","","75","","","M","","","","","","","97.78","","","","","","NA"
"-119.40","49.94","KELOWNA UBCO","1123996","2019-10-23 09:00","2019","10","23","09:00","8.8","","-1.2","","50","","","M","","","","","","","97.82","","","","","","NA"
"-119.40","49.94","KELOWNA UBCO","1123996","2019-10-23 10:00","2019","10","23","10:00","9.9","","-2.8","","41","","","M","","","","","","","97.81","","","","","","NA"
"-119.40","49.94","KELOWNA UBCO","1123996","2019-10-23 11:00","2019","10","23","11:00","11.1","","-4.2","","34","","","M","","","","","","","97.80","","","","","","NA"
"-119.40","49.94","KELOWNA UBCO","1123996","2019-10-23 12:00","2019","10","23","12:00","11.9","","-5.2","","30","","","M","","","","","","","97.77","","","","","","NA"
"-119.40","49.94","KELOWNA UBCO","1123996","2019-10-23 13:00","2019","10","23","13:00","12.7","","-3.6","","32","","","M","","","","","","","97.76","","","","","","NA"
"-119.40","49.94","KELOWNA UBCO","1123996","2019-10-23 14:00","2019","10","23","14:00","12.7","","-4.4","","30","","","M","","","","","","","97.72","","","","","","NA"
"-119.40","49.94","KELOWNA UBCO","1123996","2019-10-23 15:00","2019","10","23","15:00","13.5","","-3.0","","32","","","M","","","","","","","97.74","","","","","","NA"
"-119.40","49.94","KELOWNA UBCO","1123996","2019-10-23 16:00","2019","10","23","16:00","11.6","","-2.0","","39","","","M","","","","","","","97.71","","","","","","NA"
"-119.40","49.94","KELOWNA UBCO","1123996","2019-10-23 17:00","2019","10","23","17:00","9.2","","-2.0","","45","","","M","","","","","","","97.66","","","","","","NA"
"-119.40","49.94","KELOWNA UBCO","1123996","2019-10-23 18:00","2019","10","23","18:00","7.9","","0.0","","57","","","M","","","","","","","97.65","","","","","","NA"
"-119.40","49.94","KELOWNA UBCO","1123996","2019-10-23 19:00","2019","10","23","19:00","6.7","","-1.0","","58","","","M","","","","","","","97.62","","","","","","NA"
"-119.40","49.94","KELOWNA UBCO","1123996","2019-10-23 20:00","2019","10","23","20:00","5.9","","-0.7","","63","","","M","","","","","","","97.57","","","","","","NA"
"-119.40","49.94","KELOWNA UBCO","1123996","2019-10-23 21:00","2019","10","23","21:00","5.4","","-0.1","","67","","","M","","","","","","","97.58","","","","","","NA"
"-119.40","49.94","KELOWNA UBCO","1123996","2019-10-23 22:00","2019","10","23","22:00","4.0","","-0.7","","71","","","M","","","","","","","97.54","","","","","","NA"
"-119.40","49.94","KELOWNA UBCO","1123996","2019-10-23 23:00","2019","10","23","23:00","4.6","","-0.2","","71","","","M","","","","","","","97.49","","","","","","NA"
"-119.40","49.94","KELOWNA UBCO","1123996","2019-10-24 00:00","2019","10","24","00:00","4.7","","0.6","","75","","","M","","","","","","","97.39","","","","","","NA"
"-119.40","49.94","KELOWNA UBCO","1123996","2019-10-24 01:00","2019","10","24","01:00","6.1","","-0.7","","62","","","M","","","","","","","97.43","","","","","","NA"
"-119.40","49.94","KELOWNA UBCO","1123996","2019-10-24 02:00","2019","10","24","02:00","5.6","","0.4","","69","","","M","","","","","","","97.37","","","","","","NA"
"-119.40","49.94","KELOWNA UBCO","1123996","2019-10-24 03:00","2019","10","24","03:00","5.5","","0.7","","71","","","M","","","","","","","97.36","","","","","","NA"
"-119.40","49.94","KELOWNA UBCO","1123996","2019-10-24 04:00","2019","10","24","04:00","5.6","","0.7","","71","","","M","","","","","","","97.34","","","","","","NA"
"-119.40","49.94","KELOWNA UBCO","1123996","2019-10-24 05:00","2019","10","24","05:00","5.9","","1.6","","74","","","M","","","","","","","97.31","","","","","","NA"
"-119.40","49.94","KELOWNA UBCO","1123996","2019-10-24 06:00","2019","10","24","06:00","5.5","","1.5","","76","","","M","","","","","","","97.29","","","","","","NA"
"-119.40","49.94","KELOWNA UBCO","1123996","2019-10-24 07:00","2019","10","24","07:00","5.5","","1.3","","74","","","M","","","","","","","97.31","","","","","","NA"
"-119.40","49.94","KELOWNA UBCO","1123996","2019-10-24 08:00","2019","10","24","08:00","7.3","","1.3","","66","","","M","","","","","","","97.33","","","","","","NA"
"-119.40","49.94","KELOWNA UBCO","1123996","2019-10-24 09:00","2019","10","24","09:00","7.6","","1.0","","63","","","M","","","","","","","97.28","","","","","","NA"
"-119.40","49.94","KELOWNA UBCO","1123996","2019-10-24 10:00","2019","10","24","10:00","8.9","","0.2","","55","","","M","","","","","","","97.26","","","","","","NA"
"-119.40","49.94","KELOWNA UBCO","1123996","2019-10-24 11:00","2019","10","24","11:00","10.4","","0.0","","48","","","M","","","","","","","97.21","","","","","","NA"
"-119.40","49.94","KELOWNA UBCO","1123996","2019-10-24 12:00","2019","10","24","12:00","11.7","","0.0","","44","","","M","","","","","","","97.07","","","","","","NA"
"-119.40","49.94","KELOWNA UBCO","1123996","2019-10-24 13:00","2019","10","24","13:00","13.0","","0.2","","42","","","M","","","","","","","97.01","","","","","","NA"
"-119.40","49.94","KELOWNA UBCO","1123996","2019-10-24 14:00","2019","10","24","14:00","13.9","","0.6","","40","","","M","","","","","","","96.93","","","","","","NA"
"-119.40","49.94","KELOWNA UBCO","1123996","2019-10-24 15:00","2019","10","24","15:00","13.7","","0.0","","39","","","M","","","","","","","96.88","","","","","","NA"
"-119.40","49.94","KELOWNA UBCO","1123996","2019-10-24 16:00","2019","10","24","16:00","13.0","","0.6","","43","","","M","","","","","","","96.86","","","","","","NA"
"-119.40","49.94","KELOWNA UBCO","1123996","2019-10-24 17:00","2019","10","24","17:00","12.0","","1.2","","48","","","M","","","","","","","96.87","","","","","","NA"
"-119.40","49.94","KELOWNA UBCO","1123996","2019-10-24 18:00","2019","10","24","18:00","11.9","","1.0","","47","","","M","","","","","","","96.85","","","","","","NA"
"-119.40","49.94","KELOWNA UBCO","1123996","2019-10-24 19:00","2019","10","24","19:00","11.6","","1.9","","51","","","M","","","","","","","96.83","","","","","","NA"
"-119.40","49.94","KELOWNA UBCO","1123996","2019-10-24 20:00","2019","10","24","20:00","10.1","","2.0","","57","","","M","","","","","","","96.82","","","","","","NA"
"-119.40","49.94","KELOWNA UBCO","1123996","2019-10-24 21:00","2019","10","24","21:00","11.0","","2.4","","56","","","M","","","","","","","96.79","","","","","","NA"
"-119.40","49.94","KELOWNA UBCO","1123996","2019-10-24 22:00","2019","10","24","22:00","11.3","","1.5","","51","","","M","","","","","","","96.72","","","","","","NA"
"-119.40","49.94","KELOWNA UBCO","1123996","2019-10-24 23:00","2019","10","24","23:00","10.9","","2.0","","54","","","M","","","","","","","96.70","","","","","","NA"
"-119.40","49.94","KELOWNA UBCO","1123996","2019-10-25 00:00","2019","10","25","00:00","9.8","","1.9","","58","","","M","","","","","","","96.66","","","","","","NA"
"-119.40","49.94","KELOWNA UBCO","1123996","2019-10-25 01:00","2019","10","25","01:00","9.7","","1.9","","58","","","M","","","","","","","96.52","","","","","","NA"
"-119.40","49.94","KELOWNA UBCO","1123996","2019-10-25 02:00","2019","10","25","02:00","10.3","","1.8","","55","","","M","","","","","","","96.39","","","","","","NA"
"-119.40","49.94","KELOWNA UBCO","1123996","2019-10-25 03:00","2019","10","25","03:00","10.8","","1.7","","54","","","M","","","","","","","96.28","","","","","","NA"
"-119.40","49.94","KELOWNA UBCO","1123996","2019-10-25 04:00","2019","10","25","04:00","10.3","","2.0","","57","","","M","","","","","","","96.20","","","","","","NA"
"-119.40","49.94","KELOWNA UBCO","1123996","2019-10-25 05:00","2019","10","25","05:00","10.1","","2.1","","58","","","M","","","","","","","96.08","","","","","","NA"
"-119.40","49.94","KELOWNA UBCO","1123996","2019-10-25 06:00","2019","10","25","06:00","9.7","","1.8","","58","","","M","","","","","","","95.84","","","","","","NA"
"-119.40","49.94","KELOWNA UBCO","1123996","2019-10-25 07:00","2019","10","25","07:00","10.7","","1.7","","54","","","M","","","","","","","95.78","","","","","","NA"
"-119.40","49.94","KELOWNA UBCO","1123996","2019-10-25 08:00","2019","10","25","08:00","11.1","","1.9","","53","","","M","","","","","","","95.73","","","","","","NA"
"-119.40","49.94","KELOWNA UBCO","1123996","2019-10-25 09:00","2019","10","25","09:00","11.6","","1.8","","51","","","M","","","","","","","95.66","","","","","","NA"
"-119.40","49.94","KELOWNA UBCO","1123996","2019-10-25 10:00","2019","10","25","10:00","12.0","","2.1","","51","","","M","","","","","","","95.59","","","","","","NA"
"-119.40","49.94","KELOWNA UBCO","1123996","2019-10-25 11:00","2019","10","25","11:00","12.4","","2.5","","51","","","M","","","","","","","95.60","","","","","","NA"
"-119.40","49.94","KELOWNA UBCO","1123996","2019-10-25 12:00","2019","10","25","12:00","7.5","","3.5","","75","","","M","","","","","","","96.08","","","","","","NA"
"-119.40","49.94","KELOWNA UBCO","1123996","2019-10-25 13:00","2019","10","25","13:00","7.0","","2.9","","75","","","M","","","","","","","96.32","","","","","","NA"
"-119.40","49.94","KELOWNA UBCO","1123996","2019-10-25 14:00","2019","10","25","14:00","7.2","","3.6","","78","","","M","","","","","","","96.30","","","","","","NA"
"-119.40","49.94","KELOWNA UBCO","1123996","2019-10-25 15:00","2019","10","25","15:00","7.7","","2.7","","70","","","M","","","","","","","96.28","","","","","","NA"
"-119.40","49.94","KELOWNA UBCO","1123996","2019-10-25 16:00","2019","10","25","16:00","7.6","","2.9","","72","","","M","","","","","","","96.31","","","","","","NA"
"-119.40","49.94","KELOWNA UBCO","1123996","2019-10-25 17:00","2019","10","25","17:00","6.5","","3.3","","80","","","M","","","","","","","96.35","","","","","","NA"
"-119.40","49.94","KELOWNA UBCO","1123996","2019-10-25 18:00","2019","10","25","18:00","5.9","","3.3","","84","","","M","","","","","","","96.39","","","","","","NA"
"-119.40","49.94","KELOWNA UBCO","1123996","2019-10-25 19:00","2019","10","25","19:00","5.9","","3.2","","83","","","M","","","","","","","96.43","","","","","","NA"
"-119.40","49.94","KELOWNA UBCO","1123996","2019-10-25 20:00","2019","10","25","20:00","5.9","","3.5","","84","","","M","","","","","","","96.46","","","","","","NA"
"-119.40","49.94","KELOWNA UBCO","1123996","2019-10-25 21:00","2019","10","25","21:00","4.8","","2.8","","87","","","M","","","","","","","96.54","","","","","","NA"
"-119.40","49.94","KELOWNA UBCO","1123996","2019-10-25 22:00","2019","10","25","22:00","5.5","","2.6","","82","","","M","","","","","","","96.63","","","","","","NA"
"-119.40","49.94","KELOWNA UBCO","1123996","2019-10-25 23:00","2019","10","25","23:00","5.5","","1.3","","74","","","M","","","","","","","96.69","","","","","","NA"
"-119.40","49.94","KELOWNA UBCO","1123996","2019-10-26 00:00","2019","10","26","00:00","5.1","","0.9","","75","","","M","","","","","","","96.75","","","","","","NA"
"-119.40","49.94","KELOWNA UBCO","1123996","2019-10-26 01:00","2019","10","26","01:00","3.8","","0.6","","80","","","M","","","","","","","96.81","","","","","","NA"
"-119.40","49.94","KELOWNA UBCO","1123996","2019-10-26 02:00","2019","10","26","02:00","3.7","","0.8","","81","","","M","","","","","","","96.87","","","","","","NA"
"-119.40","49.94","KELOWNA UBCO","1123996","2019-10-26 03:00","2019","10","26","03:00","4.6","","0.1","","72","","","M","","","","","","","96.91","","","","","","NA"
"-119.40","49.94","KELOWNA UBCO","1123996","2019-10-26 04:00","2019","10","26","04:00","4.2","","-1.1","","69","","","M","","","","","","","96.92","","","","","","NA"
"-119.40","49.94","KELOWNA UBCO","1123996","2019-10-26 05:00","2019","10","26","05:00","3.9","","-1.6","","67","","","M","","","","","","","96.97","","","","","","NA"
"-119.40","49.94","KELOWNA UBCO","1123996","2019-10-26 06:00","2019","10","26","06:00","3.7","","-0.6","","74","","","M","","","","","","","97.03","","","","","","NA"
"-119.40","49.94","KELOWNA UBCO","1123996","2019-10-26 07:00","2019","10","26","07:00","5.0","","-2.1","","60","","","M","","","","","","","97.12","","","","","","NA"
"-119.40","49.94","KELOWNA UBCO","1123996","2019-10-26 08:00","2019","10","26","08:00","4.9","","-0.7","","67","","","M","","","","","","","97.26","","","","","","NA"
"-119.40","49.94","KELOWNA UBCO","1123996","2019-10-26 09:00","2019","10","26","09:00","5.6","","-0.7","","64","","","M","","","","","","","97.30","","","","","","NA"
"-119.40","49.94","KELOWNA UBCO","1123996","2019-10-26 10:00","2019","10","26","10:00","6.2","","-1.4","","58","","","M","","","","","","","97.37","","","","","","NA"
"-119.40","49.94","KELOWNA UBCO","1123996","2019-10-26 11:00","2019","10","26","11:00","8.7","","-2.8","","44","","","M","","","","","","","97.39","","","","","","NA"
"-119.40","49.94","KELOWNA UBCO","1123996","2019-10-26 12:00","2019","10","26","12:00","9.7","","-2.1","","44","","","M","","","","","","","97.41","","","","","","NA"
"-119.40","49.94","KELOWNA UBCO","1123996","2019-10-26 13:00","2019","10","26","13:00","10.4","","-4.5","","35","","","M","","","","","","","97.41","","","","","","NA"
"-119.40","49.94","KELOWNA UBCO","1123996","2019-10-26 14:00","2019","10","26","14:00","10.4","","-5.5","","32","","","M","","","","","","","97.43","","","","","","NA"
"-119.40","49.94","KELOWNA UBCO","1123996","2019-10-26 15:00","2019","10","26","15:00","10.4","","-6.1","","31","","","M","","","","","","","97.47","","","","","","NA"
"-119.40","49.94","KELOWNA UBCO","1123996","2019-10-26 16:00","2019","10","26","16:00","9.8","","-7.2","","29","","","M","","","","","","","97.53","","","","","","NA"
"-119.40","49.94","KELOWNA UBCO","1123996","2019-10-26 17:00","2019","10","26","17:00","8.6","","-7.1","","32","","","M","","","","","","","97.59","","","","","","NA"
"-119.40","49.94","KELOWNA UBCO","1123996","2019-10-26 18:00","2019","10","26","18:00","7.8","","-8.2","","31","","","M","","","","","","","97.62","","","","","","NA"
"-119.40","49.94","KELOWNA UBCO","1123996","2019-10-26 19:00","2019","10","26","19:00","6.3","","-7.7","","36","","","M","","","","","","","97.66","","","","","","NA"
"-119.40","49.94","KELOWNA UBCO","1123996","2019-10-26 20:00","2019","10","26","20:00","4.9","","-6.1","","45","","","M","","","","","","","97.70","","","","","","NA"
"-119.40","49.94","KELOWNA UBCO","1123996","2019-10-26 21:00","2019","10","26","21:00","3.1","","-6.2","","51","","","M","","","","","","","97.75","","","","","","NA"
"-119.40","49.94","KELOWNA UBCO","1123996","2019-10-26 22:00","2019","10","26","22:00","2.2","","-5.7","","56","","","M","","","","","","","97.79","","","","","","NA"
"-119.40","49.94","KELOWNA UBCO","1123996","2019-10-26 23:00","2019","10","26","23:00","0.6","","-5.7","","63","","","M","","","","","","","97.80","","","","","","NA"
"-119.40","49.94","KELOWNA UBCO","1123996","2019-10-27 00:00","2019","10","27","00:00","0.6","","-4.9","","67","","","M","","","","","","","97.82","","","","","","NA"
"-119.40","49.94","KELOWNA UBCO","1123996","2019-10-27 01:00","2019","10","27","01:00","-0.2","","-5.7","","67","","","M","","","","","","","97.85","","","","","","NA"
"-119.40","49.94","KELOWNA UBCO","1123996","2019-10-27 02:00","2019","10","27","02:00","1.2","","-5.0","","63","","","M","","","","","","","97.86","","","","","","NA"
"-119.40","49.94","KELOWNA UBCO","1123996","2019-10-27 03:00","2019","10","27","03:00","-1.2","","-5.6","","72","","","M","","","","","","","97.86","","","","","","NA"
"-119.40","49.94","KELOWNA UBCO","1123996","2019-10-27 04:00","2019","10","27","04:00","-2.1","","-5.6","","77","","","M","","","","","","","97.88","","","","","","NA"
"-119.40","49.94","KELOWNA UBCO","1123996","2019-10-27 05:00","2019","10","27","05:00","-1.7","","-5.2","","77","","","M","","","","","","","97.89","","","","","","NA"
"-119.40","49.94","KELOWNA UBCO","1123996","2019-10-27 06:00","2019","10","27","06:00","-2.5","","-5.4","","80","","","M","","","","","","","97.85","","","","","","NA"
"-119.40","49.94","KELOWNA UBCO","1123996","2019-10-27 07:00","2019","10","27","07:00","-3.1","","-5.7","","82","","","M","","","","","","","97.90","","","","","","NA"
"-119.40","49.94","KELOWNA UBCO","1123996","2019-10-27 08:00","2019","10","27","08:00","0.4","","-3.8","","73","","","M","","","","","","","97.91","","","","","","NA"
"-119.40","49.94","KELOWNA UBCO","1123996","2019-10-27 09:00","2019","10","27","09:00","3.3","","-4.1","","59","","","M","","","","","","","97.90","","","","","","NA"
"-119.40","49.94","KELOWNA UBCO","1123996","2019-10-27 10:00","2019","10","27","10:00","5.0","","-6.3","","44","","","M","","","","","","","97.81","","","","","","NA"
"-119.40","49.94","KELOWNA UBCO","1123996","2019-10-27 11:00","2019","10","27","11:00","6.6","","-7.4","","36","","","M","","","","","","","97.75","","","","","","NA"
"-119.40","49.94","KELOWNA UBCO","1123996","2019-10-27 12:00","2019","10","27","12:00","7.2","","-7.4","","35","","","M","","","","","","","97.65","","","","","","NA"
"-119.40","49.94","KELOWNA UBCO","1123996","2019-10-27 13:00","2019","10","27","13:00","8.3","","-7.2","","32","","","M","","","","","","","97.54","","","","","","NA"
"-119.40","49.94","KELOWNA UBCO","1123996","2019-10-27 14:00","2019","10","27","14:00","8.2","","-8.1","","31","","","M","","","","","","","97.45","","","","","","NA"
"-119.40","49.94","KELOWNA UBCO","1123996","2019-10-27 15:00","2019","10","27","15:00","8.3","","-7.7","","31","","","M","","","","","","","97.37","","","","","","NA"
"-119.40","49.94","KELOWNA UBCO","1123996","2019-10-27 16:00","2019","10","27","16:00","7.4","","-6.9","","36","","","M","","","","","","","97.33","","","","","","NA"
"-119.40","49.94","KELOWNA UBCO","1123996","2019-10-27 17:00","2019","10","27","17:00","4.2","","-3.9","","56","","","M","","","","","","","97.26","","","","","","NA"
"-119.40","49.94","KELOWNA UBCO","1123996","2019-10-27 18:00","2019","10","27","18:00","3.4","","-4.1","","58","","","M","","","","","","","97.21","","","","","","NA"
"-119.40","49.94","KELOWNA UBCO","1123996","2019-10-27 19:00","2019","10","27","19:00","1.1","","-4.3","","68","","","M","","","","","","","97.14","","","","","","NA"
"-119.40","49.94","KELOWNA UBCO","1123996","2019-10-27 20:00","2019","10","27","20:00","1.1","","-4.7","","65","","","M","","","","","","","97.12","","","","","","NA"
"-119.40","49.94","KELOWNA UBCO","1123996","2019-10-27 21:00","2019","10","27","21:00","0.3","","-4.6","","69","","","M","","","","","","","97.07","","","","","","NA"
"-119.40","49.94","KELOWNA UBCO","1123996","2019-10-27 22:00","2019","10","27","22:00","1.1","","-4.6","","66","","","M","","","","","","","97.02","","","","","","NA"
"-119.40","49.94","KELOWNA UBCO","1123996","2019-10-27 23:00","2019","10","27","23:00","1.7","","-4.5","","63","","","M","","","","","","","96.92","","","","","","NA"
"-119.40","49.94","KELOWNA UBCO","1123996","2019-10-28 00:00","2019","10","28","00:00","1.6","","-4.3","","65","","","M","","","","","","","96.88","","","","","","NA"
"-119.40","49.94","KELOWNA UBCO","1123996","2019-10-28 01:00","2019","10","28","01:00","2.9","","-3.6","","62","","","M","","","","","","","96.81","","","","","","NA"
"-119.40","49.94","KELOWNA UBCO","1123996","2019-10-28 02:00","2019","10","28","02:00","2.0","","-3.7","","66","","","M","","","","","","","96.78","","","","","","NA"
"-119.40","49.94","KELOWNA UBCO","1123996","2019-10-28 03:00","2019","10","28","03:00","2.8","","-2.6","","68","","","M","","","","","","","96.71","","","","","","NA"
"-119.40","49.94","KELOWNA UBCO","1123996","2019-10-28 04:00","2019","10","28","04:00","2.5","","-2.3","","70","","","M","","","","","","","96.65","","","","","","NA"
"-119.40","49.94","KELOWNA UBCO","1123996","2019-10-28 05:00","2019","10","28","05:00","3.1","","-2.1","","69","","","M","","","","","","","96.66","","","","","","NA"
"-119.40","49.94","KELOWNA UBCO","1123996","2019-10-28 06:00","2019","10","28","06:00","2.0","","-2.1","","74","","","M","","","","","","","96.64","","","","","","NA"
"-119.40","49.94","KELOWNA UBCO","1123996","2019-10-28 07:00","2019","10","28","07:00","2.0","","-2.6","","72","","","M","","","","","","","96.62","","","","","","NA"
"-119.40","49.94","KELOWNA UBCO","1123996","2019-10-28 08:00","2019","10","28","08:00","3.2","","-1.8","","70","","","M","","","","","","","96.65","","","","","","NA"
"-119.40","49.94","KELOWNA UBCO","1123996","2019-10-28 09:00","2019","10","28","09:00","4.4","","-3.0","","58","","","M","","","","","","","96.67","","","","","","NA"
"-119.40","49.94","KELOWNA UBCO","1123996","2019-10-28 10:00","2019","10","28","10:00","6.9","","-6.8","","37","","","M","","","","","","","96.68","","","","","","NA"
"-119.40","49.94","KELOWNA UBCO","1123996","2019-10-28 11:00","2019","10","28","11:00","8.2","","-7.7","","32","","","M","","","","","","","96.70","","","","","","NA"
"-119.40","49.94","KELOWNA UBCO","1123996","2019-10-28 12:00","2019","10","28","12:00","6.9","","-5.6","","41","","","M","","","","","","","96.72","","","","","","NA"
"-119.40","49.94","KELOWNA UBCO","1123996","2019-10-28 13:00","2019","10","28","13:00","7.3","","-7.9","","33","","","M","","","","","","","96.75","","","","","","NA"
"-119.40","49.94","KELOWNA UBCO","1123996","2019-10-28 14:00","2019","10","28","14:00","8.2","","-13.0","","21","","","M","","","","","","","96.80","","","","","","NA"
"-119.40","49.94","KELOWNA UBCO","1123996","2019-10-28 15:00","2019","10","28","15:00","7.3","","-15.4","","18","","","M","","","","","","","96.90","","","","","","NA"
"-119.40","49.94","KELOWNA UBCO","1123996","2019-10-28 16:00","2019","10","28","16:00","6.0","","-16.8","","18","","","M","","","","","","","97.01","","","","","","NA"
"-119.40","49.94","KELOWNA UBCO","1123996","2019-10-28 17:00","2019","10","28","17:00","4.5","","-20.5","","14","","","M","","","","","","","97.17","","","","","","NA"
"-119.40","49.94","KELOWNA UBCO","1123996","2019-10-28 18:00","2019","10","28","18:00","3.2","","-18.1","","19","","","M","","","","","","","97.27","","","","","","NA"
"-119.40","49.94","KELOWNA UBCO","1123996","2019-10-28 19:00","2019","10","28","19:00","2.2","","-17.1","","22","","","M","","","","","","","97.39","","","","","","NA"
"-119.40","49.94","KELOWNA UBCO","1123996","2019-10-28 20:00","2019","10","28","20:00","1.7","","-17.1","","23","","","M","","","","","","","97.51","","","","","","NA"
"-119.40","49.94","KELOWNA UBCO","1123996","2019-10-28 21:00","2019","10","28","21:00","0.6","","-15.9","","28","","","M","","","","","","","97.61","","","","","","NA"
"-119.40","49.94","KELOWNA UBCO","1123996","2019-10-28 22:00","2019","10","28","22:00","0.7","","-17.8","","24","","","M","","","","","","","97.74","","","","","","NA"
"-119.40","49.94","KELOWNA UBCO","1123996","2019-10-28 23:00","2019","10","28","23:00","-0.5","","-21.1","","19","","","M","","","","","","","97.83","","","","","","NA"
"-119.40","49.94","KELOWNA UBCO","1123996","2019-10-29 00:00","2019","10","29","00:00","-2.7","","-17.0","","32","","","M","","","","","","","97.89","","","","","","NA"
"-119.40","49.94","KELOWNA UBCO","1123996","2019-10-29 01:00","2019","10","29","01:00","-3.6","","-16.9","","35","","","M","","","","","","","97.97","","","","","","NA"
"-119.40","49.94","KELOWNA UBCO","1123996","2019-10-29 02:00","2019","10","29","02:00","-4.9","","-15.0","","45","","","M","","","","","","","98.02","","","","","","NA"
"-119.40","49.94","KELOWNA UBCO","1123996","2019-10-29 03:00","2019","10","29","03:00","-5.6","","-14.0","","52","","","M","","","","","","","98.07","","","","","","NA"
"-119.40","49.94","KELOWNA UBCO","1123996","2019-10-29 04:00","2019","10","29","04:00","-5.6","","-15.2","","47","","","M","","","","","","","98.10","","","","","","NA"
"-119.40","49.94","KELOWNA UBCO","1123996","2019-10-29 05:00","2019","10","29","05:00","-6.6","","-14.8","","52","","","M","","","","","","","98.13","","","","","","NA"
"-119.40","49.94","KELOWNA UBCO","1123996","2019-10-29 06:00","2019","10","29","06:00","-7.9","","-15.6","","54","","","M","","","","","","","98.13","","","","","","NA"
"-119.40","49.94","KELOWNA UBCO","1123996","2019-10-29 07:00","2019","10","29","07:00","-7.4","","-15.5","","52","","","M","","","","","","","98.16","","","","","","NA"
"-119.40","49.94","KELOWNA UBCO","1123996","2019-10-29 08:00","2019","10","29","08:00","-4.5","","-12.6","","53","","","M","","","","","","","98.18","","","","","","NA"
"-119.40","49.94","KELOWNA UBCO","1123996","2019-10-29 09:00","2019","10","29","09:00","-2.6","","-14.3","","40","","","M","","","","","","","98.14","","","","","","NA"
"-119.40","49.94","KELOWNA UBCO","1123996","2019-10-29 10:00","2019","10","29","10:00","-0.1","","-17.1","","26","","","M","","","","","","","98.12","","","","","","NA"
"-119.40","49.94","KELOWNA UBCO","1123996","2019-10-29 11:00","2019","10","29","11:00","1.2","","-15.9","","27","","","M","","","","","","","98.09","","","","","","NA"
"-119.40","49.94","KELOWNA UBCO","1123996","2019-10-29 12:00","2019","10","29","12:00","1.6","","-15.0","","28","","","M","","","","","","","98.00","","","","","","NA"
"-119.40","49.94","KELOWNA UBCO","1123996","2019-10-29 13:00","2019","10","29","13:00","2.8","","-16.0","","24","","","M","","","","","","","97.89","","","","","","NA"
"-119.40","49.94","KELOWNA UBCO","1123996","2019-10-29 14:00","2019","10","29","14:00","3.3","","-15.5","","24","","","M","","","","","","","97.84","","","","","","NA"
"-119.40","49.94","KELOWNA UBCO","1123996","2019-10-29 15:00","2019","10","29","15:00","3.2","","-16.0","","23","","","M","","","","","","","97.79","","","","","","NA"
"-119.40","49.94","KELOWNA UBCO","1123996","2019-10-29 16:00","2019","10","29","16:00","2.3","","-15.2","","26","","","M","","","","","","","97.77","","","","","","NA"
"-119.40","49.94","KELOWNA UBCO","1123996","2019-10-29 17:00","2019","10","29","17:00","1.1","","-14.2","","31","","","M","","","","","","","97.74","","","","","","NA"
"-119.40","49.94","KELOWNA UBCO","1123996","2019-10-29 18:00","2019","10","29","18:00","0.1","","-13.0","","37","","","M","","","","","","","97.74","","","","","","NA"
"-119.40","49.94","KELOWNA UBCO","1123996","2019-10-29 19:00","2019","10","29","19:00","-1.6","","-10.3","","52","","","M","","","","","","","97.73","","","","","","NA"
"-119.40","49.94","KELOWNA UBCO","1123996","2019-10-29 20:00","2019","10","29","20:00","-0.4","","-10.7","","46","","","M","","","","","","","97.75","","","","","","NA"
"-119.40","49.94","KELOWNA UBCO","1123996","2019-10-29 21:00","2019","10","29","21:00","0.2","","-10.6","","44","","","M","","","","","","","97.75","","","","","","NA"
"-119.40","49.94","KELOWNA UBCO","1123996","2019-10-29 22:00","2019","10","29","22:00","0.3","","-10.7","","43","","","M","","","","","","","97.76","","","","","","NA"
"-119.40","49.94","KELOWNA UBCO","1123996","2019-10-29 23:00","2019","10","29","23:00","-0.2","","-11.8","","41","","","M","","","","","","","97.76","","","","","","NA"
"-119.40","49.94","KELOWNA UBCO","1123996","2019-10-30 00:00","2019","10","30","00:00","-0.5","","-12.0","","41","","","M","","","","","","","97.76","","","","","","NA"
"-119.40","49.94","KELOWNA UBCO","1123996","2019-10-30 01:00","2019","10","30","01:00","-0.9","","-11.8","","43","","","M","","","","","","","97.76","","","","","","NA"
"-119.40","49.94","KELOWNA UBCO","1123996","2019-10-30 02:00","2019","10","30","02:00","-1.4","","-12.3","","43","","","M","","","","","","","97.76","","","","","","NA"
"-119.40","49.94","KELOWNA UBCO","1123996","2019-10-30 03:00","2019","10","30","03:00","-1.8","","-12.3","","45","","","M","","","","","","","97.77","","","","","","NA"
"-119.40","49.94","KELOWNA UBCO","1123996","2019-10-30 04:00","2019","10","30","04:00","-3.1","","-11.4","","53","","","M","","","","","","","97.80","","","","","","NA"
"-119.40","49.94","KELOWNA UBCO","1123996","2019-10-30 05:00","2019","10","30","05:00","-4.0","","-11.0","","58","","","M","","","","","","","97.84","","","","","","NA"
"-119.40","49.94","KELOWNA UBCO","1123996","2019-10-30 06:00","2019","10","30","06:00","-4.9","","-11.4","","61","","","M","","","","","","","97.82","","","","","","NA"
"-119.40","49.94","KELOWNA UBCO","1123996","2019-10-30 07:00","2019","10","30","07:00","-4.6","","-11.9","","56","","","M","","","","","","","97.83","","","","","","NA"
"-119.40","49.94","KELOWNA UBCO","1123996","2019-10-30 08:00","2019","10","30","08:00","-2.0","","-10.6","","52","","","M","","","","","","","97.88","","","","","","NA"
"-119.40","49.94","KELOWNA UBCO","1123996","2019-10-30 09:00","2019","10","30","09:00","0.2","","-12.1","","39","","","M","","","","","","","97.88","","","","","","NA"
"-119.40","49.94","KELOWNA UBCO","1123996","2019-10-30 10:00","2019","10","30","10:00","2.0","","-13.2","","31","","","M","","","","","","","97.85","","","","","","NA"
"-119.40","49.94","KELOWNA UBCO","1123996","2019-10-30 11:00","2019","10","30","11:00","1.9","","-14.9","","28","","","M","","","","","","","97.79","","","","","","NA"
"-119.40","49.94","KELOWNA UBCO","1123996","2019-10-30 12:00","2019","10","30","12:00","2.6","","-14.9","","26","","","M","","","","","","","97.71","","","","","","NA"
"-119.40","49.94","KELOWNA UBCO","1123996","2019-10-30 13:00","2019","10","30","13:00","2.8","","-14.6","","26","","","M","","","","","","","97.64","","","","","","NA"
"-119.40","49.94","KELOWNA UBCO","1123996","2019-10-30 14:00","2019","10","30","14:00","3.0","","-14.6","","26","","","M","","","","","","","97.60","","","","","","NA"
"-119.40","49.94","KELOWNA UBCO","1123996","2019-10-30 15:00","2019","10","30","15:00","3.0","","-14.5","","26","","","M","","","","","","","97.55","","","","","","NA"
"-119.40","49.94","KELOWNA UBCO","1123996","2019-10-30 16:00","2019","10","30","16:00","3.1","","-14.6","","26","","","M","","","","","","","97.55","","","","","","NA"
"-119.40","49.94","KELOWNA UBCO","1123996","2019-10-30 17:00","2019","10","30","17:00","2.4","","-13.7","","29","","","M","","","","","","","97.50","","","","","","NA"
"-119.40","49.94","KELOWNA UBCO","1123996","2019-10-30 18:00","2019","10","30","18:00","1.0","","-13.1","","34","","","M","","","","","","","97.52","","","","","","NA"
"-119.40","49.94","KELOWNA UBCO","1123996","2019-10-30 19:00","2019","10","30","19:00","-0.8","","-12.0","","43","","","M","","","","","","","97.50","","","","","","NA"
"-119.40","49.94","KELOWNA UBCO","1123996","2019-10-30 20:00","2019","10","30","20:00","-1.9","","-11.0","","50","","","M","","","","","","","97.49","","","","","","NA"
"-119.40","49.94","KELOWNA UBCO","1123996","2019-10-30 21:00","2019","10","30","21:00","-2.6","","-11.1","","52","","","M","","","","","","","97.49","","","","","","NA"
"-119.40","49.94","KELOWNA UBCO","1123996","2019-10-30 22:00","2019","10","30","22:00","-2.0","","-10.8","","51","","","M","","","","","","","97.47","","","","","","NA"
"-119.40","49.94","KELOWNA UBCO","1123996","2019-10-30 23:00","2019","10","30","23:00","-1.8","","-10.4","","51","","","M","","","","","","","97.45","","","","","","NA"
"-119.40","49.94","KELOWNA UBCO","1123996","2019-10-31 00:00","2019","10","31","00:00","-2.2","","-10.1","","55","","","M","","","","","","","97.44","","","","","","NA"
"-119.40","49.94","KELOWNA UBCO","1123996","2019-10-31 01:00","2019","10","31","01:00","-0.6","","-10.1","","48","","","M","","","","","","","97.41","","","","","","NA"
"-119.40","49.94","KELOWNA UBCO","1123996","2019-10-31 02:00","2019","10","31","02:00","0.0","","-10.2","","46","","","M","","","","","","","97.40","","","","","","NA"
"-119.40","49.94","KELOWNA UBCO","1123996","2019-10-31 03:00","2019","10","31","03:00","-1.1","","-10.1","","51","","","M","","","","","","","97.38","","","","","","NA"
"-119.40","49.94","KELOWNA UBCO","1123996","2019-10-31 04:00","2019","10","31","04:00","-0.2","","-10.2","","47","","","M","","","","","","","97.37","","","","","","NA"
"-119.40","49.94","KELOWNA UBCO","1123996","2019-10-31 05:00","2019","10","31","05:00","-1.0","","-8.9","","55","","","M","","","","","","","97.38","","","","","","NA"
"-119.40","49.94","KELOWNA UBCO","1123996","2019-10-31 06:00","2019","10","31","06:00","-1.7","","-8.1","","62","","","M","","","","","","","97.38","","","","","","NA"
"-119.40","49.94","KELOWNA UBCO","1123996","2019-10-31 07:00","2019","10","31","07:00","-0.4","","-9.2","","51","","","M","","","","","","","97.39","","","","","","NA"
"-119.40","49.94","KELOWNA UBCO","1123996","2019-10-31 08:00","2019","10","31","08:00","1.0","","-7.4","","53","","","M","","","","","","","97.41","","","","","","NA"
"-119.40","49.94","KELOWNA UBCO","1123996","2019-10-31 09:00","2019","10","31","09:00","2.3","","-9.0","","43","","","M","","","","","","","97.44","","","","","","NA"
"-119.40","49.94","KELOWNA UBCO","1123996","2019-10-31 10:00","2019","10","31","10:00","3.0","","-8.8","","42","","","M","","","","","","","97.46","","","","","","NA"
"-119.40","49.94","KELOWNA UBCO","1123996","2019-10-31 11:00","2019","10","31","11:00","3.5","","-10.9","","34","","","M","","","","","","","97.46","","","","","","NA"
"-119.40","49.94","KELOWNA UBCO","1123996","2019-10-31 12:00","2019","10","31","12:00","4.1","","-10.5","","34","","","M","","","","","","","97.41","","","","","","NA"
"-119.40","49.94","KELOWNA UBCO","1123996","2019-10-31 13:00","2019","10","31","13:00","4.7","","-9.8","","34","","","M","","","","","","","97.42","","","","","","NA"
"-119.40","49.94","KELOWNA UBCO","1123996","2019-10-31 14:00","2019","10","31","14:00","4.9","","-10.6","","32","","","M","","","","","","","97.42","","","","","","NA"
"-119.40","49.94","KELOWNA UBCO","1123996","2019-10-31 15:00","2019","10","31","15:00","4.9","","-10.6","","31","","","M","","","","","","","97.44","","","","","","NA"
"-119.40","49.94","KELOWNA UBCO","1123996","2019-10-31 16:00","2019","10","31","16:00","3.7","","-10.0","","36","","","M","","","","","","","97.47","","","","","","NA"
"-119.40","49.94","KELOWNA UBCO","1123996","2019-10-31 17:00","2019","10","31","17:00","1.7","","-9.5","","43","","","M","","","","","","","97.50","","","","","","NA"
"-119.40","49.94","KELOWNA UBCO","1123996","2019-10-31 18:00","2019","10","31","18:00","0.0","","-8.2","","54","","","M","","","","","","","97.57","","","","","","NA"
"-119.40","49.94","KELOWNA UBCO","1123996","2019-10-31 19:00","2019","10","31","19:00","-1.5","","-7.8","","62","","","M","","","","","","","97.62","","","","","","NA"
"-119.40","49.94","KELOWNA UBCO","1123996","2019-10-31 20:00","2019","10","31","20:00","-2.4","","-7.4","","69","","","M","","","","","","","97.65","","","","","","NA"
"-119.40","49.94","KELOWNA UBCO","1123996","2019-10-31 21:00","2019","10","31","21:00","-3.7","","-8.1","","71","","","M","","","","","","","97.72","","","","","","NA"
"-119.40","49.94","KELOWNA UBCO","1123996","2019-10-31 22:00","2019","10","31","22:00","-2.7","","-7.3","","70","","","M","","","","","","","97.76","","","","","","NA"
"-119.40","49.94","KELOWNA UBCO","1123996","2019-10-31 23:00","2019","10","31","23:00","-3.2","","-7.3","","73","","","M","","","","","","","97.82","","","","","","NA"
